<?xml version="1.0" encoding="UTF-8"?>
<gpx xmlns:gpxdata="http://www.cluetrust.com/XML/GPXDATA/1/0" xmlns:xsi="http://www.w3.org/2001/XMLSchema-instance" xmlns="http://www.topografix.com/GPX/1/1" version="1.1" creator="http://ridewithgps.com/" xsi:schemaLocation="http://www.topografix.com/GPX/1/1 http://www.topografix.com/GPX/1/1/gpx.xsd http://www.cluetrust.com/XML/GPXDATA/1/0 http://www.cluetrust.com/Schemas/gpxdata10.xsd">
  <metadata>
    <name>Jour 13 - Boucle dans les vignobles</name>
    <link href="https://ridewithgps.com/routes/56269077">
      <text>Jour 13 - Boucle dans les vignobles</text>
    </link>
    <time>2026-07-22T10:36:11Z</time>
  </metadata>
  <trk>
    <name>Jour 13 - Boucle dans les vignobles</name>
    <trkseg>
      <trkpt lat="47.27062" lon="4.9895">
        <ele>275.2</ele>
      </trkpt>
      <trkpt lat="47.27072" lon="4.98892">
        <ele>276.3</ele>
      </trkpt>
      <trkpt lat="47.27082" lon="4.98895">
        <ele>276.3</ele>
      </trkpt>
      <trkpt lat="47.27084" lon="4.98883">
        <ele>276.4</ele>
      </trkpt>
      <trkpt lat="47.27084" lon="4.98883">
        <ele>276.4</ele>
      </trkpt>
      <trkpt lat="47.27087" lon="4.98863">
        <ele>276.6</ele>
      </trkpt>
      <trkpt lat="47.27075" lon="4.98854">
        <ele>276.8</ele>
      </trkpt>
      <trkpt lat="47.27078" lon="4.9884">
        <ele>276.9</ele>
      </trkpt>
      <trkpt lat="47.2708" lon="4.98829">
        <ele>277.0</ele>
      </trkpt>
      <trkpt lat="47.2708" lon="4.98829">
        <ele>277.0</ele>
      </trkpt>
      <trkpt lat="47.27089" lon="4.98761">
        <ele>276.2</ele>
      </trkpt>
      <trkpt lat="47.27099" lon="4.98693">
        <ele>277.4</ele>
      </trkpt>
      <trkpt lat="47.27108" lon="4.98576">
        <ele>279.0</ele>
      </trkpt>
      <trkpt lat="47.27095" lon="4.9857">
        <ele>279.1</ele>
      </trkpt>
      <trkpt lat="47.27095" lon="4.9857">
        <ele>279.1</ele>
      </trkpt>
      <trkpt lat="47.27042" lon="4.98543">
        <ele>280.0</ele>
      </trkpt>
      <trkpt lat="47.27001" lon="4.98513">
        <ele>280.8</ele>
      </trkpt>
      <trkpt lat="47.2696" lon="4.98484">
        <ele>282.4</ele>
      </trkpt>
      <trkpt lat="47.26941" lon="4.98474">
        <ele>283.3</ele>
      </trkpt>
      <trkpt lat="47.26917" lon="4.98465">
        <ele>284.2</ele>
      </trkpt>
      <trkpt lat="47.26895" lon="4.9846">
        <ele>284.4</ele>
      </trkpt>
      <trkpt lat="47.2688" lon="4.98462">
        <ele>284.4</ele>
      </trkpt>
      <trkpt lat="47.26866" lon="4.9847">
        <ele>284.1</ele>
      </trkpt>
      <trkpt lat="47.2685" lon="4.98471">
        <ele>284.0</ele>
      </trkpt>
      <trkpt lat="47.26837" lon="4.98468">
        <ele>284.2</ele>
      </trkpt>
      <trkpt lat="47.26815" lon="4.98463">
        <ele>284.1</ele>
      </trkpt>
      <trkpt lat="47.26808" lon="4.98465">
        <ele>284.0</ele>
      </trkpt>
      <trkpt lat="47.26767" lon="4.98447">
        <ele>284.1</ele>
      </trkpt>
      <trkpt lat="47.2673" lon="4.98422">
        <ele>283.9</ele>
      </trkpt>
      <trkpt lat="47.2673" lon="4.98422">
        <ele>283.9</ele>
      </trkpt>
      <trkpt lat="47.26677" lon="4.98385">
        <ele>282.2</ele>
      </trkpt>
      <trkpt lat="47.26634" lon="4.98365">
        <ele>281.2</ele>
      </trkpt>
      <trkpt lat="47.26607" lon="4.98348">
        <ele>280.6</ele>
      </trkpt>
      <trkpt lat="47.26584" lon="4.98328">
        <ele>280.2</ele>
      </trkpt>
      <trkpt lat="47.26575" lon="4.98313">
        <ele>280.6</ele>
      </trkpt>
      <trkpt lat="47.26524" lon="4.98286">
        <ele>280.7</ele>
      </trkpt>
      <trkpt lat="47.26492" lon="4.98273">
        <ele>280.9</ele>
      </trkpt>
      <trkpt lat="47.26468" lon="4.98261">
        <ele>281.6</ele>
      </trkpt>
      <trkpt lat="47.26438" lon="4.98245">
        <ele>282.1</ele>
      </trkpt>
      <trkpt lat="47.26398" lon="4.98243">
        <ele>282.2</ele>
      </trkpt>
      <trkpt lat="47.26365" lon="4.98237">
        <ele>282.3</ele>
      </trkpt>
      <trkpt lat="47.2633" lon="4.98222">
        <ele>282.7</ele>
      </trkpt>
      <trkpt lat="47.26283" lon="4.98198">
        <ele>284.2</ele>
      </trkpt>
      <trkpt lat="47.26237" lon="4.9816">
        <ele>286.2</ele>
      </trkpt>
      <trkpt lat="47.26211" lon="4.98136">
        <ele>286.7</ele>
      </trkpt>
      <trkpt lat="47.26211" lon="4.98136">
        <ele>286.7</ele>
      </trkpt>
      <trkpt lat="47.26189" lon="4.98116">
        <ele>287.2</ele>
      </trkpt>
      <trkpt lat="47.26187" lon="4.98112">
        <ele>287.3</ele>
      </trkpt>
      <trkpt lat="47.26172" lon="4.98102">
        <ele>287.6</ele>
      </trkpt>
      <trkpt lat="47.26167" lon="4.98101">
        <ele>287.6</ele>
      </trkpt>
      <trkpt lat="47.26151" lon="4.98119">
        <ele>287.3</ele>
      </trkpt>
      <trkpt lat="47.26142" lon="4.98131">
        <ele>287.0</ele>
      </trkpt>
      <trkpt lat="47.26139" lon="4.98121">
        <ele>287.3</ele>
      </trkpt>
      <trkpt lat="47.26137" lon="4.98117">
        <ele>287.4</ele>
      </trkpt>
      <trkpt lat="47.26111" lon="4.98092">
        <ele>288.4</ele>
      </trkpt>
      <trkpt lat="47.26103" lon="4.98086">
        <ele>288.7</ele>
      </trkpt>
      <trkpt lat="47.2608" lon="4.98064">
        <ele>289.6</ele>
      </trkpt>
      <trkpt lat="47.26065" lon="4.98045">
        <ele>289.7</ele>
      </trkpt>
      <trkpt lat="47.26065" lon="4.98045">
        <ele>289.7</ele>
      </trkpt>
      <trkpt lat="47.26057" lon="4.98035">
        <ele>289.8</ele>
      </trkpt>
      <trkpt lat="47.26056" lon="4.98028">
        <ele>290.1</ele>
      </trkpt>
      <trkpt lat="47.26056" lon="4.98011">
        <ele>290.9</ele>
      </trkpt>
      <trkpt lat="47.26059" lon="4.97984">
        <ele>291.8</ele>
      </trkpt>
      <trkpt lat="47.26057" lon="4.97979">
        <ele>291.9</ele>
      </trkpt>
      <trkpt lat="47.26054" lon="4.97974">
        <ele>291.9</ele>
      </trkpt>
      <trkpt lat="47.26036" lon="4.97947">
        <ele>292.1</ele>
      </trkpt>
      <trkpt lat="47.26029" lon="4.9794">
        <ele>292.1</ele>
      </trkpt>
      <trkpt lat="47.26019" lon="4.97935">
        <ele>292.0</ele>
      </trkpt>
      <trkpt lat="47.26011" lon="4.97933">
        <ele>291.9</ele>
      </trkpt>
      <trkpt lat="47.25959" lon="4.97918">
        <ele>290.9</ele>
      </trkpt>
      <trkpt lat="47.25899" lon="4.97917">
        <ele>289.3</ele>
      </trkpt>
      <trkpt lat="47.2589" lon="4.97915">
        <ele>289.1</ele>
      </trkpt>
      <trkpt lat="47.25882" lon="4.97911">
        <ele>288.9</ele>
      </trkpt>
      <trkpt lat="47.25869" lon="4.97903">
        <ele>288.6</ele>
      </trkpt>
      <trkpt lat="47.25856" lon="4.97889">
        <ele>288.5</ele>
      </trkpt>
      <trkpt lat="47.25816" lon="4.97829">
        <ele>289.3</ele>
      </trkpt>
      <trkpt lat="47.25804" lon="4.9782">
        <ele>289.8</ele>
      </trkpt>
      <trkpt lat="47.25804" lon="4.9782">
        <ele>289.8</ele>
      </trkpt>
      <trkpt lat="47.25792" lon="4.97809">
        <ele>290.5</ele>
      </trkpt>
      <trkpt lat="47.25768" lon="4.97796">
        <ele>291.2</ele>
      </trkpt>
      <trkpt lat="47.25724" lon="4.97775">
        <ele>292.3</ele>
      </trkpt>
      <trkpt lat="47.25678" lon="4.97756">
        <ele>292.8</ele>
      </trkpt>
      <trkpt lat="47.25632" lon="4.97737">
        <ele>293.4</ele>
      </trkpt>
      <trkpt lat="47.25604" lon="4.97723">
        <ele>293.9</ele>
      </trkpt>
      <trkpt lat="47.25589" lon="4.97718">
        <ele>294.0</ele>
      </trkpt>
      <trkpt lat="47.25572" lon="4.97715">
        <ele>293.9</ele>
      </trkpt>
      <trkpt lat="47.25488" lon="4.97708">
        <ele>292.9</ele>
      </trkpt>
      <trkpt lat="47.25432" lon="4.97702">
        <ele>292.5</ele>
      </trkpt>
      <trkpt lat="47.25376" lon="4.97697">
        <ele>291.6</ele>
      </trkpt>
      <trkpt lat="47.25355" lon="4.97691">
        <ele>291.4</ele>
      </trkpt>
      <trkpt lat="47.2529" lon="4.97664">
        <ele>291.0</ele>
      </trkpt>
      <trkpt lat="47.25287" lon="4.97658">
        <ele>291.0</ele>
      </trkpt>
      <trkpt lat="47.25272" lon="4.97645">
        <ele>290.8</ele>
      </trkpt>
      <trkpt lat="47.2525" lon="4.9763">
        <ele>290.4</ele>
      </trkpt>
      <trkpt lat="47.2521" lon="4.9761">
        <ele>290.4</ele>
      </trkpt>
      <trkpt lat="47.25196" lon="4.97605">
        <ele>290.4</ele>
      </trkpt>
      <trkpt lat="47.25191" lon="4.97605">
        <ele>290.4</ele>
      </trkpt>
      <trkpt lat="47.25191" lon="4.97605">
        <ele>290.4</ele>
      </trkpt>
      <trkpt lat="47.25151" lon="4.97606">
        <ele>290.1</ele>
      </trkpt>
      <trkpt lat="47.25075" lon="4.97574">
        <ele>291.3</ele>
      </trkpt>
      <trkpt lat="47.25" lon="4.97543">
        <ele>292.9</ele>
      </trkpt>
      <trkpt lat="47.24945" lon="4.97515">
        <ele>294.3</ele>
      </trkpt>
      <trkpt lat="47.24899" lon="4.97495">
        <ele>294.9</ele>
      </trkpt>
      <trkpt lat="47.24869" lon="4.97484">
        <ele>294.8</ele>
      </trkpt>
      <trkpt lat="47.24798" lon="4.97449">
        <ele>293.9</ele>
      </trkpt>
      <trkpt lat="47.24727" lon="4.97414">
        <ele>293.4</ele>
      </trkpt>
      <trkpt lat="47.24702" lon="4.97404">
        <ele>294.0</ele>
      </trkpt>
      <trkpt lat="47.24676" lon="4.97401">
        <ele>294.5</ele>
      </trkpt>
      <trkpt lat="47.24659" lon="4.97397">
        <ele>294.6</ele>
      </trkpt>
      <trkpt lat="47.24634" lon="4.97388">
        <ele>294.5</ele>
      </trkpt>
      <trkpt lat="47.24634" lon="4.97388">
        <ele>294.5</ele>
      </trkpt>
      <trkpt lat="47.24616" lon="4.97378">
        <ele>294.5</ele>
      </trkpt>
      <trkpt lat="47.24591" lon="4.97358">
        <ele>294.6</ele>
      </trkpt>
      <trkpt lat="47.24567" lon="4.9734">
        <ele>294.4</ele>
      </trkpt>
      <trkpt lat="47.24538" lon="4.97323">
        <ele>293.9</ele>
      </trkpt>
      <trkpt lat="47.24491" lon="4.97307">
        <ele>292.7</ele>
      </trkpt>
      <trkpt lat="47.24448" lon="4.97288">
        <ele>291.5</ele>
      </trkpt>
      <trkpt lat="47.24442" lon="4.97287">
        <ele>291.3</ele>
      </trkpt>
      <trkpt lat="47.24431" lon="4.97287">
        <ele>291.0</ele>
      </trkpt>
      <trkpt lat="47.24415" lon="4.97284">
        <ele>290.6</ele>
      </trkpt>
      <trkpt lat="47.24407" lon="4.97281">
        <ele>290.6</ele>
      </trkpt>
      <trkpt lat="47.24394" lon="4.97273">
        <ele>290.8</ele>
      </trkpt>
      <trkpt lat="47.24382" lon="4.97264">
        <ele>291.0</ele>
      </trkpt>
      <trkpt lat="47.24353" lon="4.97239">
        <ele>292.1</ele>
      </trkpt>
      <trkpt lat="47.24346" lon="4.97234">
        <ele>292.4</ele>
      </trkpt>
      <trkpt lat="47.24335" lon="4.9723">
        <ele>292.7</ele>
      </trkpt>
      <trkpt lat="47.24316" lon="4.97228">
        <ele>292.6</ele>
      </trkpt>
      <trkpt lat="47.243" lon="4.97224">
        <ele>292.5</ele>
      </trkpt>
      <trkpt lat="47.24254" lon="4.97202">
        <ele>292.8</ele>
      </trkpt>
      <trkpt lat="47.24247" lon="4.97199">
        <ele>292.7</ele>
      </trkpt>
      <trkpt lat="47.24229" lon="4.97196">
        <ele>292.2</ele>
      </trkpt>
      <trkpt lat="47.24203" lon="4.97197">
        <ele>291.2</ele>
      </trkpt>
      <trkpt lat="47.24172" lon="4.97196">
        <ele>290.1</ele>
      </trkpt>
      <trkpt lat="47.24153" lon="4.97199">
        <ele>290.0</ele>
      </trkpt>
      <trkpt lat="47.24141" lon="4.97199">
        <ele>290.1</ele>
      </trkpt>
      <trkpt lat="47.24091" lon="4.97181">
        <ele>291.4</ele>
      </trkpt>
      <trkpt lat="47.24061" lon="4.97165">
        <ele>292.6</ele>
      </trkpt>
      <trkpt lat="47.24007" lon="4.97134">
        <ele>294.6</ele>
      </trkpt>
      <trkpt lat="47.23948" lon="4.97098">
        <ele>296.4</ele>
      </trkpt>
      <trkpt lat="47.23924" lon="4.97081">
        <ele>296.9</ele>
      </trkpt>
      <trkpt lat="47.23915" lon="4.97073">
        <ele>297.1</ele>
      </trkpt>
      <trkpt lat="47.23882" lon="4.97049">
        <ele>296.2</ele>
      </trkpt>
      <trkpt lat="47.23837" lon="4.97021">
        <ele>294.9</ele>
      </trkpt>
      <trkpt lat="47.23817" lon="4.97016">
        <ele>294.3</ele>
      </trkpt>
      <trkpt lat="47.23777" lon="4.97016">
        <ele>293.2</ele>
      </trkpt>
      <trkpt lat="47.23777" lon="4.97016">
        <ele>293.2</ele>
      </trkpt>
      <trkpt lat="47.2376" lon="4.97015">
        <ele>292.7</ele>
      </trkpt>
      <trkpt lat="47.23734" lon="4.97011">
        <ele>292.1</ele>
      </trkpt>
      <trkpt lat="47.23675" lon="4.96991">
        <ele>291.7</ele>
      </trkpt>
      <trkpt lat="47.23616" lon="4.9697">
        <ele>292.4</ele>
      </trkpt>
      <trkpt lat="47.23551" lon="4.96947">
        <ele>292.8</ele>
      </trkpt>
      <trkpt lat="47.23485" lon="4.96923">
        <ele>292.3</ele>
      </trkpt>
      <trkpt lat="47.23419" lon="4.969">
        <ele>292.1</ele>
      </trkpt>
      <trkpt lat="47.23396" lon="4.96891">
        <ele>292.3</ele>
      </trkpt>
      <trkpt lat="47.23362" lon="4.96874">
        <ele>292.9</ele>
      </trkpt>
      <trkpt lat="47.23318" lon="4.96848">
        <ele>293.6</ele>
      </trkpt>
      <trkpt lat="47.23275" lon="4.96822">
        <ele>293.6</ele>
      </trkpt>
      <trkpt lat="47.23258" lon="4.96813">
        <ele>293.5</ele>
      </trkpt>
      <trkpt lat="47.23242" lon="4.96805">
        <ele>293.5</ele>
      </trkpt>
      <trkpt lat="47.23225" lon="4.968">
        <ele>293.5</ele>
      </trkpt>
      <trkpt lat="47.23138" lon="4.96776">
        <ele>292.9</ele>
      </trkpt>
      <trkpt lat="47.23052" lon="4.96753">
        <ele>290.3</ele>
      </trkpt>
      <trkpt lat="47.22972" lon="4.96735">
        <ele>287.9</ele>
      </trkpt>
      <trkpt lat="47.22893" lon="4.96718">
        <ele>285.4</ele>
      </trkpt>
      <trkpt lat="47.2288" lon="4.96714">
        <ele>285.2</ele>
      </trkpt>
      <trkpt lat="47.22818" lon="4.96685">
        <ele>284.8</ele>
      </trkpt>
      <trkpt lat="47.22812" lon="4.96684">
        <ele>284.7</ele>
      </trkpt>
      <trkpt lat="47.22812" lon="4.96684">
        <ele>284.7</ele>
      </trkpt>
      <trkpt lat="47.22802" lon="4.96687">
        <ele>284.3</ele>
      </trkpt>
      <trkpt lat="47.22798" lon="4.9669">
        <ele>284.0</ele>
      </trkpt>
      <trkpt lat="47.22796" lon="4.96694">
        <ele>283.8</ele>
      </trkpt>
      <trkpt lat="47.22776" lon="4.96748">
        <ele>280.7</ele>
      </trkpt>
      <trkpt lat="47.22765" lon="4.9677">
        <ele>280.0</ele>
      </trkpt>
      <trkpt lat="47.2272" lon="4.9687">
        <ele>278.6</ele>
      </trkpt>
      <trkpt lat="47.22714" lon="4.96879">
        <ele>278.6</ele>
      </trkpt>
      <trkpt lat="47.2271" lon="4.96885">
        <ele>278.5</ele>
      </trkpt>
      <trkpt lat="47.2266" lon="4.9691">
        <ele>279.2</ele>
      </trkpt>
      <trkpt lat="47.22635" lon="4.96914">
        <ele>279.4</ele>
      </trkpt>
      <trkpt lat="47.22608" lon="4.96916">
        <ele>279.7</ele>
      </trkpt>
      <trkpt lat="47.226" lon="4.9692">
        <ele>279.8</ele>
      </trkpt>
      <trkpt lat="47.22596" lon="4.96955">
        <ele>279.4</ele>
      </trkpt>
      <trkpt lat="47.22587" lon="4.97012">
        <ele>278.5</ele>
      </trkpt>
      <trkpt lat="47.22583" lon="4.97012">
        <ele>278.6</ele>
      </trkpt>
      <trkpt lat="47.22571" lon="4.97019">
        <ele>278.5</ele>
      </trkpt>
      <trkpt lat="47.22543" lon="4.97029">
        <ele>278.4</ele>
      </trkpt>
      <trkpt lat="47.22498" lon="4.97064">
        <ele>277.7</ele>
      </trkpt>
      <trkpt lat="47.22492" lon="4.97069">
        <ele>277.5</ele>
      </trkpt>
      <trkpt lat="47.2249" lon="4.97074">
        <ele>277.3</ele>
      </trkpt>
      <trkpt lat="47.22471" lon="4.97071">
        <ele>277.4</ele>
      </trkpt>
      <trkpt lat="47.22464" lon="4.97067">
        <ele>277.5</ele>
      </trkpt>
      <trkpt lat="47.22459" lon="4.97062">
        <ele>277.6</ele>
      </trkpt>
      <trkpt lat="47.22459" lon="4.97062">
        <ele>277.6</ele>
      </trkpt>
      <trkpt lat="47.2246" lon="4.97057">
        <ele>277.8</ele>
      </trkpt>
      <trkpt lat="47.22459" lon="4.97054">
        <ele>277.9</ele>
      </trkpt>
      <trkpt lat="47.22458" lon="4.97052">
        <ele>277.9</ele>
      </trkpt>
      <trkpt lat="47.22453" lon="4.9705">
        <ele>278.0</ele>
      </trkpt>
      <trkpt lat="47.22448" lon="4.9702">
        <ele>278.8</ele>
      </trkpt>
      <trkpt lat="47.22438" lon="4.97005">
        <ele>279.1</ele>
      </trkpt>
      <trkpt lat="47.22407" lon="4.96974">
        <ele>279.0</ele>
      </trkpt>
      <trkpt lat="47.22394" lon="4.96966">
        <ele>278.8</ele>
      </trkpt>
      <trkpt lat="47.22391" lon="4.96965">
        <ele>278.7</ele>
      </trkpt>
      <trkpt lat="47.22382" lon="4.96964">
        <ele>278.4</ele>
      </trkpt>
      <trkpt lat="47.22372" lon="4.96964">
        <ele>278.1</ele>
      </trkpt>
      <trkpt lat="47.22361" lon="4.96968">
        <ele>277.8</ele>
      </trkpt>
      <trkpt lat="47.22342" lon="4.96978">
        <ele>277.2</ele>
      </trkpt>
      <trkpt lat="47.22324" lon="4.96983">
        <ele>276.7</ele>
      </trkpt>
      <trkpt lat="47.22257" lon="4.96994">
        <ele>274.3</ele>
      </trkpt>
      <trkpt lat="47.22248" lon="4.96995">
        <ele>274.0</ele>
      </trkpt>
      <trkpt lat="47.22232" lon="4.96992">
        <ele>273.8</ele>
      </trkpt>
      <trkpt lat="47.22219" lon="4.96987">
        <ele>273.7</ele>
      </trkpt>
      <trkpt lat="47.22161" lon="4.96954">
        <ele>273.5</ele>
      </trkpt>
      <trkpt lat="47.22121" lon="4.96939">
        <ele>273.0</ele>
      </trkpt>
      <trkpt lat="47.2209" lon="4.96932">
        <ele>272.7</ele>
      </trkpt>
      <trkpt lat="47.2209" lon="4.96932">
        <ele>272.7</ele>
      </trkpt>
      <trkpt lat="47.22051" lon="4.96922">
        <ele>272.9</ele>
      </trkpt>
      <trkpt lat="47.21992" lon="4.96901">
        <ele>272.9</ele>
      </trkpt>
      <trkpt lat="47.21952" lon="4.96884">
        <ele>272.1</ele>
      </trkpt>
      <trkpt lat="47.21896" lon="4.96857">
        <ele>271.7</ele>
      </trkpt>
      <trkpt lat="47.21877" lon="4.9685">
        <ele>271.5</ele>
      </trkpt>
      <trkpt lat="47.21848" lon="4.96844">
        <ele>271.1</ele>
      </trkpt>
      <trkpt lat="47.21801" lon="4.96838">
        <ele>270.8</ele>
      </trkpt>
      <trkpt lat="47.2177" lon="4.96832">
        <ele>271.0</ele>
      </trkpt>
      <trkpt lat="47.21757" lon="4.96829">
        <ele>271.1</ele>
      </trkpt>
      <trkpt lat="47.2171" lon="4.96812">
        <ele>271.5</ele>
      </trkpt>
      <trkpt lat="47.21643" lon="4.96786">
        <ele>272.1</ele>
      </trkpt>
      <trkpt lat="47.2157" lon="4.96759">
        <ele>273.0</ele>
      </trkpt>
      <trkpt lat="47.21503" lon="4.96724">
        <ele>273.0</ele>
      </trkpt>
      <trkpt lat="47.21491" lon="4.96719">
        <ele>273.2</ele>
      </trkpt>
      <trkpt lat="47.21464" lon="4.96712">
        <ele>273.5</ele>
      </trkpt>
      <trkpt lat="47.21445" lon="4.96715">
        <ele>273.1</ele>
      </trkpt>
      <trkpt lat="47.21407" lon="4.96726">
        <ele>272.1</ele>
      </trkpt>
      <trkpt lat="47.21393" lon="4.96728">
        <ele>272.2</ele>
      </trkpt>
      <trkpt lat="47.21372" lon="4.96723">
        <ele>272.8</ele>
      </trkpt>
      <trkpt lat="47.21354" lon="4.96716">
        <ele>273.4</ele>
      </trkpt>
      <trkpt lat="47.21304" lon="4.96691">
        <ele>273.5</ele>
      </trkpt>
      <trkpt lat="47.21255" lon="4.96666">
        <ele>272.3</ele>
      </trkpt>
      <trkpt lat="47.21228" lon="4.96653">
        <ele>272.9</ele>
      </trkpt>
      <trkpt lat="47.21194" lon="4.96643">
        <ele>273.5</ele>
      </trkpt>
      <trkpt lat="47.21141" lon="4.96631">
        <ele>274.3</ele>
      </trkpt>
      <trkpt lat="47.21094" lon="4.96613">
        <ele>275.5</ele>
      </trkpt>
      <trkpt lat="47.21048" lon="4.96595">
        <ele>276.9</ele>
      </trkpt>
      <trkpt lat="47.21009" lon="4.96578">
        <ele>278.1</ele>
      </trkpt>
      <trkpt lat="47.20985" lon="4.96565">
        <ele>278.5</ele>
      </trkpt>
      <trkpt lat="47.20943" lon="4.96536">
        <ele>279.4</ele>
      </trkpt>
      <trkpt lat="47.20928" lon="4.96527">
        <ele>279.7</ele>
      </trkpt>
      <trkpt lat="47.20906" lon="4.96522">
        <ele>279.7</ele>
      </trkpt>
      <trkpt lat="47.20893" lon="4.96522">
        <ele>279.5</ele>
      </trkpt>
      <trkpt lat="47.20822" lon="4.96529">
        <ele>277.5</ele>
      </trkpt>
      <trkpt lat="47.20746" lon="4.96535">
        <ele>274.5</ele>
      </trkpt>
      <trkpt lat="47.20724" lon="4.96537">
        <ele>273.4</ele>
      </trkpt>
      <trkpt lat="47.20676" lon="4.96546">
        <ele>270.8</ele>
      </trkpt>
      <trkpt lat="47.20665" lon="4.96551">
        <ele>270.1</ele>
      </trkpt>
      <trkpt lat="47.20625" lon="4.96573">
        <ele>268.4</ele>
      </trkpt>
      <trkpt lat="47.20613" lon="4.96575">
        <ele>268.0</ele>
      </trkpt>
      <trkpt lat="47.20524" lon="4.96569">
        <ele>266.8</ele>
      </trkpt>
      <trkpt lat="47.20473" lon="4.96564">
        <ele>266.4</ele>
      </trkpt>
      <trkpt lat="47.20459" lon="4.96561">
        <ele>266.4</ele>
      </trkpt>
      <trkpt lat="47.20442" lon="4.96555">
        <ele>266.6</ele>
      </trkpt>
      <trkpt lat="47.20423" lon="4.96545">
        <ele>266.9</ele>
      </trkpt>
      <trkpt lat="47.20398" lon="4.96537">
        <ele>267.2</ele>
      </trkpt>
      <trkpt lat="47.20338" lon="4.96524">
        <ele>267.8</ele>
      </trkpt>
      <trkpt lat="47.20277" lon="4.96511">
        <ele>267.8</ele>
      </trkpt>
      <trkpt lat="47.20257" lon="4.96504">
        <ele>267.9</ele>
      </trkpt>
      <trkpt lat="47.20194" lon="4.96476">
        <ele>269.8</ele>
      </trkpt>
      <trkpt lat="47.20123" lon="4.96447">
        <ele>271.5</ele>
      </trkpt>
      <trkpt lat="47.20052" lon="4.96417">
        <ele>273.0</ele>
      </trkpt>
      <trkpt lat="47.20025" lon="4.96407">
        <ele>273.3</ele>
      </trkpt>
      <trkpt lat="47.20002" lon="4.96395">
        <ele>273.5</ele>
      </trkpt>
      <trkpt lat="47.19983" lon="4.96383">
        <ele>274.0</ele>
      </trkpt>
      <trkpt lat="47.19974" lon="4.96373">
        <ele>274.4</ele>
      </trkpt>
      <trkpt lat="47.19959" lon="4.96351">
        <ele>275.4</ele>
      </trkpt>
      <trkpt lat="47.19946" lon="4.96328">
        <ele>276.5</ele>
      </trkpt>
      <trkpt lat="47.19929" lon="4.96302">
        <ele>277.9</ele>
      </trkpt>
      <trkpt lat="47.19921" lon="4.96284">
        <ele>278.7</ele>
      </trkpt>
      <trkpt lat="47.1991" lon="4.9625">
        <ele>279.8</ele>
      </trkpt>
      <trkpt lat="47.19904" lon="4.96238">
        <ele>280.1</ele>
      </trkpt>
      <trkpt lat="47.19898" lon="4.9623">
        <ele>280.3</ele>
      </trkpt>
      <trkpt lat="47.19892" lon="4.96224">
        <ele>280.3</ele>
      </trkpt>
      <trkpt lat="47.19886" lon="4.96221">
        <ele>280.3</ele>
      </trkpt>
      <trkpt lat="47.19878" lon="4.9622">
        <ele>280.2</ele>
      </trkpt>
      <trkpt lat="47.19868" lon="4.9622">
        <ele>279.9</ele>
      </trkpt>
      <trkpt lat="47.19855" lon="4.96229">
        <ele>279.3</ele>
      </trkpt>
      <trkpt lat="47.19844" lon="4.96241">
        <ele>278.6</ele>
      </trkpt>
      <trkpt lat="47.19837" lon="4.96247">
        <ele>278.2</ele>
      </trkpt>
      <trkpt lat="47.19837" lon="4.96254">
        <ele>277.9</ele>
      </trkpt>
      <trkpt lat="47.19832" lon="4.96271">
        <ele>276.7</ele>
      </trkpt>
      <trkpt lat="47.19821" lon="4.96318">
        <ele>273.6</ele>
      </trkpt>
      <trkpt lat="47.19811" lon="4.96346">
        <ele>271.7</ele>
      </trkpt>
      <trkpt lat="47.19804" lon="4.96355">
        <ele>270.9</ele>
      </trkpt>
      <trkpt lat="47.19788" lon="4.9635">
        <ele>270.8</ele>
      </trkpt>
      <trkpt lat="47.19783" lon="4.96351">
        <ele>270.6</ele>
      </trkpt>
      <trkpt lat="47.19779" lon="4.96353">
        <ele>270.4</ele>
      </trkpt>
      <trkpt lat="47.19776" lon="4.96357">
        <ele>270.0</ele>
      </trkpt>
      <trkpt lat="47.19772" lon="4.96363">
        <ele>269.5</ele>
      </trkpt>
      <trkpt lat="47.19765" lon="4.96397">
        <ele>266.9</ele>
      </trkpt>
      <trkpt lat="47.19765" lon="4.96397">
        <ele>266.9</ele>
      </trkpt>
      <trkpt lat="47.19742" lon="4.96506">
        <ele>260.7</ele>
      </trkpt>
      <trkpt lat="47.19726" lon="4.96588">
        <ele>257.9</ele>
      </trkpt>
      <trkpt lat="47.1971" lon="4.9667">
        <ele>254.4</ele>
      </trkpt>
      <trkpt lat="47.19688" lon="4.9674">
        <ele>251.0</ele>
      </trkpt>
      <trkpt lat="47.19677" lon="4.9678">
        <ele>249.8</ele>
      </trkpt>
      <trkpt lat="47.1966" lon="4.96846">
        <ele>248.5</ele>
      </trkpt>
      <trkpt lat="47.19642" lon="4.96912">
        <ele>246.8</ele>
      </trkpt>
      <trkpt lat="47.19639" lon="4.96926">
        <ele>246.7</ele>
      </trkpt>
      <trkpt lat="47.19635" lon="4.96945">
        <ele>246.6</ele>
      </trkpt>
      <trkpt lat="47.19636" lon="4.96967">
        <ele>246.6</ele>
      </trkpt>
      <trkpt lat="47.19636" lon="4.96967">
        <ele>246.6</ele>
      </trkpt>
      <trkpt lat="47.19636" lon="4.96978">
        <ele>246.6</ele>
      </trkpt>
      <trkpt lat="47.19644" lon="4.96982">
        <ele>246.7</ele>
      </trkpt>
      <trkpt lat="47.19642" lon="4.9699">
        <ele>246.7</ele>
      </trkpt>
      <trkpt lat="47.19642" lon="4.9699">
        <ele>246.7</ele>
      </trkpt>
      <trkpt lat="47.19634" lon="4.97015">
        <ele>246.5</ele>
      </trkpt>
      <trkpt lat="47.19619" lon="4.97052">
        <ele>246.1</ele>
      </trkpt>
      <trkpt lat="47.19619" lon="4.97052">
        <ele>246.1</ele>
      </trkpt>
      <trkpt lat="47.19605" lon="4.97088">
        <ele>245.5</ele>
      </trkpt>
      <trkpt lat="47.19605" lon="4.97088">
        <ele>245.5</ele>
      </trkpt>
      <trkpt lat="47.19593" lon="4.97117">
        <ele>244.9</ele>
      </trkpt>
      <trkpt lat="47.19576" lon="4.97173">
        <ele>243.7</ele>
      </trkpt>
      <trkpt lat="47.19549" lon="4.97294">
        <ele>241.6</ele>
      </trkpt>
      <trkpt lat="47.19534" lon="4.97345">
        <ele>240.7</ele>
      </trkpt>
      <trkpt lat="47.19534" lon="4.97345">
        <ele>240.7</ele>
      </trkpt>
      <trkpt lat="47.19525" lon="4.97371">
        <ele>240.1</ele>
      </trkpt>
      <trkpt lat="47.19475" lon="4.97293">
        <ele>240.3</ele>
      </trkpt>
      <trkpt lat="47.19456" lon="4.97221">
        <ele>240.7</ele>
      </trkpt>
      <trkpt lat="47.19449" lon="4.97192">
        <ele>240.8</ele>
      </trkpt>
      <trkpt lat="47.19449" lon="4.97192">
        <ele>240.8</ele>
      </trkpt>
      <trkpt lat="47.19432" lon="4.97121">
        <ele>242.3</ele>
      </trkpt>
      <trkpt lat="47.19403" lon="4.97001">
        <ele>244.8</ele>
      </trkpt>
      <trkpt lat="47.19402" lon="4.96961">
        <ele>245.2</ele>
      </trkpt>
      <trkpt lat="47.19397" lon="4.96928">
        <ele>245.4</ele>
      </trkpt>
      <trkpt lat="47.19396" lon="4.96891">
        <ele>245.6</ele>
      </trkpt>
      <trkpt lat="47.1932" lon="4.96875">
        <ele>244.6</ele>
      </trkpt>
      <trkpt lat="47.19245" lon="4.96858">
        <ele>245.0</ele>
      </trkpt>
      <trkpt lat="47.19161" lon="4.96845">
        <ele>245.1</ele>
      </trkpt>
      <trkpt lat="47.19109" lon="4.96839">
        <ele>245.7</ele>
      </trkpt>
      <trkpt lat="47.19044" lon="4.96836">
        <ele>246.9</ele>
      </trkpt>
      <trkpt lat="47.1898" lon="4.96833">
        <ele>248.2</ele>
      </trkpt>
      <trkpt lat="47.18963" lon="4.96829">
        <ele>248.5</ele>
      </trkpt>
      <trkpt lat="47.18963" lon="4.96829">
        <ele>248.5</ele>
      </trkpt>
      <trkpt lat="47.1891" lon="4.96817">
        <ele>249.2</ele>
      </trkpt>
      <trkpt lat="47.18834" lon="4.96788">
        <ele>247.6</ele>
      </trkpt>
      <trkpt lat="47.18796" lon="4.96777">
        <ele>247.2</ele>
      </trkpt>
      <trkpt lat="47.18711" lon="4.96743">
        <ele>247.6</ele>
      </trkpt>
      <trkpt lat="47.18626" lon="4.9671">
        <ele>247.7</ele>
      </trkpt>
      <trkpt lat="47.18541" lon="4.96676">
        <ele>247.9</ele>
      </trkpt>
      <trkpt lat="47.18457" lon="4.96643">
        <ele>248.1</ele>
      </trkpt>
      <trkpt lat="47.18405" lon="4.96627">
        <ele>247.9</ele>
      </trkpt>
      <trkpt lat="47.18354" lon="4.96611">
        <ele>247.0</ele>
      </trkpt>
      <trkpt lat="47.18295" lon="4.96592">
        <ele>245.7</ele>
      </trkpt>
      <trkpt lat="47.18236" lon="4.96573">
        <ele>244.9</ele>
      </trkpt>
      <trkpt lat="47.18168" lon="4.96553">
        <ele>244.0</ele>
      </trkpt>
      <trkpt lat="47.18115" lon="4.96539">
        <ele>242.8</ele>
      </trkpt>
      <trkpt lat="47.1806" lon="4.96532">
        <ele>242.1</ele>
      </trkpt>
      <trkpt lat="47.18016" lon="4.96535">
        <ele>241.7</ele>
      </trkpt>
      <trkpt lat="47.17948" lon="4.96545">
        <ele>239.9</ele>
      </trkpt>
      <trkpt lat="47.17879" lon="4.96554">
        <ele>238.4</ele>
      </trkpt>
      <trkpt lat="47.17793" lon="4.96569">
        <ele>237.3</ele>
      </trkpt>
      <trkpt lat="47.17778" lon="4.96569">
        <ele>237.2</ele>
      </trkpt>
      <trkpt lat="47.17768" lon="4.96566">
        <ele>237.0</ele>
      </trkpt>
      <trkpt lat="47.17761" lon="4.96562">
        <ele>236.9</ele>
      </trkpt>
      <trkpt lat="47.17761" lon="4.96562">
        <ele>236.9</ele>
      </trkpt>
      <trkpt lat="47.17759" lon="4.96553">
        <ele>236.7</ele>
      </trkpt>
      <trkpt lat="47.17755" lon="4.96546">
        <ele>236.6</ele>
      </trkpt>
      <trkpt lat="47.17749" lon="4.9654">
        <ele>236.5</ele>
      </trkpt>
      <trkpt lat="47.17777" lon="4.96482">
        <ele>236.5</ele>
      </trkpt>
      <trkpt lat="47.17804" lon="4.96424">
        <ele>237.0</ele>
      </trkpt>
      <trkpt lat="47.17814" lon="4.96398">
        <ele>236.7</ele>
      </trkpt>
      <trkpt lat="47.17868" lon="4.96419">
        <ele>238.2</ele>
      </trkpt>
      <trkpt lat="47.17883" lon="4.96379">
        <ele>237.9</ele>
      </trkpt>
      <trkpt lat="47.17891" lon="4.9635">
        <ele>237.5</ele>
      </trkpt>
      <trkpt lat="47.17909" lon="4.96289">
        <ele>237.3</ele>
      </trkpt>
      <trkpt lat="47.17917" lon="4.96267">
        <ele>237.2</ele>
      </trkpt>
      <trkpt lat="47.17929" lon="4.96237">
        <ele>237.6</ele>
      </trkpt>
      <trkpt lat="47.17952" lon="4.96195">
        <ele>238.4</ele>
      </trkpt>
      <trkpt lat="47.17997" lon="4.96109">
        <ele>241.3</ele>
      </trkpt>
      <trkpt lat="47.18015" lon="4.96073">
        <ele>243.4</ele>
      </trkpt>
      <trkpt lat="47.18059" lon="4.95975">
        <ele>251.9</ele>
      </trkpt>
      <trkpt lat="47.18077" lon="4.95942">
        <ele>254.5</ele>
      </trkpt>
      <trkpt lat="47.18113" lon="4.95888">
        <ele>258.9</ele>
      </trkpt>
      <trkpt lat="47.18121" lon="4.95873">
        <ele>260.1</ele>
      </trkpt>
      <trkpt lat="47.18146" lon="4.95817">
        <ele>263.9</ele>
      </trkpt>
      <trkpt lat="47.18157" lon="4.95798">
        <ele>264.8</ele>
      </trkpt>
      <trkpt lat="47.18166" lon="4.95787">
        <ele>265.2</ele>
      </trkpt>
      <trkpt lat="47.18206" lon="4.95749">
        <ele>266.6</ele>
      </trkpt>
      <trkpt lat="47.18245" lon="4.95707">
        <ele>267.6</ele>
      </trkpt>
      <trkpt lat="47.18304" lon="4.95634">
        <ele>269.0</ele>
      </trkpt>
      <trkpt lat="47.18326" lon="4.95605">
        <ele>269.0</ele>
      </trkpt>
      <trkpt lat="47.18344" lon="4.95578">
        <ele>268.7</ele>
      </trkpt>
      <trkpt lat="47.18372" lon="4.9553">
        <ele>269.1</ele>
      </trkpt>
      <trkpt lat="47.18395" lon="4.95484">
        <ele>270.6</ele>
      </trkpt>
      <trkpt lat="47.1844" lon="4.95404">
        <ele>273.8</ele>
      </trkpt>
      <trkpt lat="47.18452" lon="4.9538">
        <ele>274.7</ele>
      </trkpt>
      <trkpt lat="47.18458" lon="4.95361">
        <ele>275.3</ele>
      </trkpt>
      <trkpt lat="47.18458" lon="4.95361">
        <ele>275.3</ele>
      </trkpt>
      <trkpt lat="47.18478" lon="4.95309">
        <ele>277.4</ele>
      </trkpt>
      <trkpt lat="47.18485" lon="4.95294">
        <ele>277.9</ele>
      </trkpt>
      <trkpt lat="47.18497" lon="4.95299">
        <ele>278.3</ele>
      </trkpt>
      <trkpt lat="47.18533" lon="4.95322">
        <ele>277.0</ele>
      </trkpt>
      <trkpt lat="47.18577" lon="4.95323">
        <ele>275.5</ele>
      </trkpt>
      <trkpt lat="47.18582" lon="4.95319">
        <ele>275.4</ele>
      </trkpt>
      <trkpt lat="47.18594" lon="4.95314">
        <ele>276.1</ele>
      </trkpt>
      <trkpt lat="47.18603" lon="4.95308">
        <ele>276.9</ele>
      </trkpt>
      <trkpt lat="47.18617" lon="4.95302">
        <ele>278.1</ele>
      </trkpt>
      <trkpt lat="47.18622" lon="4.95353">
        <ele>276.1</ele>
      </trkpt>
      <trkpt lat="47.18622" lon="4.95353">
        <ele>276.1</ele>
      </trkpt>
      <trkpt lat="47.1863" lon="4.95412">
        <ele>273.8</ele>
      </trkpt>
      <trkpt lat="47.18633" lon="4.9542">
        <ele>273.5</ele>
      </trkpt>
      <trkpt lat="47.18642" lon="4.95444">
        <ele>273.3</ele>
      </trkpt>
      <trkpt lat="47.18655" lon="4.95481">
        <ele>273.0</ele>
      </trkpt>
      <trkpt lat="47.18664" lon="4.95505">
        <ele>272.8</ele>
      </trkpt>
      <trkpt lat="47.1867" lon="4.95503">
        <ele>273.0</ele>
      </trkpt>
      <trkpt lat="47.18675" lon="4.95503">
        <ele>273.2</ele>
      </trkpt>
      <trkpt lat="47.18681" lon="4.95505">
        <ele>273.3</ele>
      </trkpt>
      <trkpt lat="47.18688" lon="4.9551">
        <ele>273.4</ele>
      </trkpt>
      <trkpt lat="47.18699" lon="4.95524">
        <ele>273.3</ele>
      </trkpt>
      <trkpt lat="47.18708" lon="4.9554">
        <ele>273.0</ele>
      </trkpt>
      <trkpt lat="47.1872" lon="4.95559">
        <ele>272.8</ele>
      </trkpt>
      <trkpt lat="47.18732" lon="4.95574">
        <ele>272.7</ele>
      </trkpt>
      <trkpt lat="47.1877" lon="4.95616">
        <ele>272.4</ele>
      </trkpt>
      <trkpt lat="47.18808" lon="4.95658">
        <ele>271.8</ele>
      </trkpt>
      <trkpt lat="47.18822" lon="4.95675">
        <ele>271.4</ele>
      </trkpt>
      <trkpt lat="47.18833" lon="4.95682">
        <ele>271.4</ele>
      </trkpt>
      <trkpt lat="47.18857" lon="4.9569">
        <ele>272.0</ele>
      </trkpt>
      <trkpt lat="47.18882" lon="4.95702">
        <ele>272.5</ele>
      </trkpt>
      <trkpt lat="47.18889" lon="4.95707">
        <ele>272.6</ele>
      </trkpt>
      <trkpt lat="47.18908" lon="4.95724">
        <ele>272.6</ele>
      </trkpt>
      <trkpt lat="47.18952" lon="4.95767">
        <ele>273.1</ele>
      </trkpt>
      <trkpt lat="47.18964" lon="4.95778">
        <ele>273.2</ele>
      </trkpt>
      <trkpt lat="47.18975" lon="4.9579">
        <ele>273.2</ele>
      </trkpt>
      <trkpt lat="47.19001" lon="4.95813">
        <ele>273.0</ele>
      </trkpt>
      <trkpt lat="47.19022" lon="4.9583">
        <ele>272.2</ele>
      </trkpt>
      <trkpt lat="47.19043" lon="4.95843">
        <ele>271.7</ele>
      </trkpt>
      <trkpt lat="47.19096" lon="4.95866">
        <ele>271.6</ele>
      </trkpt>
      <trkpt lat="47.19096" lon="4.95866">
        <ele>271.6</ele>
      </trkpt>
      <trkpt lat="47.19124" lon="4.95879">
        <ele>272.1</ele>
      </trkpt>
      <trkpt lat="47.19145" lon="4.9589">
        <ele>272.1</ele>
      </trkpt>
      <trkpt lat="47.1917" lon="4.95906">
        <ele>271.7</ele>
      </trkpt>
      <trkpt lat="47.19235" lon="4.95955">
        <ele>268.8</ele>
      </trkpt>
      <trkpt lat="47.19301" lon="4.96004">
        <ele>265.4</ele>
      </trkpt>
      <trkpt lat="47.19367" lon="4.96053">
        <ele>264.4</ele>
      </trkpt>
      <trkpt lat="47.19435" lon="4.96092">
        <ele>265.4</ele>
      </trkpt>
      <trkpt lat="47.19468" lon="4.96115">
        <ele>265.8</ele>
      </trkpt>
      <trkpt lat="47.19511" lon="4.96148">
        <ele>266.2</ele>
      </trkpt>
      <trkpt lat="47.19555" lon="4.96181">
        <ele>266.0</ele>
      </trkpt>
      <trkpt lat="47.19561" lon="4.96181">
        <ele>266.1</ele>
      </trkpt>
      <trkpt lat="47.1957" lon="4.96182">
        <ele>266.3</ele>
      </trkpt>
      <trkpt lat="47.19653" lon="4.96209">
        <ele>268.9</ele>
      </trkpt>
      <trkpt lat="47.19673" lon="4.96211">
        <ele>269.8</ele>
      </trkpt>
      <trkpt lat="47.19704" lon="4.9621">
        <ele>271.9</ele>
      </trkpt>
      <trkpt lat="47.19704" lon="4.96214">
        <ele>271.8</ele>
      </trkpt>
      <trkpt lat="47.19716" lon="4.96214">
        <ele>272.6</ele>
      </trkpt>
      <trkpt lat="47.19728" lon="4.96215">
        <ele>273.4</ele>
      </trkpt>
      <trkpt lat="47.19734" lon="4.96216">
        <ele>273.7</ele>
      </trkpt>
      <trkpt lat="47.19739" lon="4.96217">
        <ele>274.1</ele>
      </trkpt>
      <trkpt lat="47.19744" lon="4.96218">
        <ele>274.4</ele>
      </trkpt>
      <trkpt lat="47.19748" lon="4.96219">
        <ele>274.6</ele>
      </trkpt>
      <trkpt lat="47.19755" lon="4.96222">
        <ele>274.9</ele>
      </trkpt>
      <trkpt lat="47.19764" lon="4.96226">
        <ele>275.3</ele>
      </trkpt>
      <trkpt lat="47.19789" lon="4.96237">
        <ele>276.3</ele>
      </trkpt>
      <trkpt lat="47.19807" lon="4.96244">
        <ele>276.9</ele>
      </trkpt>
      <trkpt lat="47.1981" lon="4.96245">
        <ele>277.0</ele>
      </trkpt>
      <trkpt lat="47.19817" lon="4.96247">
        <ele>277.3</ele>
      </trkpt>
      <trkpt lat="47.19822" lon="4.96248">
        <ele>277.5</ele>
      </trkpt>
      <trkpt lat="47.19827" lon="4.96249">
        <ele>277.7</ele>
      </trkpt>
      <trkpt lat="47.19831" lon="4.9625">
        <ele>277.9</ele>
      </trkpt>
      <trkpt lat="47.19835" lon="4.9625">
        <ele>278.0</ele>
      </trkpt>
      <trkpt lat="47.19839" lon="4.96251">
        <ele>278.1</ele>
      </trkpt>
      <trkpt lat="47.19845" lon="4.96244">
        <ele>278.5</ele>
      </trkpt>
      <trkpt lat="47.19846" lon="4.96242">
        <ele>278.6</ele>
      </trkpt>
      <trkpt lat="47.19849" lon="4.9624">
        <ele>278.7</ele>
      </trkpt>
      <trkpt lat="47.19855" lon="4.96234">
        <ele>279.1</ele>
      </trkpt>
      <trkpt lat="47.19862" lon="4.96227">
        <ele>279.5</ele>
      </trkpt>
      <trkpt lat="47.19869" lon="4.96222">
        <ele>279.9</ele>
      </trkpt>
      <trkpt lat="47.19873" lon="4.96218">
        <ele>280.1</ele>
      </trkpt>
      <trkpt lat="47.19876" lon="4.96217">
        <ele>280.2</ele>
      </trkpt>
      <trkpt lat="47.19879" lon="4.96216">
        <ele>280.3</ele>
      </trkpt>
      <trkpt lat="47.19881" lon="4.96215">
        <ele>280.4</ele>
      </trkpt>
      <trkpt lat="47.19886" lon="4.96213">
        <ele>280.6</ele>
      </trkpt>
      <trkpt lat="47.19886" lon="4.96213">
        <ele>280.6</ele>
      </trkpt>
      <trkpt lat="47.19886" lon="4.96211">
        <ele>280.7</ele>
      </trkpt>
      <trkpt lat="47.19886" lon="4.96209">
        <ele>280.7</ele>
      </trkpt>
      <trkpt lat="47.19887" lon="4.96207">
        <ele>280.8</ele>
      </trkpt>
      <trkpt lat="47.19888" lon="4.96205">
        <ele>280.9</ele>
      </trkpt>
      <trkpt lat="47.1989" lon="4.96204">
        <ele>281.0</ele>
      </trkpt>
      <trkpt lat="47.19891" lon="4.96203">
        <ele>281.1</ele>
      </trkpt>
      <trkpt lat="47.19893" lon="4.96203">
        <ele>281.1</ele>
      </trkpt>
      <trkpt lat="47.19895" lon="4.96204">
        <ele>281.1</ele>
      </trkpt>
      <trkpt lat="47.19896" lon="4.96205">
        <ele>281.1</ele>
      </trkpt>
      <trkpt lat="47.19898" lon="4.96206">
        <ele>281.1</ele>
      </trkpt>
      <trkpt lat="47.19926" lon="4.96188">
        <ele>282.3</ele>
      </trkpt>
      <trkpt lat="47.19926" lon="4.96188">
        <ele>282.3</ele>
      </trkpt>
      <trkpt lat="47.19929" lon="4.96192">
        <ele>282.2</ele>
      </trkpt>
      <trkpt lat="47.19931" lon="4.96194">
        <ele>282.1</ele>
      </trkpt>
      <trkpt lat="47.19935" lon="4.96196">
        <ele>282.1</ele>
      </trkpt>
      <trkpt lat="47.19936" lon="4.96197">
        <ele>282.1</ele>
      </trkpt>
      <trkpt lat="47.19939" lon="4.96198">
        <ele>282.0</ele>
      </trkpt>
      <trkpt lat="47.19942" lon="4.96199">
        <ele>282.0</ele>
      </trkpt>
      <trkpt lat="47.19945" lon="4.96201">
        <ele>282.0</ele>
      </trkpt>
      <trkpt lat="47.19953" lon="4.96204">
        <ele>281.9</ele>
      </trkpt>
      <trkpt lat="47.19961" lon="4.96206">
        <ele>281.9</ele>
      </trkpt>
      <trkpt lat="47.19966" lon="4.96207">
        <ele>281.9</ele>
      </trkpt>
      <trkpt lat="47.19969" lon="4.96207">
        <ele>281.9</ele>
      </trkpt>
      <trkpt lat="47.19971" lon="4.96208">
        <ele>281.8</ele>
      </trkpt>
      <trkpt lat="47.19977" lon="4.96207">
        <ele>281.9</ele>
      </trkpt>
      <trkpt lat="47.19987" lon="4.96205">
        <ele>282.1</ele>
      </trkpt>
      <trkpt lat="47.19989" lon="4.96204">
        <ele>282.1</ele>
      </trkpt>
      <trkpt lat="47.19996" lon="4.96203">
        <ele>282.2</ele>
      </trkpt>
      <trkpt lat="47.20004" lon="4.96203">
        <ele>282.2</ele>
      </trkpt>
      <trkpt lat="47.20012" lon="4.96204">
        <ele>282.1</ele>
      </trkpt>
      <trkpt lat="47.20021" lon="4.96209">
        <ele>281.8</ele>
      </trkpt>
      <trkpt lat="47.20038" lon="4.96217">
        <ele>281.4</ele>
      </trkpt>
      <trkpt lat="47.20055" lon="4.96225">
        <ele>281.0</ele>
      </trkpt>
      <trkpt lat="47.20059" lon="4.96227">
        <ele>280.9</ele>
      </trkpt>
      <trkpt lat="47.20068" lon="4.96231">
        <ele>280.7</ele>
      </trkpt>
      <trkpt lat="47.20072" lon="4.96232">
        <ele>280.7</ele>
      </trkpt>
      <trkpt lat="47.20087" lon="4.96236">
        <ele>280.5</ele>
      </trkpt>
      <trkpt lat="47.2009" lon="4.96237">
        <ele>280.4</ele>
      </trkpt>
      <trkpt lat="47.20096" lon="4.96238">
        <ele>280.3</ele>
      </trkpt>
      <trkpt lat="47.20096" lon="4.96238">
        <ele>280.3</ele>
      </trkpt>
      <trkpt lat="47.20103" lon="4.9624">
        <ele>280.2</ele>
      </trkpt>
      <trkpt lat="47.20108" lon="4.96241">
        <ele>280.1</ele>
      </trkpt>
      <trkpt lat="47.20115" lon="4.96241">
        <ele>280.0</ele>
      </trkpt>
      <trkpt lat="47.20123" lon="4.96241">
        <ele>279.9</ele>
      </trkpt>
      <trkpt lat="47.20126" lon="4.96241">
        <ele>279.9</ele>
      </trkpt>
      <trkpt lat="47.2013" lon="4.96239">
        <ele>279.9</ele>
      </trkpt>
      <trkpt lat="47.20143" lon="4.96234">
        <ele>280.0</ele>
      </trkpt>
      <trkpt lat="47.2016" lon="4.96226">
        <ele>280.2</ele>
      </trkpt>
      <trkpt lat="47.20161" lon="4.96226">
        <ele>280.2</ele>
      </trkpt>
      <trkpt lat="47.20178" lon="4.96221">
        <ele>280.5</ele>
      </trkpt>
      <trkpt lat="47.20179" lon="4.96221">
        <ele>280.5</ele>
      </trkpt>
      <trkpt lat="47.20194" lon="4.96218">
        <ele>280.9</ele>
      </trkpt>
      <trkpt lat="47.20196" lon="4.96218">
        <ele>280.9</ele>
      </trkpt>
      <trkpt lat="47.20208" lon="4.96216">
        <ele>281.1</ele>
      </trkpt>
      <trkpt lat="47.20223" lon="4.96217">
        <ele>281.3</ele>
      </trkpt>
      <trkpt lat="47.2024" lon="4.9622">
        <ele>281.3</ele>
      </trkpt>
      <trkpt lat="47.20258" lon="4.96225">
        <ele>281.4</ele>
      </trkpt>
      <trkpt lat="47.20276" lon="4.96227">
        <ele>281.8</ele>
      </trkpt>
      <trkpt lat="47.2031" lon="4.9623">
        <ele>282.6</ele>
      </trkpt>
      <trkpt lat="47.20329" lon="4.96235">
        <ele>282.8</ele>
      </trkpt>
      <trkpt lat="47.20335" lon="4.96236">
        <ele>282.8</ele>
      </trkpt>
      <trkpt lat="47.2035" lon="4.96239">
        <ele>282.7</ele>
      </trkpt>
      <trkpt lat="47.20378" lon="4.96248">
        <ele>282.2</ele>
      </trkpt>
      <trkpt lat="47.20405" lon="4.96254">
        <ele>281.7</ele>
      </trkpt>
      <trkpt lat="47.20423" lon="4.96257">
        <ele>281.6</ele>
      </trkpt>
      <trkpt lat="47.20436" lon="4.9626">
        <ele>281.5</ele>
      </trkpt>
      <trkpt lat="47.20441" lon="4.96261">
        <ele>281.5</ele>
      </trkpt>
      <trkpt lat="47.20457" lon="4.96264">
        <ele>281.4</ele>
      </trkpt>
      <trkpt lat="47.20476" lon="4.96268">
        <ele>281.3</ele>
      </trkpt>
      <trkpt lat="47.20489" lon="4.9627">
        <ele>281.2</ele>
      </trkpt>
      <trkpt lat="47.20495" lon="4.9627">
        <ele>281.3</ele>
      </trkpt>
      <trkpt lat="47.20507" lon="4.9627">
        <ele>281.5</ele>
      </trkpt>
      <trkpt lat="47.20511" lon="4.9627">
        <ele>281.6</ele>
      </trkpt>
      <trkpt lat="47.20511" lon="4.9627">
        <ele>281.6</ele>
      </trkpt>
      <trkpt lat="47.20523" lon="4.9627">
        <ele>281.8</ele>
      </trkpt>
      <trkpt lat="47.20535" lon="4.96269">
        <ele>282.1</ele>
      </trkpt>
      <trkpt lat="47.20543" lon="4.96268">
        <ele>282.4</ele>
      </trkpt>
      <trkpt lat="47.20546" lon="4.96268">
        <ele>282.5</ele>
      </trkpt>
      <trkpt lat="47.20549" lon="4.96267">
        <ele>282.6</ele>
      </trkpt>
      <trkpt lat="47.20558" lon="4.96265">
        <ele>283.0</ele>
      </trkpt>
      <trkpt lat="47.20566" lon="4.96262">
        <ele>283.5</ele>
      </trkpt>
      <trkpt lat="47.20575" lon="4.96259">
        <ele>283.9</ele>
      </trkpt>
      <trkpt lat="47.20583" lon="4.96256">
        <ele>284.4</ele>
      </trkpt>
      <trkpt lat="47.20584" lon="4.96255">
        <ele>284.5</ele>
      </trkpt>
      <trkpt lat="47.20598" lon="4.96253">
        <ele>285.1</ele>
      </trkpt>
      <trkpt lat="47.20599" lon="4.96253">
        <ele>285.1</ele>
      </trkpt>
      <trkpt lat="47.20619" lon="4.96251">
        <ele>285.8</ele>
      </trkpt>
      <trkpt lat="47.20642" lon="4.96249">
        <ele>286.6</ele>
      </trkpt>
      <trkpt lat="47.20656" lon="4.96248">
        <ele>287.1</ele>
      </trkpt>
      <trkpt lat="47.20672" lon="4.96247">
        <ele>287.7</ele>
      </trkpt>
      <trkpt lat="47.20682" lon="4.96248">
        <ele>287.9</ele>
      </trkpt>
      <trkpt lat="47.207" lon="4.96251">
        <ele>288.1</ele>
      </trkpt>
      <trkpt lat="47.20719" lon="4.96253">
        <ele>288.7</ele>
      </trkpt>
      <trkpt lat="47.20724" lon="4.96254">
        <ele>288.8</ele>
      </trkpt>
      <trkpt lat="47.20736" lon="4.96254">
        <ele>289.2</ele>
      </trkpt>
      <trkpt lat="47.20744" lon="4.96252">
        <ele>289.6</ele>
      </trkpt>
      <trkpt lat="47.20744" lon="4.96252">
        <ele>289.6</ele>
      </trkpt>
      <trkpt lat="47.20746" lon="4.96252">
        <ele>289.7</ele>
      </trkpt>
      <trkpt lat="47.20754" lon="4.9625">
        <ele>290.1</ele>
      </trkpt>
      <trkpt lat="47.20763" lon="4.96248">
        <ele>290.6</ele>
      </trkpt>
      <trkpt lat="47.20766" lon="4.96247">
        <ele>290.8</ele>
      </trkpt>
      <trkpt lat="47.20768" lon="4.96247">
        <ele>290.8</ele>
      </trkpt>
      <trkpt lat="47.20774" lon="4.96246">
        <ele>291.1</ele>
      </trkpt>
      <trkpt lat="47.20783" lon="4.96246">
        <ele>291.3</ele>
      </trkpt>
      <trkpt lat="47.20784" lon="4.96246">
        <ele>291.3</ele>
      </trkpt>
      <trkpt lat="47.20794" lon="4.96246">
        <ele>291.5</ele>
      </trkpt>
      <trkpt lat="47.20802" lon="4.96245">
        <ele>291.8</ele>
      </trkpt>
      <trkpt lat="47.20809" lon="4.96243">
        <ele>292.2</ele>
      </trkpt>
      <trkpt lat="47.20815" lon="4.9624">
        <ele>292.6</ele>
      </trkpt>
      <trkpt lat="47.20818" lon="4.96237">
        <ele>293.0</ele>
      </trkpt>
      <trkpt lat="47.20819" lon="4.96236">
        <ele>293.1</ele>
      </trkpt>
      <trkpt lat="47.20821" lon="4.96234">
        <ele>293.4</ele>
      </trkpt>
      <trkpt lat="47.20824" lon="4.9623">
        <ele>293.8</ele>
      </trkpt>
      <trkpt lat="47.20828" lon="4.96228">
        <ele>294.0</ele>
      </trkpt>
      <trkpt lat="47.20835" lon="4.96228">
        <ele>294.2</ele>
      </trkpt>
      <trkpt lat="47.20839" lon="4.96228">
        <ele>294.3</ele>
      </trkpt>
      <trkpt lat="47.20871" lon="4.96227">
        <ele>295.6</ele>
      </trkpt>
      <trkpt lat="47.20885" lon="4.96227">
        <ele>296.1</ele>
      </trkpt>
      <trkpt lat="47.20889" lon="4.96227">
        <ele>296.2</ele>
      </trkpt>
      <trkpt lat="47.20897" lon="4.96229">
        <ele>296.3</ele>
      </trkpt>
      <trkpt lat="47.20907" lon="4.96231">
        <ele>296.5</ele>
      </trkpt>
      <trkpt lat="47.20916" lon="4.96233">
        <ele>296.6</ele>
      </trkpt>
      <trkpt lat="47.20924" lon="4.96235">
        <ele>297.0</ele>
      </trkpt>
      <trkpt lat="47.2094" lon="4.96239">
        <ele>297.7</ele>
      </trkpt>
      <trkpt lat="47.20942" lon="4.96241">
        <ele>297.7</ele>
      </trkpt>
      <trkpt lat="47.20946" lon="4.96244">
        <ele>297.7</ele>
      </trkpt>
      <trkpt lat="47.20949" lon="4.96252">
        <ele>297.1</ele>
      </trkpt>
      <trkpt lat="47.20951" lon="4.9626">
        <ele>296.4</ele>
      </trkpt>
      <trkpt lat="47.20951" lon="4.96287">
        <ele>293.6</ele>
      </trkpt>
      <trkpt lat="47.2095" lon="4.96293">
        <ele>293.0</ele>
      </trkpt>
      <trkpt lat="47.2095" lon="4.96297">
        <ele>292.5</ele>
      </trkpt>
      <trkpt lat="47.20949" lon="4.96302">
        <ele>292.0</ele>
      </trkpt>
      <trkpt lat="47.20949" lon="4.96302">
        <ele>292.0</ele>
      </trkpt>
      <trkpt lat="47.20949" lon="4.96303">
        <ele>291.9</ele>
      </trkpt>
      <trkpt lat="47.20949" lon="4.96313">
        <ele>290.9</ele>
      </trkpt>
      <trkpt lat="47.20949" lon="4.96315">
        <ele>290.7</ele>
      </trkpt>
      <trkpt lat="47.20949" lon="4.96322">
        <ele>289.9</ele>
      </trkpt>
      <trkpt lat="47.20949" lon="4.9633">
        <ele>289.1</ele>
      </trkpt>
      <trkpt lat="47.20949" lon="4.96342">
        <ele>288.3</ele>
      </trkpt>
      <trkpt lat="47.20949" lon="4.96344">
        <ele>288.2</ele>
      </trkpt>
      <trkpt lat="47.20949" lon="4.96358">
        <ele>287.5</ele>
      </trkpt>
      <trkpt lat="47.20948" lon="4.96371">
        <ele>286.8</ele>
      </trkpt>
      <trkpt lat="47.20948" lon="4.96383">
        <ele>286.1</ele>
      </trkpt>
      <trkpt lat="47.20948" lon="4.9639">
        <ele>285.8</ele>
      </trkpt>
      <trkpt lat="47.20948" lon="4.96395">
        <ele>285.5</ele>
      </trkpt>
      <trkpt lat="47.20947" lon="4.96399">
        <ele>285.3</ele>
      </trkpt>
      <trkpt lat="47.20945" lon="4.96419">
        <ele>284.2</ele>
      </trkpt>
      <trkpt lat="47.20945" lon="4.96421">
        <ele>284.2</ele>
      </trkpt>
      <trkpt lat="47.20943" lon="4.96433">
        <ele>283.7</ele>
      </trkpt>
      <trkpt lat="47.20943" lon="4.96437">
        <ele>283.5</ele>
      </trkpt>
      <trkpt lat="47.20943" lon="4.96437">
        <ele>283.5</ele>
      </trkpt>
      <trkpt lat="47.20942" lon="4.96447">
        <ele>283.1</ele>
      </trkpt>
      <trkpt lat="47.20942" lon="4.96449">
        <ele>283.0</ele>
      </trkpt>
      <trkpt lat="47.20941" lon="4.96463">
        <ele>282.5</ele>
      </trkpt>
      <trkpt lat="47.20941" lon="4.96469">
        <ele>282.2</ele>
      </trkpt>
      <trkpt lat="47.20941" lon="4.96473">
        <ele>282.1</ele>
      </trkpt>
      <trkpt lat="47.2094" lon="4.96479">
        <ele>281.8</ele>
      </trkpt>
      <trkpt lat="47.20941" lon="4.96487">
        <ele>281.5</ele>
      </trkpt>
      <trkpt lat="47.20941" lon="4.96495">
        <ele>281.2</ele>
      </trkpt>
      <trkpt lat="47.20941" lon="4.96499">
        <ele>281.0</ele>
      </trkpt>
      <trkpt lat="47.20941" lon="4.965">
        <ele>281.0</ele>
      </trkpt>
      <trkpt lat="47.2094" lon="4.96504">
        <ele>280.8</ele>
      </trkpt>
      <trkpt lat="47.20939" lon="4.9651">
        <ele>280.6</ele>
      </trkpt>
      <trkpt lat="47.20938" lon="4.96515">
        <ele>280.3</ele>
      </trkpt>
      <trkpt lat="47.20938" lon="4.96516">
        <ele>280.3</ele>
      </trkpt>
      <trkpt lat="47.20935" lon="4.96515">
        <ele>280.3</ele>
      </trkpt>
      <trkpt lat="47.20932" lon="4.96523">
        <ele>279.9</ele>
      </trkpt>
      <trkpt lat="47.20928" lon="4.96527">
        <ele>279.7</ele>
      </trkpt>
      <trkpt lat="47.20943" lon="4.96536">
        <ele>279.4</ele>
      </trkpt>
      <trkpt lat="47.20985" lon="4.96565">
        <ele>278.5</ele>
      </trkpt>
      <trkpt lat="47.21009" lon="4.96578">
        <ele>278.1</ele>
      </trkpt>
      <trkpt lat="47.21048" lon="4.96595">
        <ele>276.9</ele>
      </trkpt>
      <trkpt lat="47.21094" lon="4.96613">
        <ele>275.5</ele>
      </trkpt>
      <trkpt lat="47.21141" lon="4.96631">
        <ele>274.3</ele>
      </trkpt>
      <trkpt lat="47.21194" lon="4.96643">
        <ele>273.5</ele>
      </trkpt>
      <trkpt lat="47.21228" lon="4.96653">
        <ele>272.9</ele>
      </trkpt>
      <trkpt lat="47.21255" lon="4.96666">
        <ele>272.3</ele>
      </trkpt>
      <trkpt lat="47.21304" lon="4.96691">
        <ele>273.5</ele>
      </trkpt>
      <trkpt lat="47.21354" lon="4.96716">
        <ele>273.4</ele>
      </trkpt>
      <trkpt lat="47.21372" lon="4.96723">
        <ele>272.8</ele>
      </trkpt>
      <trkpt lat="47.21393" lon="4.96728">
        <ele>272.2</ele>
      </trkpt>
      <trkpt lat="47.21407" lon="4.96726">
        <ele>272.1</ele>
      </trkpt>
      <trkpt lat="47.21445" lon="4.96715">
        <ele>273.1</ele>
      </trkpt>
      <trkpt lat="47.21464" lon="4.96712">
        <ele>273.5</ele>
      </trkpt>
      <trkpt lat="47.21491" lon="4.96719">
        <ele>273.2</ele>
      </trkpt>
      <trkpt lat="47.21503" lon="4.96724">
        <ele>273.0</ele>
      </trkpt>
      <trkpt lat="47.2157" lon="4.96759">
        <ele>273.0</ele>
      </trkpt>
      <trkpt lat="47.21643" lon="4.96786">
        <ele>272.1</ele>
      </trkpt>
      <trkpt lat="47.2171" lon="4.96812">
        <ele>271.5</ele>
      </trkpt>
      <trkpt lat="47.21757" lon="4.96829">
        <ele>271.1</ele>
      </trkpt>
      <trkpt lat="47.2177" lon="4.96832">
        <ele>271.0</ele>
      </trkpt>
      <trkpt lat="47.21801" lon="4.96838">
        <ele>270.8</ele>
      </trkpt>
      <trkpt lat="47.21848" lon="4.96844">
        <ele>271.1</ele>
      </trkpt>
      <trkpt lat="47.21877" lon="4.9685">
        <ele>271.5</ele>
      </trkpt>
      <trkpt lat="47.21896" lon="4.96857">
        <ele>271.7</ele>
      </trkpt>
      <trkpt lat="47.21952" lon="4.96884">
        <ele>272.1</ele>
      </trkpt>
      <trkpt lat="47.21992" lon="4.96901">
        <ele>272.9</ele>
      </trkpt>
      <trkpt lat="47.22051" lon="4.96922">
        <ele>272.9</ele>
      </trkpt>
      <trkpt lat="47.22076" lon="4.96929">
        <ele>272.7</ele>
      </trkpt>
      <trkpt lat="47.22121" lon="4.96939">
        <ele>273.0</ele>
      </trkpt>
      <trkpt lat="47.22132" lon="4.96943">
        <ele>273.1</ele>
      </trkpt>
      <trkpt lat="47.22161" lon="4.96954">
        <ele>273.5</ele>
      </trkpt>
      <trkpt lat="47.22219" lon="4.96987">
        <ele>273.7</ele>
      </trkpt>
      <trkpt lat="47.22232" lon="4.96992">
        <ele>273.8</ele>
      </trkpt>
      <trkpt lat="47.22248" lon="4.96995">
        <ele>274.0</ele>
      </trkpt>
      <trkpt lat="47.22257" lon="4.96994">
        <ele>274.3</ele>
      </trkpt>
      <trkpt lat="47.22324" lon="4.96983">
        <ele>276.7</ele>
      </trkpt>
      <trkpt lat="47.22342" lon="4.96978">
        <ele>277.2</ele>
      </trkpt>
      <trkpt lat="47.22361" lon="4.96968">
        <ele>277.8</ele>
      </trkpt>
      <trkpt lat="47.22372" lon="4.96964">
        <ele>278.1</ele>
      </trkpt>
      <trkpt lat="47.22382" lon="4.96964">
        <ele>278.4</ele>
      </trkpt>
      <trkpt lat="47.22391" lon="4.96965">
        <ele>278.7</ele>
      </trkpt>
      <trkpt lat="47.22394" lon="4.96966">
        <ele>278.8</ele>
      </trkpt>
      <trkpt lat="47.22407" lon="4.96974">
        <ele>279.0</ele>
      </trkpt>
      <trkpt lat="47.22438" lon="4.97005">
        <ele>279.1</ele>
      </trkpt>
      <trkpt lat="47.22448" lon="4.9702">
        <ele>278.8</ele>
      </trkpt>
      <trkpt lat="47.22453" lon="4.9705">
        <ele>278.0</ele>
      </trkpt>
      <trkpt lat="47.22451" lon="4.97051">
        <ele>277.9</ele>
      </trkpt>
      <trkpt lat="47.22449" lon="4.97053">
        <ele>277.9</ele>
      </trkpt>
      <trkpt lat="47.22448" lon="4.9706">
        <ele>277.7</ele>
      </trkpt>
      <trkpt lat="47.2245" lon="4.97065">
        <ele>277.5</ele>
      </trkpt>
      <trkpt lat="47.22455" lon="4.97067">
        <ele>277.5</ele>
      </trkpt>
      <trkpt lat="47.22457" lon="4.97066">
        <ele>277.5</ele>
      </trkpt>
      <trkpt lat="47.22459" lon="4.97062">
        <ele>277.6</ele>
      </trkpt>
      <trkpt lat="47.22464" lon="4.97067">
        <ele>277.5</ele>
      </trkpt>
      <trkpt lat="47.22471" lon="4.97071">
        <ele>277.4</ele>
      </trkpt>
      <trkpt lat="47.2249" lon="4.97074">
        <ele>277.3</ele>
      </trkpt>
      <trkpt lat="47.22492" lon="4.9708">
        <ele>277.1</ele>
      </trkpt>
      <trkpt lat="47.225" lon="4.97086">
        <ele>276.9</ele>
      </trkpt>
      <trkpt lat="47.22556" lon="4.97101">
        <ele>276.3</ele>
      </trkpt>
      <trkpt lat="47.2259" lon="4.97108">
        <ele>276.2</ele>
      </trkpt>
      <trkpt lat="47.22593" lon="4.97128">
        <ele>276.4</ele>
      </trkpt>
      <trkpt lat="47.22597" lon="4.97135">
        <ele>276.4</ele>
      </trkpt>
      <trkpt lat="47.22614" lon="4.97154">
        <ele>276.2</ele>
      </trkpt>
      <trkpt lat="47.22636" lon="4.9718">
        <ele>275.8</ele>
      </trkpt>
      <trkpt lat="47.22642" lon="4.97177">
        <ele>275.6</ele>
      </trkpt>
      <trkpt lat="47.22656" lon="4.97176">
        <ele>275.2</ele>
      </trkpt>
      <trkpt lat="47.22695" lon="4.97181">
        <ele>274.5</ele>
      </trkpt>
      <trkpt lat="47.22708" lon="4.97186">
        <ele>274.3</ele>
      </trkpt>
      <trkpt lat="47.22735" lon="4.97205">
        <ele>273.7</ele>
      </trkpt>
      <trkpt lat="47.22776" lon="4.9722">
        <ele>272.5</ele>
      </trkpt>
      <trkpt lat="47.22794" lon="4.97229">
        <ele>271.8</ele>
      </trkpt>
      <trkpt lat="47.22794" lon="4.97229">
        <ele>271.8</ele>
      </trkpt>
      <trkpt lat="47.22835" lon="4.9725">
        <ele>270.0</ele>
      </trkpt>
      <trkpt lat="47.22848" lon="4.97255">
        <ele>269.9</ele>
      </trkpt>
      <trkpt lat="47.22917" lon="4.97265">
        <ele>270.0</ele>
      </trkpt>
      <trkpt lat="47.22925" lon="4.97268">
        <ele>270.1</ele>
      </trkpt>
      <trkpt lat="47.22909" lon="4.97359">
        <ele>269.5</ele>
      </trkpt>
      <trkpt lat="47.22897" lon="4.9742">
        <ele>268.7</ele>
      </trkpt>
      <trkpt lat="47.22897" lon="4.9742">
        <ele>268.7</ele>
      </trkpt>
      <trkpt lat="47.22889" lon="4.97454">
        <ele>268.1</ele>
      </trkpt>
      <trkpt lat="47.22868" lon="4.97543">
        <ele>266.6</ele>
      </trkpt>
      <trkpt lat="47.22847" lon="4.97627">
        <ele>265.8</ele>
      </trkpt>
      <trkpt lat="47.22825" lon="4.97712">
        <ele>266.0</ele>
      </trkpt>
      <trkpt lat="47.22822" lon="4.97727">
        <ele>266.0</ele>
      </trkpt>
      <trkpt lat="47.22823" lon="4.97736">
        <ele>266.0</ele>
      </trkpt>
      <trkpt lat="47.22833" lon="4.97756">
        <ele>265.9</ele>
      </trkpt>
      <trkpt lat="47.22865" lon="4.97806">
        <ele>264.4</ele>
      </trkpt>
      <trkpt lat="47.22896" lon="4.97853">
        <ele>263.5</ele>
      </trkpt>
      <trkpt lat="47.22905" lon="4.97869">
        <ele>263.3</ele>
      </trkpt>
      <trkpt lat="47.22907" lon="4.97879">
        <ele>263.2</ele>
      </trkpt>
      <trkpt lat="47.2291" lon="4.9791">
        <ele>263.2</ele>
      </trkpt>
      <trkpt lat="47.2291" lon="4.97935">
        <ele>263.1</ele>
      </trkpt>
      <trkpt lat="47.22907" lon="4.97978">
        <ele>263.1</ele>
      </trkpt>
      <trkpt lat="47.22907" lon="4.97978">
        <ele>263.1</ele>
      </trkpt>
      <trkpt lat="47.22901" lon="4.98051">
        <ele>262.5</ele>
      </trkpt>
      <trkpt lat="47.22984" lon="4.98093">
        <ele>260.2</ele>
      </trkpt>
      <trkpt lat="47.22984" lon="4.98093">
        <ele>260.2</ele>
      </trkpt>
      <trkpt lat="47.23001" lon="4.98102">
        <ele>259.7</ele>
      </trkpt>
      <trkpt lat="47.23069" lon="4.98143">
        <ele>257.2</ele>
      </trkpt>
      <trkpt lat="47.23136" lon="4.98184">
        <ele>255.9</ele>
      </trkpt>
      <trkpt lat="47.23197" lon="4.98218">
        <ele>254.8</ele>
      </trkpt>
      <trkpt lat="47.23259" lon="4.98253">
        <ele>252.9</ele>
      </trkpt>
      <trkpt lat="47.23259" lon="4.98253">
        <ele>252.9</ele>
      </trkpt>
      <trkpt lat="47.23313" lon="4.98284">
        <ele>253.3</ele>
      </trkpt>
      <trkpt lat="47.23365" lon="4.98311">
        <ele>253.7</ele>
      </trkpt>
      <trkpt lat="47.2341" lon="4.98332">
        <ele>253.2</ele>
      </trkpt>
      <trkpt lat="47.23397" lon="4.98393">
        <ele>252.6</ele>
      </trkpt>
      <trkpt lat="47.23395" lon="4.9841">
        <ele>252.4</ele>
      </trkpt>
      <trkpt lat="47.23401" lon="4.98396">
        <ele>252.5</ele>
      </trkpt>
      <trkpt lat="47.23407" lon="4.98373">
        <ele>252.7</ele>
      </trkpt>
      <trkpt lat="47.23418" lon="4.98335">
        <ele>253.0</ele>
      </trkpt>
      <trkpt lat="47.23428" lon="4.98293">
        <ele>253.2</ele>
      </trkpt>
      <trkpt lat="47.23432" lon="4.98269">
        <ele>253.3</ele>
      </trkpt>
      <trkpt lat="47.23434" lon="4.9826">
        <ele>253.4</ele>
      </trkpt>
      <trkpt lat="47.23434" lon="4.9826">
        <ele>253.4</ele>
      </trkpt>
      <trkpt lat="47.23461" lon="4.98166">
        <ele>255.1</ele>
      </trkpt>
      <trkpt lat="47.23488" lon="4.98071">
        <ele>258.8</ele>
      </trkpt>
      <trkpt lat="47.23509" lon="4.97981">
        <ele>260.3</ele>
      </trkpt>
      <trkpt lat="47.2353" lon="4.9789">
        <ele>261.8</ele>
      </trkpt>
      <trkpt lat="47.23541" lon="4.97851">
        <ele>262.8</ele>
      </trkpt>
      <trkpt lat="47.23567" lon="4.97782">
        <ele>264.8</ele>
      </trkpt>
      <trkpt lat="47.23571" lon="4.97774">
        <ele>265.1</ele>
      </trkpt>
      <trkpt lat="47.23574" lon="4.97776">
        <ele>265.2</ele>
      </trkpt>
      <trkpt lat="47.23578" lon="4.97776">
        <ele>265.4</ele>
      </trkpt>
      <trkpt lat="47.23581" lon="4.97774">
        <ele>265.6</ele>
      </trkpt>
      <trkpt lat="47.23584" lon="4.97771">
        <ele>265.8</ele>
      </trkpt>
      <trkpt lat="47.23586" lon="4.97766">
        <ele>265.9</ele>
      </trkpt>
      <trkpt lat="47.23586" lon="4.97761">
        <ele>266.0</ele>
      </trkpt>
      <trkpt lat="47.23592" lon="4.97762">
        <ele>266.2</ele>
      </trkpt>
      <trkpt lat="47.23624" lon="4.97762">
        <ele>267.2</ele>
      </trkpt>
      <trkpt lat="47.23633" lon="4.97759">
        <ele>267.6</ele>
      </trkpt>
      <trkpt lat="47.23652" lon="4.97775">
        <ele>267.9</ele>
      </trkpt>
      <trkpt lat="47.23652" lon="4.97775">
        <ele>267.9</ele>
      </trkpt>
      <trkpt lat="47.23677" lon="4.9779">
        <ele>267.9</ele>
      </trkpt>
      <trkpt lat="47.23712" lon="4.97808">
        <ele>267.1</ele>
      </trkpt>
      <trkpt lat="47.23778" lon="4.97849">
        <ele>265.7</ele>
      </trkpt>
      <trkpt lat="47.23851" lon="4.97889">
        <ele>265.5</ele>
      </trkpt>
      <trkpt lat="47.23894" lon="4.97919">
        <ele>265.7</ele>
      </trkpt>
      <trkpt lat="47.23938" lon="4.97949">
        <ele>266.5</ele>
      </trkpt>
      <trkpt lat="47.23962" lon="4.9796">
        <ele>266.8</ele>
      </trkpt>
      <trkpt lat="47.24025" lon="4.97983">
        <ele>266.9</ele>
      </trkpt>
      <trkpt lat="47.24089" lon="4.98006">
        <ele>266.9</ele>
      </trkpt>
      <trkpt lat="47.24153" lon="4.98028">
        <ele>266.0</ele>
      </trkpt>
      <trkpt lat="47.242" lon="4.9805">
        <ele>265.7</ele>
      </trkpt>
      <trkpt lat="47.242" lon="4.9805">
        <ele>265.7</ele>
      </trkpt>
      <trkpt lat="47.24249" lon="4.98073">
        <ele>266.1</ele>
      </trkpt>
      <trkpt lat="47.24303" lon="4.98099">
        <ele>267.8</ele>
      </trkpt>
      <trkpt lat="47.24369" lon="4.98125">
        <ele>269.9</ele>
      </trkpt>
      <trkpt lat="47.24434" lon="4.98151">
        <ele>270.7</ele>
      </trkpt>
      <trkpt lat="47.24451" lon="4.9816">
        <ele>270.9</ele>
      </trkpt>
      <trkpt lat="47.24458" lon="4.98166">
        <ele>271.0</ele>
      </trkpt>
      <trkpt lat="47.24467" lon="4.98173">
        <ele>271.2</ele>
      </trkpt>
      <trkpt lat="47.24474" lon="4.98173">
        <ele>271.4</ele>
      </trkpt>
      <trkpt lat="47.24487" lon="4.9817">
        <ele>271.7</ele>
      </trkpt>
      <trkpt lat="47.24502" lon="4.98169">
        <ele>272.0</ele>
      </trkpt>
      <trkpt lat="47.24549" lon="4.98188">
        <ele>270.8</ele>
      </trkpt>
      <trkpt lat="47.24596" lon="4.98207">
        <ele>270.1</ele>
      </trkpt>
      <trkpt lat="47.24619" lon="4.98218">
        <ele>270.1</ele>
      </trkpt>
      <trkpt lat="47.24633" lon="4.98227">
        <ele>269.9</ele>
      </trkpt>
      <trkpt lat="47.24681" lon="4.98247">
        <ele>269.1</ele>
      </trkpt>
      <trkpt lat="47.24748" lon="4.9826">
        <ele>268.8</ele>
      </trkpt>
      <trkpt lat="47.24765" lon="4.98264">
        <ele>268.5</ele>
      </trkpt>
      <trkpt lat="47.24793" lon="4.98276">
        <ele>268.0</ele>
      </trkpt>
      <trkpt lat="47.24875" lon="4.98316">
        <ele>268.1</ele>
      </trkpt>
      <trkpt lat="47.24952" lon="4.98351">
        <ele>269.3</ele>
      </trkpt>
      <trkpt lat="47.25028" lon="4.98387">
        <ele>269.6</ele>
      </trkpt>
      <trkpt lat="47.25094" lon="4.98408">
        <ele>270.3</ele>
      </trkpt>
      <trkpt lat="47.25141" lon="4.98413">
        <ele>270.8</ele>
      </trkpt>
      <trkpt lat="47.25161" lon="4.98422">
        <ele>270.8</ele>
      </trkpt>
      <trkpt lat="47.25227" lon="4.98447">
        <ele>270.7</ele>
      </trkpt>
      <trkpt lat="47.25292" lon="4.98471">
        <ele>269.5</ele>
      </trkpt>
      <trkpt lat="47.2536" lon="4.98488">
        <ele>268.5</ele>
      </trkpt>
      <trkpt lat="47.25423" lon="4.98511">
        <ele>266.8</ele>
      </trkpt>
      <trkpt lat="47.25462" lon="4.98523">
        <ele>266.2</ele>
      </trkpt>
      <trkpt lat="47.25515" lon="4.98538">
        <ele>265.5</ele>
      </trkpt>
      <trkpt lat="47.25541" lon="4.98543">
        <ele>265.5</ele>
      </trkpt>
      <trkpt lat="47.25541" lon="4.98543">
        <ele>265.5</ele>
      </trkpt>
      <trkpt lat="47.25579" lon="4.98552">
        <ele>265.4</ele>
      </trkpt>
      <trkpt lat="47.25611" lon="4.98556">
        <ele>265.1</ele>
      </trkpt>
      <trkpt lat="47.25619" lon="4.98555">
        <ele>265.1</ele>
      </trkpt>
      <trkpt lat="47.25629" lon="4.98549">
        <ele>265.1</ele>
      </trkpt>
      <trkpt lat="47.25634" lon="4.98539">
        <ele>265.2</ele>
      </trkpt>
      <trkpt lat="47.25644" lon="4.98499">
        <ele>266.0</ele>
      </trkpt>
      <trkpt lat="47.25652" lon="4.9847">
        <ele>265.8</ele>
      </trkpt>
      <trkpt lat="47.2566" lon="4.98459">
        <ele>265.6</ele>
      </trkpt>
      <trkpt lat="47.25667" lon="4.98455">
        <ele>265.5</ele>
      </trkpt>
      <trkpt lat="47.25677" lon="4.98455">
        <ele>265.7</ele>
      </trkpt>
      <trkpt lat="47.25685" lon="4.98458">
        <ele>265.9</ele>
      </trkpt>
      <trkpt lat="47.25694" lon="4.98463">
        <ele>266.2</ele>
      </trkpt>
      <trkpt lat="47.25709" lon="4.98474">
        <ele>266.7</ele>
      </trkpt>
      <trkpt lat="47.25718" lon="4.98481">
        <ele>267.0</ele>
      </trkpt>
      <trkpt lat="47.25755" lon="4.98516">
        <ele>267.7</ele>
      </trkpt>
      <trkpt lat="47.25763" lon="4.98526">
        <ele>267.7</ele>
      </trkpt>
      <trkpt lat="47.25766" lon="4.98575">
        <ele>266.8</ele>
      </trkpt>
      <trkpt lat="47.25817" lon="4.98603">
        <ele>268.4</ele>
      </trkpt>
      <trkpt lat="47.25869" lon="4.98632">
        <ele>269.6</ele>
      </trkpt>
      <trkpt lat="47.25905" lon="4.9865">
        <ele>270.0</ele>
      </trkpt>
      <trkpt lat="47.25923" lon="4.98654">
        <ele>270.3</ele>
      </trkpt>
      <trkpt lat="47.25949" lon="4.98656">
        <ele>271.0</ele>
      </trkpt>
      <trkpt lat="47.2598" lon="4.98649">
        <ele>271.9</ele>
      </trkpt>
      <trkpt lat="47.26038" lon="4.98641">
        <ele>272.3</ele>
      </trkpt>
      <trkpt lat="47.26052" lon="4.98638">
        <ele>272.3</ele>
      </trkpt>
      <trkpt lat="47.26062" lon="4.98641">
        <ele>272.1</ele>
      </trkpt>
      <trkpt lat="47.26076" lon="4.98647">
        <ele>271.8</ele>
      </trkpt>
      <trkpt lat="47.26076" lon="4.98647">
        <ele>271.8</ele>
      </trkpt>
      <trkpt lat="47.26142" lon="4.98691">
        <ele>271.5</ele>
      </trkpt>
      <trkpt lat="47.26166" lon="4.98701">
        <ele>271.7</ele>
      </trkpt>
      <trkpt lat="47.26185" lon="4.98707">
        <ele>271.8</ele>
      </trkpt>
      <trkpt lat="47.26217" lon="4.98715">
        <ele>271.9</ele>
      </trkpt>
      <trkpt lat="47.26301" lon="4.98728">
        <ele>271.2</ele>
      </trkpt>
      <trkpt lat="47.26373" lon="4.98756">
        <ele>269.4</ele>
      </trkpt>
      <trkpt lat="47.26448" lon="4.9879">
        <ele>268.8</ele>
      </trkpt>
      <trkpt lat="47.26528" lon="4.98824">
        <ele>270.5</ele>
      </trkpt>
      <trkpt lat="47.26543" lon="4.98834">
        <ele>271.1</ele>
      </trkpt>
      <trkpt lat="47.26567" lon="4.98853">
        <ele>271.8</ele>
      </trkpt>
      <trkpt lat="47.26634" lon="4.98895">
        <ele>272.6</ele>
      </trkpt>
      <trkpt lat="47.26689" lon="4.98926">
        <ele>273.2</ele>
      </trkpt>
      <trkpt lat="47.26753" lon="4.98964">
        <ele>273.4</ele>
      </trkpt>
      <trkpt lat="47.26823" lon="4.99008">
        <ele>272.5</ele>
      </trkpt>
      <trkpt lat="47.26893" lon="4.99052">
        <ele>271.2</ele>
      </trkpt>
      <trkpt lat="47.26953" lon="4.99079">
        <ele>270.7</ele>
      </trkpt>
      <trkpt lat="47.26996" lon="4.99088">
        <ele>270.0</ele>
      </trkpt>
      <trkpt lat="47.26996" lon="4.99088">
        <ele>270.0</ele>
      </trkpt>
      <trkpt lat="47.27039" lon="4.99089">
        <ele>270.8</ele>
      </trkpt>
      <trkpt lat="47.2705" lon="4.99019">
        <ele>273.4</ele>
      </trkpt>
      <trkpt lat="47.27062" lon="4.9895">
        <ele>275.2</ele>
      </trkpt>
    </trkseg>
  </trk>
</gpx>
