<?xml version="1.0" encoding="UTF-8"?>
<gpx xmlns:gpxdata="http://www.cluetrust.com/XML/GPXDATA/1/0" xmlns:xsi="http://www.w3.org/2001/XMLSchema-instance" xmlns="http://www.topografix.com/GPX/1/1" version="1.1" creator="http://ridewithgps.com/" xsi:schemaLocation="http://www.topografix.com/GPX/1/1 http://www.topografix.com/GPX/1/1/gpx.xsd http://www.cluetrust.com/XML/GPXDATA/1/0 http://www.cluetrust.com/Schemas/gpxdata10.xsd">
  <metadata>
    <name>Jour 20 - Tain - L'Hermitage @ Pouzin</name>
    <link href="https://ridewithgps.com/routes/56830705">
      <text>Jour 20 - Tain - L'Hermitage @ Pouzin</text>
    </link>
    <time>2026-08-24T15:25:03Z</time>
  </metadata>
  <trk>
    <name>Jour 20 - Tain - L'Hermitage @ Pouzin</name>
    <trkseg>
      <trkpt lat="45.06897" lon="4.84221">
        <ele>121.1</ele>
      </trkpt>
      <trkpt lat="45.06901" lon="4.84208">
        <ele>121.1</ele>
      </trkpt>
      <trkpt lat="45.06889" lon="4.84201">
        <ele>121.6</ele>
      </trkpt>
      <trkpt lat="45.06876" lon="4.84199">
        <ele>122.1</ele>
      </trkpt>
      <trkpt lat="45.0682" lon="4.84167">
        <ele>122.7</ele>
      </trkpt>
      <trkpt lat="45.06755" lon="4.84126">
        <ele>116.4</ele>
      </trkpt>
      <trkpt lat="45.06689" lon="4.84085">
        <ele>116.0</ele>
      </trkpt>
      <trkpt lat="45.06633" lon="4.84051">
        <ele>116.0</ele>
      </trkpt>
      <trkpt lat="45.06577" lon="4.84017">
        <ele>116.4</ele>
      </trkpt>
      <trkpt lat="45.06577" lon="4.84017">
        <ele>116.4</ele>
      </trkpt>
      <trkpt lat="45.06633" lon="4.84051">
        <ele>116.0</ele>
      </trkpt>
      <trkpt lat="45.06689" lon="4.84085">
        <ele>116.0</ele>
      </trkpt>
      <trkpt lat="45.06755" lon="4.84126">
        <ele>116.4</ele>
      </trkpt>
      <trkpt lat="45.0682" lon="4.84167">
        <ele>122.7</ele>
      </trkpt>
      <trkpt lat="45.06876" lon="4.84199">
        <ele>122.1</ele>
      </trkpt>
      <trkpt lat="45.06886" lon="4.84211">
        <ele>121.6</ele>
      </trkpt>
      <trkpt lat="45.06898" lon="4.84219">
        <ele>121.1</ele>
      </trkpt>
      <trkpt lat="45.06902" lon="4.84219">
        <ele>120.9</ele>
      </trkpt>
      <trkpt lat="45.06905" lon="4.84218">
        <ele>120.8</ele>
      </trkpt>
      <trkpt lat="45.06912" lon="4.84208">
        <ele>120.7</ele>
      </trkpt>
      <trkpt lat="45.06915" lon="4.84197">
        <ele>120.7</ele>
      </trkpt>
      <trkpt lat="45.06918" lon="4.84173">
        <ele>120.9</ele>
      </trkpt>
      <trkpt lat="45.06924" lon="4.84153">
        <ele>121.1</ele>
      </trkpt>
      <trkpt lat="45.06916" lon="4.84147">
        <ele>121.0</ele>
      </trkpt>
      <trkpt lat="45.06912" lon="4.84138">
        <ele>121.1</ele>
      </trkpt>
      <trkpt lat="45.0691" lon="4.84129">
        <ele>121.2</ele>
      </trkpt>
      <trkpt lat="45.06889" lon="4.84014">
        <ele>123.9</ele>
      </trkpt>
      <trkpt lat="45.06848" lon="4.83945">
        <ele>124.8</ele>
      </trkpt>
      <trkpt lat="45.06842" lon="4.83939">
        <ele>124.9</ele>
      </trkpt>
      <trkpt lat="45.06839" lon="4.83937">
        <ele>124.9</ele>
      </trkpt>
      <trkpt lat="45.06836" lon="4.83946">
        <ele>125.0</ele>
      </trkpt>
      <trkpt lat="45.06831" lon="4.83957">
        <ele>124.7</ele>
      </trkpt>
      <trkpt lat="45.06816" lon="4.84031">
        <ele>122.6</ele>
      </trkpt>
      <trkpt lat="45.06802" lon="4.84106">
        <ele>120.5</ele>
      </trkpt>
      <trkpt lat="45.06804" lon="4.84125">
        <ele>120.8</ele>
      </trkpt>
      <trkpt lat="45.06792" lon="4.84168">
        <ele>120.0</ele>
      </trkpt>
      <trkpt lat="45.06775" lon="4.84192">
        <ele>119.6</ele>
      </trkpt>
      <trkpt lat="45.06768" lon="4.84222">
        <ele>120.7</ele>
      </trkpt>
      <trkpt lat="45.06745" lon="4.84326">
        <ele>120.8</ele>
      </trkpt>
      <trkpt lat="45.06722" lon="4.84429">
        <ele>120.7</ele>
      </trkpt>
      <trkpt lat="45.06703" lon="4.84529">
        <ele>120.9</ele>
      </trkpt>
      <trkpt lat="45.06707" lon="4.84552">
        <ele>120.3</ele>
      </trkpt>
      <trkpt lat="45.06699" lon="4.84605">
        <ele>119.6</ele>
      </trkpt>
      <trkpt lat="45.06693" lon="4.84622">
        <ele>119.8</ele>
      </trkpt>
      <trkpt lat="45.06682" lon="4.84718">
        <ele>120.6</ele>
      </trkpt>
      <trkpt lat="45.06671" lon="4.84814">
        <ele>121.7</ele>
      </trkpt>
      <trkpt lat="45.0666" lon="4.8491">
        <ele>122.4</ele>
      </trkpt>
      <trkpt lat="45.06651" lon="4.84965">
        <ele>120.7</ele>
      </trkpt>
      <trkpt lat="45.06642" lon="4.8502">
        <ele>119.5</ele>
      </trkpt>
      <trkpt lat="45.06621" lon="4.85127">
        <ele>119.2</ele>
      </trkpt>
      <trkpt lat="45.06602" lon="4.85191">
        <ele>120.4</ele>
      </trkpt>
      <trkpt lat="45.06584" lon="4.85254">
        <ele>122.0</ele>
      </trkpt>
      <trkpt lat="45.06548" lon="4.85361">
        <ele>119.2</ele>
      </trkpt>
      <trkpt lat="45.06523" lon="4.8542">
        <ele>117.4</ele>
      </trkpt>
      <trkpt lat="45.06499" lon="4.8548">
        <ele>120.2</ele>
      </trkpt>
      <trkpt lat="45.06472" lon="4.85543">
        <ele>119.0</ele>
      </trkpt>
      <trkpt lat="45.06445" lon="4.85605">
        <ele>118.0</ele>
      </trkpt>
      <trkpt lat="45.06408" lon="4.85676">
        <ele>121.3</ele>
      </trkpt>
      <trkpt lat="45.0637" lon="4.85748">
        <ele>118.1</ele>
      </trkpt>
      <trkpt lat="45.06331" lon="4.85796">
        <ele>118.8</ele>
      </trkpt>
      <trkpt lat="45.06292" lon="4.85845">
        <ele>118.6</ele>
      </trkpt>
      <trkpt lat="45.0629" lon="4.85851">
        <ele>118.4</ele>
      </trkpt>
      <trkpt lat="45.06285" lon="4.85857">
        <ele>118.1</ele>
      </trkpt>
      <trkpt lat="45.06276" lon="4.85865">
        <ele>117.6</ele>
      </trkpt>
      <trkpt lat="45.0626" lon="4.8588">
        <ele>117.1</ele>
      </trkpt>
      <trkpt lat="45.06239" lon="4.85896">
        <ele>117.3</ele>
      </trkpt>
      <trkpt lat="45.06206" lon="4.85927">
        <ele>118.1</ele>
      </trkpt>
      <trkpt lat="45.0616" lon="4.85962">
        <ele>118.4</ele>
      </trkpt>
      <trkpt lat="45.06113" lon="4.85996">
        <ele>118.2</ele>
      </trkpt>
      <trkpt lat="45.06057" lon="4.86035">
        <ele>117.4</ele>
      </trkpt>
      <trkpt lat="45.06005" lon="4.86067">
        <ele>117.4</ele>
      </trkpt>
      <trkpt lat="45.05991" lon="4.86077">
        <ele>117.8</ele>
      </trkpt>
      <trkpt lat="45.05984" lon="4.86079">
        <ele>117.9</ele>
      </trkpt>
      <trkpt lat="45.05961" lon="4.86079">
        <ele>117.9</ele>
      </trkpt>
      <trkpt lat="45.05918" lon="4.86099">
        <ele>118.0</ele>
      </trkpt>
      <trkpt lat="45.0588" lon="4.8612">
        <ele>117.5</ele>
      </trkpt>
      <trkpt lat="45.058" lon="4.8616">
        <ele>117.9</ele>
      </trkpt>
      <trkpt lat="45.05756" lon="4.86179">
        <ele>117.1</ele>
      </trkpt>
      <trkpt lat="45.05692" lon="4.86201">
        <ele>117.0</ele>
      </trkpt>
      <trkpt lat="45.05643" lon="4.86211">
        <ele>116.9</ele>
      </trkpt>
      <trkpt lat="45.05576" lon="4.86218">
        <ele>116.8</ele>
      </trkpt>
      <trkpt lat="45.0553" lon="4.86216">
        <ele>116.4</ele>
      </trkpt>
      <trkpt lat="45.05484" lon="4.86214">
        <ele>116.0</ele>
      </trkpt>
      <trkpt lat="45.05405" lon="4.86199">
        <ele>115.8</ele>
      </trkpt>
      <trkpt lat="45.05354" lon="4.8618">
        <ele>117.3</ele>
      </trkpt>
      <trkpt lat="45.05304" lon="4.86161">
        <ele>117.8</ele>
      </trkpt>
      <trkpt lat="45.05251" lon="4.86131">
        <ele>116.7</ele>
      </trkpt>
      <trkpt lat="45.05199" lon="4.86101">
        <ele>116.5</ele>
      </trkpt>
      <trkpt lat="45.05137" lon="4.86057">
        <ele>117.3</ele>
      </trkpt>
      <trkpt lat="45.05076" lon="4.86012">
        <ele>119.1</ele>
      </trkpt>
      <trkpt lat="45.0502" lon="4.8597">
        <ele>118.0</ele>
      </trkpt>
      <trkpt lat="45.04964" lon="4.85928">
        <ele>116.2</ele>
      </trkpt>
      <trkpt lat="45.04909" lon="4.85886">
        <ele>116.1</ele>
      </trkpt>
      <trkpt lat="45.04853" lon="4.85836">
        <ele>117.1</ele>
      </trkpt>
      <trkpt lat="45.04798" lon="4.85785">
        <ele>116.8</ele>
      </trkpt>
      <trkpt lat="45.04742" lon="4.85735">
        <ele>116.6</ele>
      </trkpt>
      <trkpt lat="45.04691" lon="4.85679">
        <ele>115.8</ele>
      </trkpt>
      <trkpt lat="45.04639" lon="4.85622">
        <ele>115.6</ele>
      </trkpt>
      <trkpt lat="45.04583" lon="4.85545">
        <ele>115.1</ele>
      </trkpt>
      <trkpt lat="45.04527" lon="4.85467">
        <ele>116.3</ele>
      </trkpt>
      <trkpt lat="45.04479" lon="4.8539">
        <ele>116.7</ele>
      </trkpt>
      <trkpt lat="45.04431" lon="4.85312">
        <ele>115.7</ele>
      </trkpt>
      <trkpt lat="45.04382" lon="4.85234">
        <ele>118.4</ele>
      </trkpt>
      <trkpt lat="45.04342" lon="4.85163">
        <ele>118.2</ele>
      </trkpt>
      <trkpt lat="45.04321" lon="4.85131">
        <ele>119.0</ele>
      </trkpt>
      <trkpt lat="45.04304" lon="4.85095">
        <ele>120.7</ele>
      </trkpt>
      <trkpt lat="45.04261" lon="4.85024">
        <ele>118.0</ele>
      </trkpt>
      <trkpt lat="45.04218" lon="4.84953">
        <ele>119.5</ele>
      </trkpt>
      <trkpt lat="45.04196" lon="4.84925">
        <ele>121.0</ele>
      </trkpt>
      <trkpt lat="45.04145" lon="4.84854">
        <ele>117.1</ele>
      </trkpt>
      <trkpt lat="45.04094" lon="4.84784">
        <ele>115.5</ele>
      </trkpt>
      <trkpt lat="45.04059" lon="4.84741">
        <ele>114.0</ele>
      </trkpt>
      <trkpt lat="45.04015" lon="4.84692">
        <ele>114.0</ele>
      </trkpt>
      <trkpt lat="45.03963" lon="4.84643">
        <ele>114.4</ele>
      </trkpt>
      <trkpt lat="45.03911" lon="4.84595">
        <ele>114.5</ele>
      </trkpt>
      <trkpt lat="45.03845" lon="4.84538">
        <ele>114.2</ele>
      </trkpt>
      <trkpt lat="45.0378" lon="4.84481">
        <ele>115.0</ele>
      </trkpt>
      <trkpt lat="45.03714" lon="4.84424">
        <ele>114.2</ele>
      </trkpt>
      <trkpt lat="45.0367" lon="4.84389">
        <ele>114.3</ele>
      </trkpt>
      <trkpt lat="45.03626" lon="4.84353">
        <ele>114.6</ele>
      </trkpt>
      <trkpt lat="45.03557" lon="4.84311">
        <ele>115.1</ele>
      </trkpt>
      <trkpt lat="45.03513" lon="4.84287">
        <ele>115.0</ele>
      </trkpt>
      <trkpt lat="45.03468" lon="4.84263">
        <ele>116.4</ele>
      </trkpt>
      <trkpt lat="45.03391" lon="4.84233">
        <ele>117.6</ele>
      </trkpt>
      <trkpt lat="45.03321" lon="4.84212">
        <ele>113.9</ele>
      </trkpt>
      <trkpt lat="45.03266" lon="4.84202">
        <ele>114.8</ele>
      </trkpt>
      <trkpt lat="45.03177" lon="4.84191">
        <ele>114.7</ele>
      </trkpt>
      <trkpt lat="45.0311" lon="4.84193">
        <ele>114.7</ele>
      </trkpt>
      <trkpt lat="45.03043" lon="4.84195">
        <ele>114.5</ele>
      </trkpt>
      <trkpt lat="45.0296" lon="4.84209">
        <ele>115.3</ele>
      </trkpt>
      <trkpt lat="45.02888" lon="4.84226">
        <ele>115.3</ele>
      </trkpt>
      <trkpt lat="45.02819" lon="4.84253">
        <ele>113.3</ele>
      </trkpt>
      <trkpt lat="45.02776" lon="4.84273">
        <ele>115.1</ele>
      </trkpt>
      <trkpt lat="45.02732" lon="4.84294">
        <ele>116.3</ele>
      </trkpt>
      <trkpt lat="45.02652" lon="4.84339">
        <ele>119.0</ele>
      </trkpt>
      <trkpt lat="45.02609" lon="4.84372">
        <ele>116.8</ele>
      </trkpt>
      <trkpt lat="45.02566" lon="4.84405">
        <ele>115.8</ele>
      </trkpt>
      <trkpt lat="45.02504" lon="4.84465">
        <ele>117.2</ele>
      </trkpt>
      <trkpt lat="45.02441" lon="4.84525">
        <ele>116.3</ele>
      </trkpt>
      <trkpt lat="45.02369" lon="4.84597">
        <ele>116.1</ele>
      </trkpt>
      <trkpt lat="45.02296" lon="4.8467">
        <ele>115.4</ele>
      </trkpt>
      <trkpt lat="45.02224" lon="4.84742">
        <ele>115.1</ele>
      </trkpt>
      <trkpt lat="45.02152" lon="4.84814">
        <ele>115.8</ele>
      </trkpt>
      <trkpt lat="45.02079" lon="4.84887">
        <ele>114.4</ele>
      </trkpt>
      <trkpt lat="45.02007" lon="4.84959">
        <ele>113.7</ele>
      </trkpt>
      <trkpt lat="45.01979" lon="4.84991">
        <ele>114.0</ele>
      </trkpt>
      <trkpt lat="45.01907" lon="4.85062">
        <ele>114.6</ele>
      </trkpt>
      <trkpt lat="45.01836" lon="4.85133">
        <ele>115.0</ele>
      </trkpt>
      <trkpt lat="45.01764" lon="4.85204">
        <ele>114.4</ele>
      </trkpt>
      <trkpt lat="45.01693" lon="4.85274">
        <ele>114.4</ele>
      </trkpt>
      <trkpt lat="45.01629" lon="4.85333">
        <ele>114.8</ele>
      </trkpt>
      <trkpt lat="45.01566" lon="4.85392">
        <ele>116.5</ele>
      </trkpt>
      <trkpt lat="45.01507" lon="4.85439">
        <ele>114.9</ele>
      </trkpt>
      <trkpt lat="45.01468" lon="4.85469">
        <ele>115.5</ele>
      </trkpt>
      <trkpt lat="45.0141" lon="4.85511">
        <ele>113.2</ele>
      </trkpt>
      <trkpt lat="45.01351" lon="4.85552">
        <ele>117.2</ele>
      </trkpt>
      <trkpt lat="45.01307" lon="4.85578">
        <ele>117.1</ele>
      </trkpt>
      <trkpt lat="45.01263" lon="4.85604">
        <ele>115.0</ele>
      </trkpt>
      <trkpt lat="45.01199" lon="4.8564">
        <ele>117.4</ele>
      </trkpt>
      <trkpt lat="45.01136" lon="4.85676">
        <ele>120.2</ele>
      </trkpt>
      <trkpt lat="45.01072" lon="4.85713">
        <ele>119.9</ele>
      </trkpt>
      <trkpt lat="45.01008" lon="4.85749">
        <ele>119.1</ele>
      </trkpt>
      <trkpt lat="45.00932" lon="4.85792">
        <ele>115.7</ele>
      </trkpt>
      <trkpt lat="45.00855" lon="4.85834">
        <ele>117.8</ele>
      </trkpt>
      <trkpt lat="45.00779" lon="4.85877">
        <ele>117.4</ele>
      </trkpt>
      <trkpt lat="45.00697" lon="4.85924">
        <ele>118.9</ele>
      </trkpt>
      <trkpt lat="45.00615" lon="4.85971">
        <ele>118.2</ele>
      </trkpt>
      <trkpt lat="45.00532" lon="4.86018">
        <ele>116.4</ele>
      </trkpt>
      <trkpt lat="45.0045" lon="4.86065">
        <ele>118.5</ele>
      </trkpt>
      <trkpt lat="45.00368" lon="4.86111">
        <ele>117.0</ele>
      </trkpt>
      <trkpt lat="45.00285" lon="4.86158">
        <ele>117.8</ele>
      </trkpt>
      <trkpt lat="45.00203" lon="4.86205">
        <ele>116.8</ele>
      </trkpt>
      <trkpt lat="45.00121" lon="4.86252">
        <ele>118.5</ele>
      </trkpt>
      <trkpt lat="45.00038" lon="4.86299">
        <ele>117.0</ele>
      </trkpt>
      <trkpt lat="44.99956" lon="4.86345">
        <ele>112.0</ele>
      </trkpt>
      <trkpt lat="44.99874" lon="4.86392">
        <ele>115.9</ele>
      </trkpt>
      <trkpt lat="44.99805" lon="4.86429">
        <ele>116.0</ele>
      </trkpt>
      <trkpt lat="44.99729" lon="4.86471">
        <ele>114.8</ele>
      </trkpt>
      <trkpt lat="44.99653" lon="4.86514">
        <ele>116.1</ele>
      </trkpt>
      <trkpt lat="44.99577" lon="4.86557">
        <ele>113.9</ele>
      </trkpt>
      <trkpt lat="44.99513" lon="4.86594">
        <ele>112.8</ele>
      </trkpt>
      <trkpt lat="44.99448" lon="4.86631">
        <ele>114.0</ele>
      </trkpt>
      <trkpt lat="44.99384" lon="4.86668">
        <ele>114.5</ele>
      </trkpt>
      <trkpt lat="44.9932" lon="4.86705">
        <ele>114.7</ele>
      </trkpt>
      <trkpt lat="44.99293" lon="4.86716">
        <ele>114.1</ele>
      </trkpt>
      <trkpt lat="44.99289" lon="4.8672">
        <ele>114.1</ele>
      </trkpt>
      <trkpt lat="44.99285" lon="4.86725">
        <ele>114.1</ele>
      </trkpt>
      <trkpt lat="44.99283" lon="4.86731">
        <ele>114.1</ele>
      </trkpt>
      <trkpt lat="44.99284" lon="4.86739">
        <ele>114.5</ele>
      </trkpt>
      <trkpt lat="44.99286" lon="4.86743">
        <ele>114.8</ele>
      </trkpt>
      <trkpt lat="44.99291" lon="4.86747">
        <ele>115.3</ele>
      </trkpt>
      <trkpt lat="44.99327" lon="4.86763">
        <ele>117.4</ele>
      </trkpt>
      <trkpt lat="44.99387" lon="4.86795">
        <ele>116.8</ele>
      </trkpt>
      <trkpt lat="44.99423" lon="4.86817">
        <ele>118.2</ele>
      </trkpt>
      <trkpt lat="44.99452" lon="4.86839">
        <ele>117.5</ele>
      </trkpt>
      <trkpt lat="44.99501" lon="4.86878">
        <ele>117.1</ele>
      </trkpt>
      <trkpt lat="44.99506" lon="4.86881">
        <ele>117.1</ele>
      </trkpt>
      <trkpt lat="44.9951" lon="4.86881">
        <ele>117.1</ele>
      </trkpt>
      <trkpt lat="44.99515" lon="4.86886">
        <ele>117.1</ele>
      </trkpt>
      <trkpt lat="44.99523" lon="4.86889">
        <ele>117.1</ele>
      </trkpt>
      <trkpt lat="44.99517" lon="4.86903">
        <ele>117.4</ele>
      </trkpt>
      <trkpt lat="44.99467" lon="4.87005">
        <ele>112.0</ele>
      </trkpt>
      <trkpt lat="44.99416" lon="4.87107">
        <ele>112.8</ele>
      </trkpt>
      <trkpt lat="44.99413" lon="4.87114">
        <ele>113.1</ele>
      </trkpt>
      <trkpt lat="44.99399" lon="4.87103">
        <ele>112.8</ele>
      </trkpt>
      <trkpt lat="44.99398" lon="4.87101">
        <ele>112.8</ele>
      </trkpt>
      <trkpt lat="44.99387" lon="4.87092">
        <ele>112.6</ele>
      </trkpt>
      <trkpt lat="44.99378" lon="4.87088">
        <ele>112.6</ele>
      </trkpt>
      <trkpt lat="44.99346" lon="4.87074">
        <ele>112.8</ele>
      </trkpt>
      <trkpt lat="44.99279" lon="4.87056">
        <ele>113.1</ele>
      </trkpt>
      <trkpt lat="44.99223" lon="4.87035">
        <ele>113.5</ele>
      </trkpt>
      <trkpt lat="44.99168" lon="4.87014">
        <ele>113.2</ele>
      </trkpt>
      <trkpt lat="44.99085" lon="4.86974">
        <ele>113.4</ele>
      </trkpt>
      <trkpt lat="44.99023" lon="4.86927">
        <ele>115.9</ele>
      </trkpt>
      <trkpt lat="44.98963" lon="4.86855">
        <ele>114.6</ele>
      </trkpt>
      <trkpt lat="44.98889" lon="4.8681">
        <ele>114.4</ele>
      </trkpt>
      <trkpt lat="44.98807" lon="4.86764">
        <ele>112.7</ele>
      </trkpt>
      <trkpt lat="44.98733" lon="4.86724">
        <ele>112.7</ele>
      </trkpt>
      <trkpt lat="44.98683" lon="4.86683">
        <ele>112.8</ele>
      </trkpt>
      <trkpt lat="44.98633" lon="4.86643">
        <ele>114.5</ele>
      </trkpt>
      <trkpt lat="44.98598" lon="4.86599">
        <ele>115.8</ele>
      </trkpt>
      <trkpt lat="44.98562" lon="4.86555">
        <ele>115.6</ele>
      </trkpt>
      <trkpt lat="44.98524" lon="4.86499">
        <ele>114.1</ele>
      </trkpt>
      <trkpt lat="44.98485" lon="4.86442">
        <ele>114.0</ele>
      </trkpt>
      <trkpt lat="44.9845" lon="4.86373">
        <ele>113.7</ele>
      </trkpt>
      <trkpt lat="44.98414" lon="4.86303">
        <ele>113.5</ele>
      </trkpt>
      <trkpt lat="44.98365" lon="4.86205">
        <ele>114.8</ele>
      </trkpt>
      <trkpt lat="44.98324" lon="4.86109">
        <ele>114.3</ele>
      </trkpt>
      <trkpt lat="44.98286" lon="4.86039">
        <ele>114.4</ele>
      </trkpt>
      <trkpt lat="44.98233" lon="4.85969">
        <ele>113.3</ele>
      </trkpt>
      <trkpt lat="44.98181" lon="4.8592">
        <ele>113.0</ele>
      </trkpt>
      <trkpt lat="44.9814" lon="4.85891">
        <ele>113.4</ele>
      </trkpt>
      <trkpt lat="44.98087" lon="4.85863">
        <ele>113.4</ele>
      </trkpt>
      <trkpt lat="44.98064" lon="4.85853">
        <ele>113.0</ele>
      </trkpt>
      <trkpt lat="44.98018" lon="4.85844">
        <ele>112.7</ele>
      </trkpt>
      <trkpt lat="44.97973" lon="4.85835">
        <ele>112.5</ele>
      </trkpt>
      <trkpt lat="44.97923" lon="4.85835">
        <ele>113.0</ele>
      </trkpt>
      <trkpt lat="44.97873" lon="4.85836">
        <ele>114.1</ele>
      </trkpt>
      <trkpt lat="44.97827" lon="4.85841">
        <ele>115.4</ele>
      </trkpt>
      <trkpt lat="44.9778" lon="4.85847">
        <ele>116.5</ele>
      </trkpt>
      <trkpt lat="44.97726" lon="4.85862">
        <ele>116.5</ele>
      </trkpt>
      <trkpt lat="44.97672" lon="4.85876">
        <ele>115.6</ele>
      </trkpt>
      <trkpt lat="44.9762" lon="4.859">
        <ele>116.7</ele>
      </trkpt>
      <trkpt lat="44.97568" lon="4.85924">
        <ele>117.9</ele>
      </trkpt>
      <trkpt lat="44.97489" lon="4.85974">
        <ele>117.6</ele>
      </trkpt>
      <trkpt lat="44.9741" lon="4.86025">
        <ele>114.1</ele>
      </trkpt>
      <trkpt lat="44.97399" lon="4.86032">
        <ele>114.5</ele>
      </trkpt>
      <trkpt lat="44.97416" lon="4.86089">
        <ele>119.1</ele>
      </trkpt>
      <trkpt lat="44.97429" lon="4.86142">
        <ele>119.6</ele>
      </trkpt>
      <trkpt lat="44.97429" lon="4.86156">
        <ele>119.7</ele>
      </trkpt>
      <trkpt lat="44.97424" lon="4.86162">
        <ele>119.9</ele>
      </trkpt>
      <trkpt lat="44.97404" lon="4.86178">
        <ele>119.7</ele>
      </trkpt>
      <trkpt lat="44.97388" lon="4.86197">
        <ele>119.5</ele>
      </trkpt>
      <trkpt lat="44.97374" lon="4.8622">
        <ele>119.5</ele>
      </trkpt>
      <trkpt lat="44.97363" lon="4.86247">
        <ele>119.6</ele>
      </trkpt>
      <trkpt lat="44.97354" lon="4.86274">
        <ele>120.4</ele>
      </trkpt>
      <trkpt lat="44.97334" lon="4.86361">
        <ele>122.0</ele>
      </trkpt>
      <trkpt lat="44.97314" lon="4.86448">
        <ele>123.1</ele>
      </trkpt>
      <trkpt lat="44.97298" lon="4.8652">
        <ele>125.5</ele>
      </trkpt>
      <trkpt lat="44.97283" lon="4.86593">
        <ele>127.0</ele>
      </trkpt>
      <trkpt lat="44.97279" lon="4.86613">
        <ele>126.9</ele>
      </trkpt>
      <trkpt lat="44.97271" lon="4.86633">
        <ele>126.7</ele>
      </trkpt>
      <trkpt lat="44.97266" lon="4.86642">
        <ele>126.6</ele>
      </trkpt>
      <trkpt lat="44.97261" lon="4.86656">
        <ele>126.4</ele>
      </trkpt>
      <trkpt lat="44.9724" lon="4.8676">
        <ele>125.1</ele>
      </trkpt>
      <trkpt lat="44.9722" lon="4.86865">
        <ele>125.1</ele>
      </trkpt>
      <trkpt lat="44.97211" lon="4.86903">
        <ele>125.4</ele>
      </trkpt>
      <trkpt lat="44.97201" lon="4.86938">
        <ele>125.8</ele>
      </trkpt>
      <trkpt lat="44.97181" lon="4.86996">
        <ele>126.2</ele>
      </trkpt>
      <trkpt lat="44.97162" lon="4.87055">
        <ele>126.0</ele>
      </trkpt>
      <trkpt lat="44.9713" lon="4.87151">
        <ele>127.6</ele>
      </trkpt>
      <trkpt lat="44.97125" lon="4.8717">
        <ele>127.9</ele>
      </trkpt>
      <trkpt lat="44.97091" lon="4.87267">
        <ele>126.3</ele>
      </trkpt>
      <trkpt lat="44.97057" lon="4.87365">
        <ele>127.8</ele>
      </trkpt>
      <trkpt lat="44.97045" lon="4.87397">
        <ele>128.0</ele>
      </trkpt>
      <trkpt lat="44.97032" lon="4.87434">
        <ele>128.0</ele>
      </trkpt>
      <trkpt lat="44.97011" lon="4.87472">
        <ele>127.6</ele>
      </trkpt>
      <trkpt lat="44.97001" lon="4.87482">
        <ele>127.4</ele>
      </trkpt>
      <trkpt lat="44.96996" lon="4.87484">
        <ele>127.3</ele>
      </trkpt>
      <trkpt lat="44.96985" lon="4.87482">
        <ele>127.2</ele>
      </trkpt>
      <trkpt lat="44.96902" lon="4.87473">
        <ele>125.8</ele>
      </trkpt>
      <trkpt lat="44.96845" lon="4.8747">
        <ele>124.1</ele>
      </trkpt>
      <trkpt lat="44.96789" lon="4.87466">
        <ele>121.6</ele>
      </trkpt>
      <trkpt lat="44.96776" lon="4.87464">
        <ele>121.0</ele>
      </trkpt>
      <trkpt lat="44.96736" lon="4.8745">
        <ele>119.7</ele>
      </trkpt>
      <trkpt lat="44.96725" lon="4.87443">
        <ele>119.4</ele>
      </trkpt>
      <trkpt lat="44.96717" lon="4.87434">
        <ele>119.3</ele>
      </trkpt>
      <trkpt lat="44.96703" lon="4.87414">
        <ele>119.2</ele>
      </trkpt>
      <trkpt lat="44.96694" lon="4.87394">
        <ele>118.8</ele>
      </trkpt>
      <trkpt lat="44.96684" lon="4.87383">
        <ele>118.4</ele>
      </trkpt>
      <trkpt lat="44.9667" lon="4.87375">
        <ele>117.7</ele>
      </trkpt>
      <trkpt lat="44.96662" lon="4.87365">
        <ele>117.6</ele>
      </trkpt>
      <trkpt lat="44.96654" lon="4.87351">
        <ele>117.8</ele>
      </trkpt>
      <trkpt lat="44.96636" lon="4.87337">
        <ele>118.0</ele>
      </trkpt>
      <trkpt lat="44.96628" lon="4.87329">
        <ele>118.1</ele>
      </trkpt>
      <trkpt lat="44.96623" lon="4.87321">
        <ele>118.4</ele>
      </trkpt>
      <trkpt lat="44.96611" lon="4.87308">
        <ele>118.7</ele>
      </trkpt>
      <trkpt lat="44.966" lon="4.87294">
        <ele>119.0</ele>
      </trkpt>
      <trkpt lat="44.96593" lon="4.87289">
        <ele>119.1</ele>
      </trkpt>
      <trkpt lat="44.96587" lon="4.87287">
        <ele>119.1</ele>
      </trkpt>
      <trkpt lat="44.96564" lon="4.87288">
        <ele>119.1</ele>
      </trkpt>
      <trkpt lat="44.96554" lon="4.87285">
        <ele>119.1</ele>
      </trkpt>
      <trkpt lat="44.96528" lon="4.87269">
        <ele>119.2</ele>
      </trkpt>
      <trkpt lat="44.96521" lon="4.87261">
        <ele>119.2</ele>
      </trkpt>
      <trkpt lat="44.96512" lon="4.87244">
        <ele>119.1</ele>
      </trkpt>
      <trkpt lat="44.96506" lon="4.8723">
        <ele>118.8</ele>
      </trkpt>
      <trkpt lat="44.96499" lon="4.87198">
        <ele>118.3</ele>
      </trkpt>
      <trkpt lat="44.96492" lon="4.8718">
        <ele>117.9</ele>
      </trkpt>
      <trkpt lat="44.96476" lon="4.87159">
        <ele>117.0</ele>
      </trkpt>
      <trkpt lat="44.96464" lon="4.8715">
        <ele>116.5</ele>
      </trkpt>
      <trkpt lat="44.96449" lon="4.87137">
        <ele>115.8</ele>
      </trkpt>
      <trkpt lat="44.9644" lon="4.87136">
        <ele>115.5</ele>
      </trkpt>
      <trkpt lat="44.96432" lon="4.87145">
        <ele>115.3</ele>
      </trkpt>
      <trkpt lat="44.9642" lon="4.87166">
        <ele>115.1</ele>
      </trkpt>
      <trkpt lat="44.96393" lon="4.87202">
        <ele>115.3</ele>
      </trkpt>
      <trkpt lat="44.96379" lon="4.87211">
        <ele>115.1</ele>
      </trkpt>
      <trkpt lat="44.96359" lon="4.87227">
        <ele>114.8</ele>
      </trkpt>
      <trkpt lat="44.96325" lon="4.87261">
        <ele>114.0</ele>
      </trkpt>
      <trkpt lat="44.96304" lon="4.87284">
        <ele>113.9</ele>
      </trkpt>
      <trkpt lat="44.96292" lon="4.87303">
        <ele>113.7</ele>
      </trkpt>
      <trkpt lat="44.96287" lon="4.87322">
        <ele>113.5</ele>
      </trkpt>
      <trkpt lat="44.96284" lon="4.87343">
        <ele>113.4</ele>
      </trkpt>
      <trkpt lat="44.96282" lon="4.87368">
        <ele>113.4</ele>
      </trkpt>
      <trkpt lat="44.96284" lon="4.87386">
        <ele>113.4</ele>
      </trkpt>
      <trkpt lat="44.96288" lon="4.87407">
        <ele>113.5</ele>
      </trkpt>
      <trkpt lat="44.963" lon="4.87443">
        <ele>113.7</ele>
      </trkpt>
      <trkpt lat="44.96303" lon="4.87455">
        <ele>113.8</ele>
      </trkpt>
      <trkpt lat="44.96303" lon="4.87461">
        <ele>113.8</ele>
      </trkpt>
      <trkpt lat="44.96302" lon="4.87466">
        <ele>113.8</ele>
      </trkpt>
      <trkpt lat="44.96291" lon="4.87478">
        <ele>113.9</ele>
      </trkpt>
      <trkpt lat="44.96277" lon="4.87493">
        <ele>113.9</ele>
      </trkpt>
      <trkpt lat="44.96273" lon="4.87496">
        <ele>114.0</ele>
      </trkpt>
      <trkpt lat="44.96269" lon="4.87501">
        <ele>114.0</ele>
      </trkpt>
      <trkpt lat="44.96266" lon="4.87506">
        <ele>114.1</ele>
      </trkpt>
      <trkpt lat="44.9626" lon="4.87531">
        <ele>114.4</ele>
      </trkpt>
      <trkpt lat="44.96258" lon="4.87534">
        <ele>114.4</ele>
      </trkpt>
      <trkpt lat="44.96256" lon="4.87535">
        <ele>114.4</ele>
      </trkpt>
      <trkpt lat="44.9624" lon="4.87529">
        <ele>113.7</ele>
      </trkpt>
      <trkpt lat="44.96234" lon="4.87532">
        <ele>113.4</ele>
      </trkpt>
      <trkpt lat="44.9623" lon="4.87533">
        <ele>113.2</ele>
      </trkpt>
      <trkpt lat="44.96182" lon="4.87524">
        <ele>109.7</ele>
      </trkpt>
      <trkpt lat="44.96173" lon="4.87519">
        <ele>108.8</ele>
      </trkpt>
      <trkpt lat="44.96133" lon="4.87577">
        <ele>110.8</ele>
      </trkpt>
      <trkpt lat="44.96093" lon="4.87635">
        <ele>111.1</ele>
      </trkpt>
      <trkpt lat="44.96056" lon="4.87682">
        <ele>111.8</ele>
      </trkpt>
      <trkpt lat="44.96032" lon="4.87708">
        <ele>111.6</ele>
      </trkpt>
      <trkpt lat="44.9602" lon="4.87719">
        <ele>111.4</ele>
      </trkpt>
      <trkpt lat="44.96" lon="4.87741">
        <ele>110.9</ele>
      </trkpt>
      <trkpt lat="44.95959" lon="4.87775">
        <ele>110.6</ele>
      </trkpt>
      <trkpt lat="44.95921" lon="4.878">
        <ele>110.5</ele>
      </trkpt>
      <trkpt lat="44.95854" lon="4.87854">
        <ele>109.8</ele>
      </trkpt>
      <trkpt lat="44.9582" lon="4.87879">
        <ele>110.4</ele>
      </trkpt>
      <trkpt lat="44.95786" lon="4.87903">
        <ele>110.1</ele>
      </trkpt>
      <trkpt lat="44.95717" lon="4.87942">
        <ele>108.3</ele>
      </trkpt>
      <trkpt lat="44.95664" lon="4.87968">
        <ele>109.6</ele>
      </trkpt>
      <trkpt lat="44.95601" lon="4.87995">
        <ele>110.0</ele>
      </trkpt>
      <trkpt lat="44.95549" lon="4.88014">
        <ele>109.6</ele>
      </trkpt>
      <trkpt lat="44.95497" lon="4.88033">
        <ele>110.3</ele>
      </trkpt>
      <trkpt lat="44.95436" lon="4.8806">
        <ele>110.1</ele>
      </trkpt>
      <trkpt lat="44.95375" lon="4.88086">
        <ele>110.2</ele>
      </trkpt>
      <trkpt lat="44.95314" lon="4.88113">
        <ele>111.3</ele>
      </trkpt>
      <trkpt lat="44.95247" lon="4.88141">
        <ele>109.4</ele>
      </trkpt>
      <trkpt lat="44.95181" lon="4.88168">
        <ele>109.3</ele>
      </trkpt>
      <trkpt lat="44.95115" lon="4.88196">
        <ele>110.4</ele>
      </trkpt>
      <trkpt lat="44.95049" lon="4.88224">
        <ele>110.6</ele>
      </trkpt>
      <trkpt lat="44.94965" lon="4.88262">
        <ele>108.9</ele>
      </trkpt>
      <trkpt lat="44.94881" lon="4.88301">
        <ele>109.1</ele>
      </trkpt>
      <trkpt lat="44.94797" lon="4.8834">
        <ele>107.9</ele>
      </trkpt>
      <trkpt lat="44.94713" lon="4.88378">
        <ele>108.4</ele>
      </trkpt>
      <trkpt lat="44.94637" lon="4.88412">
        <ele>108.9</ele>
      </trkpt>
      <trkpt lat="44.94561" lon="4.88445">
        <ele>110.1</ele>
      </trkpt>
      <trkpt lat="44.94486" lon="4.88481">
        <ele>111.1</ele>
      </trkpt>
      <trkpt lat="44.9445" lon="4.885">
        <ele>112.0</ele>
      </trkpt>
      <trkpt lat="44.94422" lon="4.88515">
        <ele>112.4</ele>
      </trkpt>
      <trkpt lat="44.94416" lon="4.8852">
        <ele>112.4</ele>
      </trkpt>
      <trkpt lat="44.94382" lon="4.88538">
        <ele>109.7</ele>
      </trkpt>
      <trkpt lat="44.94368" lon="4.8855">
        <ele>109.2</ele>
      </trkpt>
      <trkpt lat="44.9436" lon="4.88561">
        <ele>109.4</ele>
      </trkpt>
      <trkpt lat="44.94357" lon="4.88568">
        <ele>109.8</ele>
      </trkpt>
      <trkpt lat="44.94344" lon="4.88596">
        <ele>110.9</ele>
      </trkpt>
      <trkpt lat="44.94325" lon="4.8863">
        <ele>111.6</ele>
      </trkpt>
      <trkpt lat="44.943" lon="4.88666">
        <ele>113.0</ele>
      </trkpt>
      <trkpt lat="44.94279" lon="4.88681">
        <ele>112.8</ele>
      </trkpt>
      <trkpt lat="44.94252" lon="4.88685">
        <ele>112.8</ele>
      </trkpt>
      <trkpt lat="44.94208" lon="4.88677">
        <ele>111.0</ele>
      </trkpt>
      <trkpt lat="44.94188" lon="4.88666">
        <ele>110.0</ele>
      </trkpt>
      <trkpt lat="44.94182" lon="4.88673">
        <ele>109.8</ele>
      </trkpt>
      <trkpt lat="44.9416" lon="4.88685">
        <ele>109.1</ele>
      </trkpt>
      <trkpt lat="44.94136" lon="4.88686">
        <ele>108.9</ele>
      </trkpt>
      <trkpt lat="44.94127" lon="4.88689">
        <ele>108.8</ele>
      </trkpt>
      <trkpt lat="44.94126" lon="4.88776">
        <ele>110.1</ele>
      </trkpt>
      <trkpt lat="44.94123" lon="4.88879">
        <ele>112.0</ele>
      </trkpt>
      <trkpt lat="44.94126" lon="4.8893">
        <ele>112.4</ele>
      </trkpt>
      <trkpt lat="44.94125" lon="4.88955">
        <ele>112.0</ele>
      </trkpt>
      <trkpt lat="44.94122" lon="4.88975">
        <ele>111.8</ele>
      </trkpt>
      <trkpt lat="44.94117" lon="4.8899">
        <ele>111.5</ele>
      </trkpt>
      <trkpt lat="44.94106" lon="4.89016">
        <ele>111.8</ele>
      </trkpt>
      <trkpt lat="44.94135" lon="4.89016">
        <ele>111.9</ele>
      </trkpt>
      <trkpt lat="44.94161" lon="4.89028">
        <ele>112.0</ele>
      </trkpt>
      <trkpt lat="44.94163" lon="4.89022">
        <ele>112.0</ele>
      </trkpt>
      <trkpt lat="44.94138" lon="4.89011">
        <ele>111.8</ele>
      </trkpt>
      <trkpt lat="44.94104" lon="4.89004">
        <ele>111.4</ele>
      </trkpt>
      <trkpt lat="44.94089" lon="4.89003">
        <ele>111.2</ele>
      </trkpt>
      <trkpt lat="44.94063" lon="4.88996">
        <ele>111.3</ele>
      </trkpt>
      <trkpt lat="44.94005" lon="4.88991">
        <ele>112.0</ele>
      </trkpt>
      <trkpt lat="44.93962" lon="4.88989">
        <ele>112.3</ele>
      </trkpt>
      <trkpt lat="44.93951" lon="4.88995">
        <ele>112.5</ele>
      </trkpt>
      <trkpt lat="44.93876" lon="4.8898">
        <ele>112.0</ele>
      </trkpt>
      <trkpt lat="44.93794" lon="4.8897">
        <ele>111.3</ele>
      </trkpt>
      <trkpt lat="44.93765" lon="4.88961">
        <ele>110.8</ele>
      </trkpt>
      <trkpt lat="44.93738" lon="4.8895">
        <ele>110.6</ele>
      </trkpt>
      <trkpt lat="44.93734" lon="4.88962">
        <ele>111.2</ele>
      </trkpt>
      <trkpt lat="44.93721" lon="4.88985">
        <ele>112.7</ele>
      </trkpt>
      <trkpt lat="44.93716" lon="4.8899">
        <ele>113.2</ele>
      </trkpt>
      <trkpt lat="44.937" lon="4.88987">
        <ele>113.8</ele>
      </trkpt>
      <trkpt lat="44.93647" lon="4.88985">
        <ele>115.5</ele>
      </trkpt>
      <trkpt lat="44.9363" lon="4.88987">
        <ele>115.9</ele>
      </trkpt>
      <trkpt lat="44.93597" lon="4.8899">
        <ele>116.6</ele>
      </trkpt>
      <trkpt lat="44.93581" lon="4.8899">
        <ele>117.0</ele>
      </trkpt>
      <trkpt lat="44.93577" lon="4.88987">
        <ele>117.2</ele>
      </trkpt>
      <trkpt lat="44.93558" lon="4.8897">
        <ele>117.9</ele>
      </trkpt>
      <trkpt lat="44.93546" lon="4.88964">
        <ele>118.3</ele>
      </trkpt>
      <trkpt lat="44.93533" lon="4.88957">
        <ele>118.6</ele>
      </trkpt>
      <trkpt lat="44.93498" lon="4.88937">
        <ele>118.5</ele>
      </trkpt>
      <trkpt lat="44.93456" lon="4.88909">
        <ele>116.4</ele>
      </trkpt>
      <trkpt lat="44.93451" lon="4.88907">
        <ele>116.2</ele>
      </trkpt>
      <trkpt lat="44.93433" lon="4.88904">
        <ele>115.8</ele>
      </trkpt>
      <trkpt lat="44.93386" lon="4.88905">
        <ele>116.0</ele>
      </trkpt>
      <trkpt lat="44.93339" lon="4.88905">
        <ele>116.3</ele>
      </trkpt>
      <trkpt lat="44.93307" lon="4.88896">
        <ele>116.8</ele>
      </trkpt>
      <trkpt lat="44.93281" lon="4.88894">
        <ele>117.8</ele>
      </trkpt>
      <trkpt lat="44.93239" lon="4.88893">
        <ele>119.8</ele>
      </trkpt>
      <trkpt lat="44.93227" lon="4.88891">
        <ele>120.4</ele>
      </trkpt>
      <trkpt lat="44.93198" lon="4.88878">
        <ele>121.0</ele>
      </trkpt>
      <trkpt lat="44.93194" lon="4.88873">
        <ele>120.7</ele>
      </trkpt>
      <trkpt lat="44.93191" lon="4.88868">
        <ele>120.2</ele>
      </trkpt>
      <trkpt lat="44.9319" lon="4.88856">
        <ele>118.9</ele>
      </trkpt>
      <trkpt lat="44.93181" lon="4.88847">
        <ele>118.2</ele>
      </trkpt>
      <trkpt lat="44.93158" lon="4.88827">
        <ele>117.0</ele>
      </trkpt>
      <trkpt lat="44.9309" lon="4.8877">
        <ele>118.1</ele>
      </trkpt>
      <trkpt lat="44.93084" lon="4.88766">
        <ele>118.3</ele>
      </trkpt>
      <trkpt lat="44.931" lon="4.88695">
        <ele>116.0</ele>
      </trkpt>
      <trkpt lat="44.93099" lon="4.88688">
        <ele>115.9</ele>
      </trkpt>
      <trkpt lat="44.93097" lon="4.88681">
        <ele>115.9</ele>
      </trkpt>
      <trkpt lat="44.93102" lon="4.88662">
        <ele>115.4</ele>
      </trkpt>
      <trkpt lat="44.93105" lon="4.88654">
        <ele>115.0</ele>
      </trkpt>
      <trkpt lat="44.93112" lon="4.88631">
        <ele>114.0</ele>
      </trkpt>
      <trkpt lat="44.9311" lon="4.88629">
        <ele>114.0</ele>
      </trkpt>
      <trkpt lat="44.93109" lon="4.88622">
        <ele>113.7</ele>
      </trkpt>
      <trkpt lat="44.9311" lon="4.88613">
        <ele>113.4</ele>
      </trkpt>
      <trkpt lat="44.93116" lon="4.8857">
        <ele>111.9</ele>
      </trkpt>
      <trkpt lat="44.93124" lon="4.88539">
        <ele>110.7</ele>
      </trkpt>
      <trkpt lat="44.93136" lon="4.88501">
        <ele>108.6</ele>
      </trkpt>
      <trkpt lat="44.93168" lon="4.88401">
        <ele>107.0</ele>
      </trkpt>
      <trkpt lat="44.93201" lon="4.88301">
        <ele>107.0</ele>
      </trkpt>
      <trkpt lat="44.93233" lon="4.88201">
        <ele>108.4</ele>
      </trkpt>
      <trkpt lat="44.93266" lon="4.88101">
        <ele>111.0</ele>
      </trkpt>
      <trkpt lat="44.93269" lon="4.88091">
        <ele>111.2</ele>
      </trkpt>
      <trkpt lat="44.93292" lon="4.88021">
        <ele>110.8</ele>
      </trkpt>
      <trkpt lat="44.93297" lon="4.88019">
        <ele>110.8</ele>
      </trkpt>
      <trkpt lat="44.93299" lon="4.88019">
        <ele>110.8</ele>
      </trkpt>
      <trkpt lat="44.93307" lon="4.88022">
        <ele>110.9</ele>
      </trkpt>
      <trkpt lat="44.93316" lon="4.88035">
        <ele>111.2</ele>
      </trkpt>
      <trkpt lat="44.93319" lon="4.88041">
        <ele>111.3</ele>
      </trkpt>
      <trkpt lat="44.93324" lon="4.88057">
        <ele>111.6</ele>
      </trkpt>
      <trkpt lat="44.93323" lon="4.88066">
        <ele>111.7</ele>
      </trkpt>
      <trkpt lat="44.93312" lon="4.88096">
        <ele>111.7</ele>
      </trkpt>
      <trkpt lat="44.93284" lon="4.88078">
        <ele>111.3</ele>
      </trkpt>
      <trkpt lat="44.93258" lon="4.88061">
        <ele>110.8</ele>
      </trkpt>
      <trkpt lat="44.93242" lon="4.88051">
        <ele>110.5</ele>
      </trkpt>
      <trkpt lat="44.93208" lon="4.8803">
        <ele>110.0</ele>
      </trkpt>
      <trkpt lat="44.93191" lon="4.88021">
        <ele>109.9</ele>
      </trkpt>
      <trkpt lat="44.93187" lon="4.88021">
        <ele>109.9</ele>
      </trkpt>
      <trkpt lat="44.9318" lon="4.8802">
        <ele>109.8</ele>
      </trkpt>
      <trkpt lat="44.93158" lon="4.88004">
        <ele>109.6</ele>
      </trkpt>
      <trkpt lat="44.9315" lon="4.87999">
        <ele>109.4</ele>
      </trkpt>
      <trkpt lat="44.93145" lon="4.87998">
        <ele>109.3</ele>
      </trkpt>
      <trkpt lat="44.93143" lon="4.87998">
        <ele>109.2</ele>
      </trkpt>
      <trkpt lat="44.93141" lon="4.88">
        <ele>109.1</ele>
      </trkpt>
      <trkpt lat="44.93115" lon="4.87972">
        <ele>109.5</ele>
      </trkpt>
      <trkpt lat="44.93114" lon="4.87981">
        <ele>109.0</ele>
      </trkpt>
      <trkpt lat="44.9311" lon="4.87991">
        <ele>108.4</ele>
      </trkpt>
      <trkpt lat="44.9311" lon="4.87995">
        <ele>108.2</ele>
      </trkpt>
      <trkpt lat="44.9311" lon="4.88">
        <ele>108.0</ele>
      </trkpt>
      <trkpt lat="44.93102" lon="4.88021">
        <ele>107.6</ele>
      </trkpt>
      <trkpt lat="44.93079" lon="4.87984">
        <ele>108.2</ele>
      </trkpt>
      <trkpt lat="44.93078" lon="4.87971">
        <ele>109.1</ele>
      </trkpt>
      <trkpt lat="44.93072" lon="4.87957">
        <ele>110.1</ele>
      </trkpt>
      <trkpt lat="44.9301" lon="4.87899">
        <ele>112.6</ele>
      </trkpt>
      <trkpt lat="44.92948" lon="4.87841">
        <ele>110.3</ele>
      </trkpt>
      <trkpt lat="44.92887" lon="4.87783">
        <ele>109.6</ele>
      </trkpt>
      <trkpt lat="44.92825" lon="4.87726">
        <ele>109.8</ele>
      </trkpt>
      <trkpt lat="44.92764" lon="4.87668">
        <ele>110.0</ele>
      </trkpt>
      <trkpt lat="44.92721" lon="4.87626">
        <ele>108.6</ele>
      </trkpt>
      <trkpt lat="44.92678" lon="4.87585">
        <ele>107.3</ele>
      </trkpt>
      <trkpt lat="44.9265" lon="4.87553">
        <ele>108.0</ele>
      </trkpt>
      <trkpt lat="44.92604" lon="4.87508">
        <ele>109.0</ele>
      </trkpt>
      <trkpt lat="44.92532" lon="4.87445">
        <ele>108.6</ele>
      </trkpt>
      <trkpt lat="44.92471" lon="4.87401">
        <ele>107.8</ele>
      </trkpt>
      <trkpt lat="44.9241" lon="4.87357">
        <ele>107.3</ele>
      </trkpt>
      <trkpt lat="44.92354" lon="4.87313">
        <ele>106.8</ele>
      </trkpt>
      <trkpt lat="44.92299" lon="4.8727">
        <ele>107.4</ele>
      </trkpt>
      <trkpt lat="44.92221" lon="4.87208">
        <ele>107.5</ele>
      </trkpt>
      <trkpt lat="44.92143" lon="4.87146">
        <ele>106.5</ele>
      </trkpt>
      <trkpt lat="44.92082" lon="4.87095">
        <ele>106.0</ele>
      </trkpt>
      <trkpt lat="44.92021" lon="4.87045">
        <ele>105.2</ele>
      </trkpt>
      <trkpt lat="44.92014" lon="4.87032">
        <ele>105.4</ele>
      </trkpt>
      <trkpt lat="44.92005" lon="4.86984">
        <ele>106.4</ele>
      </trkpt>
      <trkpt lat="44.91993" lon="4.86967">
        <ele>106.9</ele>
      </trkpt>
      <trkpt lat="44.91981" lon="4.86969">
        <ele>107.0</ele>
      </trkpt>
      <trkpt lat="44.91951" lon="4.86962">
        <ele>107.3</ele>
      </trkpt>
      <trkpt lat="44.91874" lon="4.86941">
        <ele>107.6</ele>
      </trkpt>
      <trkpt lat="44.91798" lon="4.86919">
        <ele>108.5</ele>
      </trkpt>
      <trkpt lat="44.91721" lon="4.86902">
        <ele>107.6</ele>
      </trkpt>
      <trkpt lat="44.91644" lon="4.86885">
        <ele>108.0</ele>
      </trkpt>
      <trkpt lat="44.91581" lon="4.86872">
        <ele>109.5</ele>
      </trkpt>
      <trkpt lat="44.91519" lon="4.8686">
        <ele>108.1</ele>
      </trkpt>
      <trkpt lat="44.91442" lon="4.86833">
        <ele>108.3</ele>
      </trkpt>
      <trkpt lat="44.91407" lon="4.86791">
        <ele>107.8</ele>
      </trkpt>
      <trkpt lat="44.91372" lon="4.86749">
        <ele>107.5</ele>
      </trkpt>
      <trkpt lat="44.91333" lon="4.86732">
        <ele>107.2</ele>
      </trkpt>
      <trkpt lat="44.91317" lon="4.86733">
        <ele>107.0</ele>
      </trkpt>
      <trkpt lat="44.91294" lon="4.86728">
        <ele>106.8</ele>
      </trkpt>
      <trkpt lat="44.91276" lon="4.86718">
        <ele>106.7</ele>
      </trkpt>
      <trkpt lat="44.91227" lon="4.86687">
        <ele>106.9</ele>
      </trkpt>
      <trkpt lat="44.91179" lon="4.86656">
        <ele>107.0</ele>
      </trkpt>
      <trkpt lat="44.91111" lon="4.86606">
        <ele>107.4</ele>
      </trkpt>
      <trkpt lat="44.9107" lon="4.86568">
        <ele>107.1</ele>
      </trkpt>
      <trkpt lat="44.91029" lon="4.86531">
        <ele>107.3</ele>
      </trkpt>
      <trkpt lat="44.91032" lon="4.86519">
        <ele>107.0</ele>
      </trkpt>
      <trkpt lat="44.91057" lon="4.86465">
        <ele>105.6</ele>
      </trkpt>
      <trkpt lat="44.91063" lon="4.86451">
        <ele>105.4</ele>
      </trkpt>
      <trkpt lat="44.91034" lon="4.86387">
        <ele>104.6</ele>
      </trkpt>
      <trkpt lat="44.91017" lon="4.86349">
        <ele>104.8</ele>
      </trkpt>
      <trkpt lat="44.90997" lon="4.86296">
        <ele>106.3</ele>
      </trkpt>
      <trkpt lat="44.9099" lon="4.86278">
        <ele>106.9</ele>
      </trkpt>
      <trkpt lat="44.90976" lon="4.86254">
        <ele>107.6</ele>
      </trkpt>
      <trkpt lat="44.90971" lon="4.86238">
        <ele>107.8</ele>
      </trkpt>
      <trkpt lat="44.9097" lon="4.86197">
        <ele>108.3</ele>
      </trkpt>
      <trkpt lat="44.90976" lon="4.86071">
        <ele>107.3</ele>
      </trkpt>
      <trkpt lat="44.90982" lon="4.85945">
        <ele>106.9</ele>
      </trkpt>
      <trkpt lat="44.90988" lon="4.85818">
        <ele>106.0</ele>
      </trkpt>
      <trkpt lat="44.90994" lon="4.85692">
        <ele>108.8</ele>
      </trkpt>
      <trkpt lat="44.91" lon="4.85617">
        <ele>109.4</ele>
      </trkpt>
      <trkpt lat="44.91009" lon="4.8558">
        <ele>108.5</ele>
      </trkpt>
      <trkpt lat="44.91014" lon="4.85564">
        <ele>107.8</ele>
      </trkpt>
      <trkpt lat="44.91026" lon="4.85531">
        <ele>106.8</ele>
      </trkpt>
      <trkpt lat="44.91037" lon="4.85492">
        <ele>106.9</ele>
      </trkpt>
      <trkpt lat="44.90985" lon="4.85458">
        <ele>109.0</ele>
      </trkpt>
      <trkpt lat="44.90934" lon="4.85424">
        <ele>110.2</ele>
      </trkpt>
      <trkpt lat="44.90864" lon="4.85401">
        <ele>111.4</ele>
      </trkpt>
      <trkpt lat="44.90809" lon="4.85391">
        <ele>112.2</ele>
      </trkpt>
      <trkpt lat="44.90754" lon="4.85381">
        <ele>114.1</ele>
      </trkpt>
      <trkpt lat="44.90733" lon="4.85374">
        <ele>114.4</ele>
      </trkpt>
      <trkpt lat="44.90663" lon="4.85373">
        <ele>111.8</ele>
      </trkpt>
      <trkpt lat="44.9063" lon="4.85375">
        <ele>111.8</ele>
      </trkpt>
      <trkpt lat="44.90575" lon="4.85376">
        <ele>111.9</ele>
      </trkpt>
      <trkpt lat="44.90519" lon="4.85374">
        <ele>112.1</ele>
      </trkpt>
      <trkpt lat="44.90474" lon="4.8537">
        <ele>111.4</ele>
      </trkpt>
      <trkpt lat="44.90403" lon="4.85358">
        <ele>110.2</ele>
      </trkpt>
      <trkpt lat="44.90362" lon="4.85347">
        <ele>110.6</ele>
      </trkpt>
      <trkpt lat="44.90304" lon="4.85328">
        <ele>112.0</ele>
      </trkpt>
      <trkpt lat="44.90253" lon="4.85308">
        <ele>113.9</ele>
      </trkpt>
      <trkpt lat="44.90176" lon="4.85273">
        <ele>113.3</ele>
      </trkpt>
      <trkpt lat="44.9015" lon="4.85264">
        <ele>112.5</ele>
      </trkpt>
      <trkpt lat="44.90117" lon="4.85255">
        <ele>111.8</ele>
      </trkpt>
      <trkpt lat="44.90043" lon="4.85239">
        <ele>110.4</ele>
      </trkpt>
      <trkpt lat="44.90005" lon="4.85233">
        <ele>108.9</ele>
      </trkpt>
      <trkpt lat="44.89922" lon="4.85223">
        <ele>109.0</ele>
      </trkpt>
      <trkpt lat="44.89844" lon="4.85215">
        <ele>109.1</ele>
      </trkpt>
      <trkpt lat="44.89767" lon="4.85207">
        <ele>107.3</ele>
      </trkpt>
      <trkpt lat="44.89689" lon="4.852">
        <ele>106.1</ele>
      </trkpt>
      <trkpt lat="44.89631" lon="4.85195">
        <ele>106.0</ele>
      </trkpt>
      <trkpt lat="44.89573" lon="4.8519">
        <ele>106.2</ele>
      </trkpt>
      <trkpt lat="44.89511" lon="4.85185">
        <ele>106.0</ele>
      </trkpt>
      <trkpt lat="44.8945" lon="4.85179">
        <ele>106.8</ele>
      </trkpt>
      <trkpt lat="44.89416" lon="4.85178">
        <ele>107.1</ele>
      </trkpt>
      <trkpt lat="44.89366" lon="4.85176">
        <ele>105.7</ele>
      </trkpt>
      <trkpt lat="44.89315" lon="4.85173">
        <ele>105.3</ele>
      </trkpt>
      <trkpt lat="44.89288" lon="4.85173">
        <ele>106.0</ele>
      </trkpt>
      <trkpt lat="44.89252" lon="4.85177">
        <ele>107.1</ele>
      </trkpt>
      <trkpt lat="44.89238" lon="4.85176">
        <ele>107.4</ele>
      </trkpt>
      <trkpt lat="44.89221" lon="4.85181">
        <ele>107.8</ele>
      </trkpt>
      <trkpt lat="44.8914" lon="4.852">
        <ele>108.9</ele>
      </trkpt>
      <trkpt lat="44.89059" lon="4.85218">
        <ele>108.9</ele>
      </trkpt>
      <trkpt lat="44.88978" lon="4.85237">
        <ele>109.2</ele>
      </trkpt>
      <trkpt lat="44.88967" lon="4.85232">
        <ele>108.8</ele>
      </trkpt>
      <trkpt lat="44.88963" lon="4.85238">
        <ele>108.7</ele>
      </trkpt>
      <trkpt lat="44.88956" lon="4.85244">
        <ele>108.4</ele>
      </trkpt>
      <trkpt lat="44.8894" lon="4.85247">
        <ele>107.8</ele>
      </trkpt>
      <trkpt lat="44.88934" lon="4.85247">
        <ele>107.6</ele>
      </trkpt>
      <trkpt lat="44.88868" lon="4.85274">
        <ele>106.2</ele>
      </trkpt>
      <trkpt lat="44.88801" lon="4.853">
        <ele>106.2</ele>
      </trkpt>
      <trkpt lat="44.88756" lon="4.85324">
        <ele>105.3</ele>
      </trkpt>
      <trkpt lat="44.8871" lon="4.85348">
        <ele>104.7</ele>
      </trkpt>
      <trkpt lat="44.88654" lon="4.85388">
        <ele>104.8</ele>
      </trkpt>
      <trkpt lat="44.88599" lon="4.85428">
        <ele>104.2</ele>
      </trkpt>
      <trkpt lat="44.88543" lon="4.85468">
        <ele>104.7</ele>
      </trkpt>
      <trkpt lat="44.88525" lon="4.85469">
        <ele>104.8</ele>
      </trkpt>
      <trkpt lat="44.88513" lon="4.85466">
        <ele>104.8</ele>
      </trkpt>
      <trkpt lat="44.88502" lon="4.85467">
        <ele>104.8</ele>
      </trkpt>
      <trkpt lat="44.88489" lon="4.8547">
        <ele>104.5</ele>
      </trkpt>
      <trkpt lat="44.88441" lon="4.85486">
        <ele>102.9</ele>
      </trkpt>
      <trkpt lat="44.88386" lon="4.85491">
        <ele>102.2</ele>
      </trkpt>
      <trkpt lat="44.88332" lon="4.85496">
        <ele>102.9</ele>
      </trkpt>
      <trkpt lat="44.88307" lon="4.85491">
        <ele>102.8</ele>
      </trkpt>
      <trkpt lat="44.88244" lon="4.85455">
        <ele>102.0</ele>
      </trkpt>
      <trkpt lat="44.8818" lon="4.85419">
        <ele>101.9</ele>
      </trkpt>
      <trkpt lat="44.88094" lon="4.85397">
        <ele>101.9</ele>
      </trkpt>
      <trkpt lat="44.88064" lon="4.85336">
        <ele>102.0</ele>
      </trkpt>
      <trkpt lat="44.88035" lon="4.85275">
        <ele>104.1</ele>
      </trkpt>
      <trkpt lat="44.88022" lon="4.85254">
        <ele>104.9</ele>
      </trkpt>
      <trkpt lat="44.88016" lon="4.85247">
        <ele>105.2</ele>
      </trkpt>
      <trkpt lat="44.8801" lon="4.8524">
        <ele>105.6</ele>
      </trkpt>
      <trkpt lat="44.88007" lon="4.85237">
        <ele>105.8</ele>
      </trkpt>
      <trkpt lat="44.88003" lon="4.85235">
        <ele>105.9</ele>
      </trkpt>
      <trkpt lat="44.87987" lon="4.85239">
        <ele>105.9</ele>
      </trkpt>
      <trkpt lat="44.87975" lon="4.85241">
        <ele>106.0</ele>
      </trkpt>
      <trkpt lat="44.87964" lon="4.8524">
        <ele>106.3</ele>
      </trkpt>
      <trkpt lat="44.87954" lon="4.85233">
        <ele>106.7</ele>
      </trkpt>
      <trkpt lat="44.87944" lon="4.85219">
        <ele>107.2</ele>
      </trkpt>
      <trkpt lat="44.87939" lon="4.85208">
        <ele>107.5</ele>
      </trkpt>
      <trkpt lat="44.87938" lon="4.85193">
        <ele>107.9</ele>
      </trkpt>
      <trkpt lat="44.87939" lon="4.85162">
        <ele>108.4</ele>
      </trkpt>
      <trkpt lat="44.87939" lon="4.85144">
        <ele>108.1</ele>
      </trkpt>
      <trkpt lat="44.87972" lon="4.85108">
        <ele>107.7</ele>
      </trkpt>
      <trkpt lat="44.87994" lon="4.8509">
        <ele>107.2</ele>
      </trkpt>
      <trkpt lat="44.88012" lon="4.85076">
        <ele>106.8</ele>
      </trkpt>
      <trkpt lat="44.88027" lon="4.8507">
        <ele>106.5</ele>
      </trkpt>
      <trkpt lat="44.88065" lon="4.85072">
        <ele>106.1</ele>
      </trkpt>
      <trkpt lat="44.88075" lon="4.85067">
        <ele>105.9</ele>
      </trkpt>
      <trkpt lat="44.88065" lon="4.85062">
        <ele>106.0</ele>
      </trkpt>
      <trkpt lat="44.88026" lon="4.85058">
        <ele>106.4</ele>
      </trkpt>
      <trkpt lat="44.88014" lon="4.85056">
        <ele>106.5</ele>
      </trkpt>
      <trkpt lat="44.87944" lon="4.85039">
        <ele>106.8</ele>
      </trkpt>
      <trkpt lat="44.87874" lon="4.85022">
        <ele>106.1</ele>
      </trkpt>
      <trkpt lat="44.87837" lon="4.85008">
        <ele>105.2</ele>
      </trkpt>
      <trkpt lat="44.87806" lon="4.85001">
        <ele>104.7</ele>
      </trkpt>
      <trkpt lat="44.87784" lon="4.84998">
        <ele>104.4</ele>
      </trkpt>
      <trkpt lat="44.87758" lon="4.85003">
        <ele>104.0</ele>
      </trkpt>
      <trkpt lat="44.87713" lon="4.85023">
        <ele>104.2</ele>
      </trkpt>
      <trkpt lat="44.87667" lon="4.85044">
        <ele>104.4</ele>
      </trkpt>
      <trkpt lat="44.87639" lon="4.85054">
        <ele>103.9</ele>
      </trkpt>
      <trkpt lat="44.87606" lon="4.8506">
        <ele>103.6</ele>
      </trkpt>
      <trkpt lat="44.87581" lon="4.85061">
        <ele>103.5</ele>
      </trkpt>
      <trkpt lat="44.87522" lon="4.85059">
        <ele>102.8</ele>
      </trkpt>
      <trkpt lat="44.87501" lon="4.85055">
        <ele>102.7</ele>
      </trkpt>
      <trkpt lat="44.87451" lon="4.8504">
        <ele>102.2</ele>
      </trkpt>
      <trkpt lat="44.87401" lon="4.85025">
        <ele>102.3</ele>
      </trkpt>
      <trkpt lat="44.87363" lon="4.85015">
        <ele>103.1</ele>
      </trkpt>
      <trkpt lat="44.87354" lon="4.85011">
        <ele>103.3</ele>
      </trkpt>
      <trkpt lat="44.87336" lon="4.85001">
        <ele>103.9</ele>
      </trkpt>
      <trkpt lat="44.87323" lon="4.8499">
        <ele>104.1</ele>
      </trkpt>
      <trkpt lat="44.87301" lon="4.84969">
        <ele>104.4</ele>
      </trkpt>
      <trkpt lat="44.87281" lon="4.84961">
        <ele>104.6</ele>
      </trkpt>
      <trkpt lat="44.87256" lon="4.84956">
        <ele>104.9</ele>
      </trkpt>
      <trkpt lat="44.87219" lon="4.84946">
        <ele>104.8</ele>
      </trkpt>
      <trkpt lat="44.87161" lon="4.84926">
        <ele>104.2</ele>
      </trkpt>
      <trkpt lat="44.87147" lon="4.84922">
        <ele>104.3</ele>
      </trkpt>
      <trkpt lat="44.87095" lon="4.84912">
        <ele>104.8</ele>
      </trkpt>
      <trkpt lat="44.87042" lon="4.84903">
        <ele>104.7</ele>
      </trkpt>
      <trkpt lat="44.86992" lon="4.84892">
        <ele>104.9</ele>
      </trkpt>
      <trkpt lat="44.86943" lon="4.8488">
        <ele>105.9</ele>
      </trkpt>
      <trkpt lat="44.8693" lon="4.84874">
        <ele>106.2</ele>
      </trkpt>
      <trkpt lat="44.86915" lon="4.84863">
        <ele>106.3</ele>
      </trkpt>
      <trkpt lat="44.8691" lon="4.84862">
        <ele>106.3</ele>
      </trkpt>
      <trkpt lat="44.86889" lon="4.84862">
        <ele>106.2</ele>
      </trkpt>
      <trkpt lat="44.86884" lon="4.8486">
        <ele>106.2</ele>
      </trkpt>
      <trkpt lat="44.86928" lon="4.84765">
        <ele>104.4</ele>
      </trkpt>
      <trkpt lat="44.86973" lon="4.8467">
        <ele>104.7</ele>
      </trkpt>
      <trkpt lat="44.87018" lon="4.84575">
        <ele>105.8</ele>
      </trkpt>
      <trkpt lat="44.87051" lon="4.84516">
        <ele>105.9</ele>
      </trkpt>
      <trkpt lat="44.87084" lon="4.84456">
        <ele>106.5</ele>
      </trkpt>
      <trkpt lat="44.87077" lon="4.8445">
        <ele>106.6</ele>
      </trkpt>
      <trkpt lat="44.87054" lon="4.84427">
        <ele>106.9</ele>
      </trkpt>
      <trkpt lat="44.8701" lon="4.84391">
        <ele>106.7</ele>
      </trkpt>
      <trkpt lat="44.86965" lon="4.84354">
        <ele>105.4</ele>
      </trkpt>
      <trkpt lat="44.86896" lon="4.843">
        <ele>104.7</ele>
      </trkpt>
      <trkpt lat="44.86827" lon="4.84246">
        <ele>106.9</ele>
      </trkpt>
      <trkpt lat="44.86758" lon="4.84192">
        <ele>106.1</ele>
      </trkpt>
      <trkpt lat="44.86711" lon="4.84154">
        <ele>105.0</ele>
      </trkpt>
      <trkpt lat="44.86664" lon="4.84117">
        <ele>104.1</ele>
      </trkpt>
      <trkpt lat="44.86601" lon="4.84071">
        <ele>105.7</ele>
      </trkpt>
      <trkpt lat="44.86588" lon="4.84065">
        <ele>105.9</ele>
      </trkpt>
      <trkpt lat="44.86582" lon="4.84064">
        <ele>106.0</ele>
      </trkpt>
      <trkpt lat="44.86579" lon="4.84062">
        <ele>106.0</ele>
      </trkpt>
      <trkpt lat="44.86574" lon="4.84055">
        <ele>105.9</ele>
      </trkpt>
      <trkpt lat="44.86529" lon="4.84019">
        <ele>105.9</ele>
      </trkpt>
      <trkpt lat="44.86483" lon="4.83983">
        <ele>106.2</ele>
      </trkpt>
      <trkpt lat="44.86424" lon="4.83934">
        <ele>106.9</ele>
      </trkpt>
      <trkpt lat="44.86366" lon="4.83886">
        <ele>107.6</ele>
      </trkpt>
      <trkpt lat="44.86354" lon="4.83872">
        <ele>107.9</ele>
      </trkpt>
      <trkpt lat="44.86336" lon="4.83858">
        <ele>108.4</ele>
      </trkpt>
      <trkpt lat="44.86316" lon="4.83848">
        <ele>108.1</ele>
      </trkpt>
      <trkpt lat="44.86263" lon="4.83806">
        <ele>107.0</ele>
      </trkpt>
      <trkpt lat="44.86213" lon="4.83764">
        <ele>108.2</ele>
      </trkpt>
      <trkpt lat="44.86186" lon="4.83739">
        <ele>108.8</ele>
      </trkpt>
      <trkpt lat="44.86181" lon="4.83746">
        <ele>108.8</ele>
      </trkpt>
      <trkpt lat="44.86169" lon="4.83757">
        <ele>108.9</ele>
      </trkpt>
      <trkpt lat="44.86156" lon="4.83775">
        <ele>108.7</ele>
      </trkpt>
      <trkpt lat="44.86084" lon="4.83709">
        <ele>109.0</ele>
      </trkpt>
      <trkpt lat="44.86077" lon="4.837">
        <ele>109.2</ele>
      </trkpt>
      <trkpt lat="44.86073" lon="4.83693">
        <ele>109.4</ele>
      </trkpt>
      <trkpt lat="44.8607" lon="4.83685">
        <ele>109.6</ele>
      </trkpt>
      <trkpt lat="44.86048" lon="4.83668">
        <ele>110.0</ele>
      </trkpt>
      <trkpt lat="44.86016" lon="4.83645">
        <ele>110.3</ele>
      </trkpt>
      <trkpt lat="44.86012" lon="4.8364">
        <ele>110.4</ele>
      </trkpt>
      <trkpt lat="44.86003" lon="4.83624">
        <ele>110.5</ele>
      </trkpt>
      <trkpt lat="44.85968" lon="4.83592">
        <ele>109.8</ele>
      </trkpt>
      <trkpt lat="44.85958" lon="4.83578">
        <ele>109.4</ele>
      </trkpt>
      <trkpt lat="44.85944" lon="4.83548">
        <ele>108.6</ele>
      </trkpt>
      <trkpt lat="44.85928" lon="4.83558">
        <ele>108.1</ele>
      </trkpt>
      <trkpt lat="44.85878" lon="4.83594">
        <ele>107.1</ele>
      </trkpt>
      <trkpt lat="44.85836" lon="4.83622">
        <ele>106.5</ele>
      </trkpt>
      <trkpt lat="44.85793" lon="4.8365">
        <ele>106.3</ele>
      </trkpt>
      <trkpt lat="44.85732" lon="4.83697">
        <ele>106.0</ele>
      </trkpt>
      <trkpt lat="44.85676" lon="4.83738">
        <ele>105.9</ele>
      </trkpt>
      <trkpt lat="44.8562" lon="4.8378">
        <ele>105.8</ele>
      </trkpt>
      <trkpt lat="44.85597" lon="4.83787">
        <ele>105.6</ele>
      </trkpt>
      <trkpt lat="44.85547" lon="4.83793">
        <ele>105.1</ele>
      </trkpt>
      <trkpt lat="44.85543" lon="4.83794">
        <ele>105.1</ele>
      </trkpt>
      <trkpt lat="44.8554" lon="4.83797">
        <ele>105.0</ele>
      </trkpt>
      <trkpt lat="44.85534" lon="4.83802">
        <ele>105.1</ele>
      </trkpt>
      <trkpt lat="44.85527" lon="4.838">
        <ele>105.0</ele>
      </trkpt>
      <trkpt lat="44.8552" lon="4.838">
        <ele>104.9</ele>
      </trkpt>
      <trkpt lat="44.85509" lon="4.83803">
        <ele>105.0</ele>
      </trkpt>
      <trkpt lat="44.85503" lon="4.83807">
        <ele>105.1</ele>
      </trkpt>
      <trkpt lat="44.85497" lon="4.83815">
        <ele>105.4</ele>
      </trkpt>
      <trkpt lat="44.85493" lon="4.83823">
        <ele>105.8</ele>
      </trkpt>
      <trkpt lat="44.85488" lon="4.83828">
        <ele>106.1</ele>
      </trkpt>
      <trkpt lat="44.85476" lon="4.83826">
        <ele>106.3</ele>
      </trkpt>
      <trkpt lat="44.8547" lon="4.83823">
        <ele>106.4</ele>
      </trkpt>
      <trkpt lat="44.85467" lon="4.83818">
        <ele>106.2</ele>
      </trkpt>
      <trkpt lat="44.8547" lon="4.83794">
        <ele>105.3</ele>
      </trkpt>
      <trkpt lat="44.85479" lon="4.83731">
        <ele>102.8</ele>
      </trkpt>
      <trkpt lat="44.85483" lon="4.83684">
        <ele>100.9</ele>
      </trkpt>
      <trkpt lat="44.85484" lon="4.83651">
        <ele>100.6</ele>
      </trkpt>
      <trkpt lat="44.85479" lon="4.8365">
        <ele>100.7</ele>
      </trkpt>
      <trkpt lat="44.854" lon="4.83635">
        <ele>102.4</ele>
      </trkpt>
      <trkpt lat="44.85372" lon="4.8363">
        <ele>102.9</ele>
      </trkpt>
      <trkpt lat="44.85347" lon="4.83628">
        <ele>103.3</ele>
      </trkpt>
      <trkpt lat="44.85334" lon="4.83624">
        <ele>103.5</ele>
      </trkpt>
      <trkpt lat="44.85327" lon="4.8362">
        <ele>103.2</ele>
      </trkpt>
      <trkpt lat="44.85323" lon="4.83612">
        <ele>103.2</ele>
      </trkpt>
      <trkpt lat="44.85311" lon="4.83609">
        <ele>102.8</ele>
      </trkpt>
      <trkpt lat="44.85301" lon="4.83603">
        <ele>102.7</ele>
      </trkpt>
      <trkpt lat="44.85291" lon="4.83596">
        <ele>102.8</ele>
      </trkpt>
      <trkpt lat="44.85282" lon="4.83584">
        <ele>103.3</ele>
      </trkpt>
      <trkpt lat="44.85222" lon="4.83493">
        <ele>103.1</ele>
      </trkpt>
      <trkpt lat="44.8518" lon="4.83425">
        <ele>102.5</ele>
      </trkpt>
      <trkpt lat="44.85137" lon="4.83358">
        <ele>102.6</ele>
      </trkpt>
      <trkpt lat="44.85095" lon="4.8329">
        <ele>102.0</ele>
      </trkpt>
      <trkpt lat="44.85053" lon="4.8322">
        <ele>102.1</ele>
      </trkpt>
      <trkpt lat="44.8501" lon="4.83151">
        <ele>101.7</ele>
      </trkpt>
      <trkpt lat="44.84967" lon="4.83081">
        <ele>100.6</ele>
      </trkpt>
      <trkpt lat="44.84927" lon="4.8302">
        <ele>99.6</ele>
      </trkpt>
      <trkpt lat="44.84891" lon="4.82962">
        <ele>99.9</ele>
      </trkpt>
      <trkpt lat="44.84855" lon="4.82905">
        <ele>100.2</ele>
      </trkpt>
      <trkpt lat="44.84819" lon="4.82842">
        <ele>98.7</ele>
      </trkpt>
      <trkpt lat="44.84786" lon="4.82791">
        <ele>98.1</ele>
      </trkpt>
      <trkpt lat="44.84752" lon="4.82734">
        <ele>97.0</ele>
      </trkpt>
      <trkpt lat="44.84699" lon="4.82649">
        <ele>96.0</ele>
      </trkpt>
      <trkpt lat="44.84646" lon="4.82563">
        <ele>97.0</ele>
      </trkpt>
      <trkpt lat="44.84593" lon="4.82478">
        <ele>98.1</ele>
      </trkpt>
      <trkpt lat="44.84542" lon="4.82403">
        <ele>98.6</ele>
      </trkpt>
      <trkpt lat="44.84482" lon="4.8232">
        <ele>99.0</ele>
      </trkpt>
      <trkpt lat="44.84456" lon="4.82277">
        <ele>101.1</ele>
      </trkpt>
      <trkpt lat="44.84447" lon="4.8226">
        <ele>101.7</ele>
      </trkpt>
      <trkpt lat="44.84439" lon="4.82249">
        <ele>102.0</ele>
      </trkpt>
      <trkpt lat="44.84429" lon="4.82244">
        <ele>102.2</ele>
      </trkpt>
      <trkpt lat="44.84421" lon="4.82237">
        <ele>102.5</ele>
      </trkpt>
      <trkpt lat="44.84416" lon="4.82228">
        <ele>102.8</ele>
      </trkpt>
      <trkpt lat="44.84414" lon="4.82217">
        <ele>103.3</ele>
      </trkpt>
      <trkpt lat="44.84416" lon="4.82206">
        <ele>103.6</ele>
      </trkpt>
      <trkpt lat="44.8442" lon="4.82198">
        <ele>103.9</ele>
      </trkpt>
      <trkpt lat="44.84428" lon="4.82188">
        <ele>104.3</ele>
      </trkpt>
      <trkpt lat="44.84444" lon="4.82169">
        <ele>105.2</ele>
      </trkpt>
      <trkpt lat="44.84448" lon="4.82159">
        <ele>105.4</ele>
      </trkpt>
      <trkpt lat="44.8445" lon="4.8215">
        <ele>105.5</ele>
      </trkpt>
      <trkpt lat="44.8445" lon="4.82141">
        <ele>105.5</ele>
      </trkpt>
      <trkpt lat="44.84448" lon="4.82131">
        <ele>105.5</ele>
      </trkpt>
      <trkpt lat="44.84444" lon="4.82124">
        <ele>105.5</ele>
      </trkpt>
      <trkpt lat="44.84433" lon="4.82116">
        <ele>105.3</ele>
      </trkpt>
      <trkpt lat="44.8437" lon="4.82073">
        <ele>105.5</ele>
      </trkpt>
      <trkpt lat="44.84336" lon="4.82046">
        <ele>105.1</ele>
      </trkpt>
      <trkpt lat="44.84297" lon="4.82007">
        <ele>103.7</ele>
      </trkpt>
      <trkpt lat="44.84256" lon="4.81975">
        <ele>103.6</ele>
      </trkpt>
      <trkpt lat="44.84233" lon="4.81965">
        <ele>104.0</ele>
      </trkpt>
      <trkpt lat="44.84227" lon="4.81961">
        <ele>104.1</ele>
      </trkpt>
      <trkpt lat="44.84198" lon="4.8194">
        <ele>104.6</ele>
      </trkpt>
      <trkpt lat="44.84134" lon="4.81896">
        <ele>106.3</ele>
      </trkpt>
      <trkpt lat="44.84089" lon="4.81861">
        <ele>107.6</ele>
      </trkpt>
      <trkpt lat="44.84074" lon="4.81851">
        <ele>106.3</ele>
      </trkpt>
      <trkpt lat="44.84029" lon="4.8183">
        <ele>99.8</ele>
      </trkpt>
      <trkpt lat="44.84006" lon="4.81818">
        <ele>98.1</ele>
      </trkpt>
      <trkpt lat="44.83989" lon="4.81803">
        <ele>99.7</ele>
      </trkpt>
      <trkpt lat="44.8393" lon="4.81759">
        <ele>106.5</ele>
      </trkpt>
      <trkpt lat="44.83899" lon="4.81738">
        <ele>105.8</ele>
      </trkpt>
      <trkpt lat="44.83858" lon="4.81713">
        <ele>103.1</ele>
      </trkpt>
      <trkpt lat="44.83816" lon="4.8169">
        <ele>102.4</ele>
      </trkpt>
      <trkpt lat="44.83773" lon="4.81667">
        <ele>98.6</ele>
      </trkpt>
      <trkpt lat="44.83737" lon="4.8165">
        <ele>97.5</ele>
      </trkpt>
      <trkpt lat="44.83674" lon="4.81626">
        <ele>100.9</ele>
      </trkpt>
      <trkpt lat="44.83612" lon="4.81602">
        <ele>98.2</ele>
      </trkpt>
      <trkpt lat="44.8359" lon="4.81593">
        <ele>95.9</ele>
      </trkpt>
      <trkpt lat="44.83548" lon="4.81574">
        <ele>95.8</ele>
      </trkpt>
      <trkpt lat="44.83491" lon="4.8155">
        <ele>97.4</ele>
      </trkpt>
      <trkpt lat="44.83441" lon="4.81527">
        <ele>99.1</ele>
      </trkpt>
      <trkpt lat="44.83409" lon="4.81511">
        <ele>100.2</ele>
      </trkpt>
      <trkpt lat="44.83371" lon="4.81486">
        <ele>101.0</ele>
      </trkpt>
      <trkpt lat="44.8333" lon="4.81457">
        <ele>101.2</ele>
      </trkpt>
      <trkpt lat="44.83283" lon="4.8142">
        <ele>97.8</ele>
      </trkpt>
      <trkpt lat="44.83231" lon="4.81376">
        <ele>95.8</ele>
      </trkpt>
      <trkpt lat="44.83173" lon="4.81318">
        <ele>96.1</ele>
      </trkpt>
      <trkpt lat="44.83134" lon="4.81279">
        <ele>97.4</ele>
      </trkpt>
      <trkpt lat="44.83096" lon="4.8124">
        <ele>96.3</ele>
      </trkpt>
      <trkpt lat="44.83055" lon="4.812">
        <ele>96.6</ele>
      </trkpt>
      <trkpt lat="44.83027" lon="4.81174">
        <ele>96.2</ele>
      </trkpt>
      <trkpt lat="44.82997" lon="4.81151">
        <ele>95.8</ele>
      </trkpt>
      <trkpt lat="44.82959" lon="4.81123">
        <ele>97.9</ele>
      </trkpt>
      <trkpt lat="44.82917" lon="4.81096">
        <ele>100.9</ele>
      </trkpt>
      <trkpt lat="44.82861" lon="4.81069">
        <ele>101.3</ele>
      </trkpt>
      <trkpt lat="44.82807" lon="4.81046">
        <ele>101.0</ele>
      </trkpt>
      <trkpt lat="44.8276" lon="4.81024">
        <ele>101.2</ele>
      </trkpt>
      <trkpt lat="44.82694" lon="4.80995">
        <ele>100.5</ele>
      </trkpt>
      <trkpt lat="44.82664" lon="4.80982">
        <ele>100.0</ele>
      </trkpt>
      <trkpt lat="44.82652" lon="4.80978">
        <ele>99.3</ele>
      </trkpt>
      <trkpt lat="44.8264" lon="4.80979">
        <ele>98.8</ele>
      </trkpt>
      <trkpt lat="44.82626" lon="4.80982">
        <ele>98.2</ele>
      </trkpt>
      <trkpt lat="44.82615" lon="4.80989">
        <ele>97.8</ele>
      </trkpt>
      <trkpt lat="44.82596" lon="4.81009">
        <ele>97.3</ele>
      </trkpt>
      <trkpt lat="44.8258" lon="4.81025">
        <ele>97.7</ele>
      </trkpt>
      <trkpt lat="44.82504" lon="4.81">
        <ele>96.9</ele>
      </trkpt>
      <trkpt lat="44.82489" lon="4.80978">
        <ele>97.8</ele>
      </trkpt>
      <trkpt lat="44.8246" lon="4.80942">
        <ele>98.3</ele>
      </trkpt>
      <trkpt lat="44.82427" lon="4.80911">
        <ele>97.2</ele>
      </trkpt>
      <trkpt lat="44.82415" lon="4.80885">
        <ele>96.6</ele>
      </trkpt>
      <trkpt lat="44.8241" lon="4.80889">
        <ele>96.5</ele>
      </trkpt>
      <trkpt lat="44.82402" lon="4.80891">
        <ele>96.2</ele>
      </trkpt>
      <trkpt lat="44.82394" lon="4.80888">
        <ele>96.0</ele>
      </trkpt>
      <trkpt lat="44.82405" lon="4.80834">
        <ele>96.0</ele>
      </trkpt>
      <trkpt lat="44.82408" lon="4.80817">
        <ele>96.0</ele>
      </trkpt>
      <trkpt lat="44.82426" lon="4.80729">
        <ele>95.9</ele>
      </trkpt>
      <trkpt lat="44.8243" lon="4.80703">
        <ele>95.7</ele>
      </trkpt>
      <trkpt lat="44.82438" lon="4.80661">
        <ele>95.5</ele>
      </trkpt>
      <trkpt lat="44.82445" lon="4.80624">
        <ele>95.8</ele>
      </trkpt>
      <trkpt lat="44.82455" lon="4.80595">
        <ele>96.3</ele>
      </trkpt>
      <trkpt lat="44.82464" lon="4.80578">
        <ele>96.8</ele>
      </trkpt>
      <trkpt lat="44.82472" lon="4.80568">
        <ele>97.2</ele>
      </trkpt>
      <trkpt lat="44.82494" lon="4.80544">
        <ele>98.3</ele>
      </trkpt>
      <trkpt lat="44.82504" lon="4.8053">
        <ele>98.5</ele>
      </trkpt>
      <trkpt lat="44.82511" lon="4.80519">
        <ele>98.5</ele>
      </trkpt>
      <trkpt lat="44.82514" lon="4.80512">
        <ele>98.5</ele>
      </trkpt>
      <trkpt lat="44.82545" lon="4.80399">
        <ele>97.7</ele>
      </trkpt>
      <trkpt lat="44.82569" lon="4.80318">
        <ele>98.5</ele>
      </trkpt>
      <trkpt lat="44.82581" lon="4.80302">
        <ele>98.6</ele>
      </trkpt>
      <trkpt lat="44.82599" lon="4.80282">
        <ele>100.3</ele>
      </trkpt>
      <trkpt lat="44.82615" lon="4.80281">
        <ele>102.5</ele>
      </trkpt>
      <trkpt lat="44.82624" lon="4.80279">
        <ele>103.7</ele>
      </trkpt>
      <trkpt lat="44.82628" lon="4.80276">
        <ele>104.3</ele>
      </trkpt>
      <trkpt lat="44.82595" lon="4.80213">
        <ele>100.0</ele>
      </trkpt>
      <trkpt lat="44.82568" lon="4.80159">
        <ele>98.0</ele>
      </trkpt>
      <trkpt lat="44.82542" lon="4.80105">
        <ele>98.6</ele>
      </trkpt>
      <trkpt lat="44.82514" lon="4.80054">
        <ele>97.7</ele>
      </trkpt>
      <trkpt lat="44.82509" lon="4.80037">
        <ele>97.2</ele>
      </trkpt>
      <trkpt lat="44.82505" lon="4.8002">
        <ele>96.6</ele>
      </trkpt>
      <trkpt lat="44.82504" lon="4.80003">
        <ele>96.2</ele>
      </trkpt>
      <trkpt lat="44.82493" lon="4.80003">
        <ele>96.1</ele>
      </trkpt>
      <trkpt lat="44.82489" lon="4.80001">
        <ele>96.0</ele>
      </trkpt>
      <trkpt lat="44.82483" lon="4.79989">
        <ele>95.8</ele>
      </trkpt>
      <trkpt lat="44.82436" lon="4.79898">
        <ele>93.9</ele>
      </trkpt>
      <trkpt lat="44.8239" lon="4.79807">
        <ele>97.0</ele>
      </trkpt>
      <trkpt lat="44.82381" lon="4.79792">
        <ele>96.8</ele>
      </trkpt>
      <trkpt lat="44.82379" lon="4.79801">
        <ele>96.8</ele>
      </trkpt>
      <trkpt lat="44.82375" lon="4.79806">
        <ele>96.8</ele>
      </trkpt>
      <trkpt lat="44.82372" lon="4.79813">
        <ele>96.8</ele>
      </trkpt>
      <trkpt lat="44.82372" lon="4.79823">
        <ele>96.9</ele>
      </trkpt>
      <trkpt lat="44.82368" lon="4.79838">
        <ele>96.7</ele>
      </trkpt>
      <trkpt lat="44.82363" lon="4.79851">
        <ele>96.4</ele>
      </trkpt>
      <trkpt lat="44.82347" lon="4.79886">
        <ele>96.2</ele>
      </trkpt>
      <trkpt lat="44.82323" lon="4.79922">
        <ele>97.1</ele>
      </trkpt>
      <trkpt lat="44.823" lon="4.79943">
        <ele>97.3</ele>
      </trkpt>
      <trkpt lat="44.82288" lon="4.79957">
        <ele>97.5</ele>
      </trkpt>
      <trkpt lat="44.82263" lon="4.79964">
        <ele>97.6</ele>
      </trkpt>
      <trkpt lat="44.82232" lon="4.79983">
        <ele>97.2</ele>
      </trkpt>
      <trkpt lat="44.82214" lon="4.79997">
        <ele>96.7</ele>
      </trkpt>
      <trkpt lat="44.82207" lon="4.80007">
        <ele>96.4</ele>
      </trkpt>
      <trkpt lat="44.82201" lon="4.80023">
        <ele>96.0</ele>
      </trkpt>
      <trkpt lat="44.82193" lon="4.80041">
        <ele>95.4</ele>
      </trkpt>
      <trkpt lat="44.82187" lon="4.8005">
        <ele>95.1</ele>
      </trkpt>
      <trkpt lat="44.82164" lon="4.80066">
        <ele>94.2</ele>
      </trkpt>
      <trkpt lat="44.82138" lon="4.80083">
        <ele>94.0</ele>
      </trkpt>
      <trkpt lat="44.82109" lon="4.80095">
        <ele>93.9</ele>
      </trkpt>
      <trkpt lat="44.8208" lon="4.80101">
        <ele>93.6</ele>
      </trkpt>
      <trkpt lat="44.82022" lon="4.80109">
        <ele>94.6</ele>
      </trkpt>
      <trkpt lat="44.81986" lon="4.80113">
        <ele>95.1</ele>
      </trkpt>
      <trkpt lat="44.81943" lon="4.80117">
        <ele>95.3</ele>
      </trkpt>
      <trkpt lat="44.81867" lon="4.8013">
        <ele>94.1</ele>
      </trkpt>
      <trkpt lat="44.81818" lon="4.80137">
        <ele>93.5</ele>
      </trkpt>
      <trkpt lat="44.81741" lon="4.80146">
        <ele>94.5</ele>
      </trkpt>
      <trkpt lat="44.81702" lon="4.8015">
        <ele>94.3</ele>
      </trkpt>
      <trkpt lat="44.81676" lon="4.80148">
        <ele>94.1</ele>
      </trkpt>
      <trkpt lat="44.81609" lon="4.80146">
        <ele>94.2</ele>
      </trkpt>
      <trkpt lat="44.8155" lon="4.8014">
        <ele>95.5</ele>
      </trkpt>
      <trkpt lat="44.81497" lon="4.80129">
        <ele>97.5</ele>
      </trkpt>
      <trkpt lat="44.81414" lon="4.80117">
        <ele>98.0</ele>
      </trkpt>
      <trkpt lat="44.81361" lon="4.80113">
        <ele>95.1</ele>
      </trkpt>
      <trkpt lat="44.81311" lon="4.80093">
        <ele>93.8</ele>
      </trkpt>
      <trkpt lat="44.81291" lon="4.80096">
        <ele>93.1</ele>
      </trkpt>
      <trkpt lat="44.81255" lon="4.80099">
        <ele>92.0</ele>
      </trkpt>
      <trkpt lat="44.81223" lon="4.80098">
        <ele>93.4</ele>
      </trkpt>
      <trkpt lat="44.81166" lon="4.80088">
        <ele>96.9</ele>
      </trkpt>
      <trkpt lat="44.81109" lon="4.80079">
        <ele>96.9</ele>
      </trkpt>
      <trkpt lat="44.81054" lon="4.80064">
        <ele>96.4</ele>
      </trkpt>
      <trkpt lat="44.81015" lon="4.80056">
        <ele>96.3</ele>
      </trkpt>
      <trkpt lat="44.8098" lon="4.8004">
        <ele>95.7</ele>
      </trkpt>
      <trkpt lat="44.80931" lon="4.80009">
        <ele>95.0</ele>
      </trkpt>
      <trkpt lat="44.80878" lon="4.79975">
        <ele>94.5</ele>
      </trkpt>
      <trkpt lat="44.80849" lon="4.79945">
        <ele>95.4</ele>
      </trkpt>
      <trkpt lat="44.80786" lon="4.79892">
        <ele>96.0</ele>
      </trkpt>
      <trkpt lat="44.80771" lon="4.79886">
        <ele>96.0</ele>
      </trkpt>
      <trkpt lat="44.80752" lon="4.7987">
        <ele>96.9</ele>
      </trkpt>
      <trkpt lat="44.80745" lon="4.79861">
        <ele>97.5</ele>
      </trkpt>
      <trkpt lat="44.80737" lon="4.79843">
        <ele>98.8</ele>
      </trkpt>
      <trkpt lat="44.80727" lon="4.79832">
        <ele>99.1</ele>
      </trkpt>
      <trkpt lat="44.80706" lon="4.79813">
        <ele>98.1</ele>
      </trkpt>
      <trkpt lat="44.80685" lon="4.79786">
        <ele>97.3</ele>
      </trkpt>
      <trkpt lat="44.80644" lon="4.79745">
        <ele>95.8</ele>
      </trkpt>
      <trkpt lat="44.80602" lon="4.79705">
        <ele>93.7</ele>
      </trkpt>
      <trkpt lat="44.8059" lon="4.79687">
        <ele>93.2</ele>
      </trkpt>
      <trkpt lat="44.80574" lon="4.79652">
        <ele>93.1</ele>
      </trkpt>
      <trkpt lat="44.80551" lon="4.79573">
        <ele>93.4</ele>
      </trkpt>
      <trkpt lat="44.8054" lon="4.79493">
        <ele>93.9</ele>
      </trkpt>
      <trkpt lat="44.80534" lon="4.79475">
        <ele>93.6</ele>
      </trkpt>
      <trkpt lat="44.80526" lon="4.79442">
        <ele>93.6</ele>
      </trkpt>
      <trkpt lat="44.80526" lon="4.79422">
        <ele>93.7</ele>
      </trkpt>
      <trkpt lat="44.80524" lon="4.79417">
        <ele>93.7</ele>
      </trkpt>
      <trkpt lat="44.80512" lon="4.79406">
        <ele>93.9</ele>
      </trkpt>
      <trkpt lat="44.80506" lon="4.79382">
        <ele>94.0</ele>
      </trkpt>
      <trkpt lat="44.80492" lon="4.79345">
        <ele>93.8</ele>
      </trkpt>
      <trkpt lat="44.80463" lon="4.79308">
        <ele>92.8</ele>
      </trkpt>
      <trkpt lat="44.80457" lon="4.79284">
        <ele>92.4</ele>
      </trkpt>
      <trkpt lat="44.80456" lon="4.79255">
        <ele>92.1</ele>
      </trkpt>
      <trkpt lat="44.80452" lon="4.79248">
        <ele>92.0</ele>
      </trkpt>
      <trkpt lat="44.80443" lon="4.79241">
        <ele>91.8</ele>
      </trkpt>
      <trkpt lat="44.80435" lon="4.79229">
        <ele>91.6</ele>
      </trkpt>
      <trkpt lat="44.80423" lon="4.79205">
        <ele>91.0</ele>
      </trkpt>
      <trkpt lat="44.80404" lon="4.79159">
        <ele>90.7</ele>
      </trkpt>
      <trkpt lat="44.80397" lon="4.79133">
        <ele>92.0</ele>
      </trkpt>
      <trkpt lat="44.80397" lon="4.79119">
        <ele>92.6</ele>
      </trkpt>
      <trkpt lat="44.80399" lon="4.79107">
        <ele>93.2</ele>
      </trkpt>
      <trkpt lat="44.804" lon="4.79099">
        <ele>93.7</ele>
      </trkpt>
      <trkpt lat="44.80398" lon="4.79092">
        <ele>93.9</ele>
      </trkpt>
      <trkpt lat="44.8039" lon="4.79076">
        <ele>94.0</ele>
      </trkpt>
      <trkpt lat="44.80373" lon="4.79029">
        <ele>93.4</ele>
      </trkpt>
      <trkpt lat="44.80362" lon="4.78996">
        <ele>93.3</ele>
      </trkpt>
      <trkpt lat="44.80348" lon="4.78965">
        <ele>94.8</ele>
      </trkpt>
      <trkpt lat="44.80332" lon="4.78919">
        <ele>97.8</ele>
      </trkpt>
      <trkpt lat="44.80307" lon="4.78837">
        <ele>94.2</ele>
      </trkpt>
      <trkpt lat="44.80299" lon="4.78801">
        <ele>94.9</ele>
      </trkpt>
      <trkpt lat="44.80296" lon="4.78779">
        <ele>95.8</ele>
      </trkpt>
      <trkpt lat="44.80281" lon="4.78735">
        <ele>97.0</ele>
      </trkpt>
      <trkpt lat="44.80258" lon="4.78676">
        <ele>96.2</ele>
      </trkpt>
      <trkpt lat="44.80236" lon="4.78617">
        <ele>94.3</ele>
      </trkpt>
      <trkpt lat="44.80228" lon="4.78593">
        <ele>93.6</ele>
      </trkpt>
      <trkpt lat="44.80213" lon="4.78554">
        <ele>93.6</ele>
      </trkpt>
      <trkpt lat="44.80182" lon="4.78478">
        <ele>94.8</ele>
      </trkpt>
      <trkpt lat="44.80166" lon="4.78452">
        <ele>95.0</ele>
      </trkpt>
      <trkpt lat="44.80164" lon="4.78447">
        <ele>94.9</ele>
      </trkpt>
      <trkpt lat="44.80156" lon="4.78433">
        <ele>94.6</ele>
      </trkpt>
      <trkpt lat="44.80135" lon="4.78402">
        <ele>93.8</ele>
      </trkpt>
      <trkpt lat="44.80093" lon="4.78351">
        <ele>92.4</ele>
      </trkpt>
      <trkpt lat="44.80055" lon="4.78298">
        <ele>92.9</ele>
      </trkpt>
      <trkpt lat="44.80049" lon="4.78286">
        <ele>93.0</ele>
      </trkpt>
      <trkpt lat="44.80054" lon="4.78275">
        <ele>93.4</ele>
      </trkpt>
      <trkpt lat="44.80011" lon="4.78211">
        <ele>93.3</ele>
      </trkpt>
      <trkpt lat="44.80006" lon="4.78189">
        <ele>93.6</ele>
      </trkpt>
      <trkpt lat="44.80008" lon="4.78188">
        <ele>93.7</ele>
      </trkpt>
      <trkpt lat="44.80014" lon="4.78182">
        <ele>94.0</ele>
      </trkpt>
      <trkpt lat="44.80016" lon="4.78197">
        <ele>93.7</ele>
      </trkpt>
      <trkpt lat="44.80024" lon="4.78217">
        <ele>93.5</ele>
      </trkpt>
      <trkpt lat="44.80063" lon="4.78268">
        <ele>93.8</ele>
      </trkpt>
      <trkpt lat="44.80103" lon="4.7832">
        <ele>93.1</ele>
      </trkpt>
      <trkpt lat="44.80122" lon="4.78326">
        <ele>93.6</ele>
      </trkpt>
      <trkpt lat="44.8011" lon="4.78338">
        <ele>93.0</ele>
      </trkpt>
      <trkpt lat="44.8004" lon="4.78413">
        <ele>92.0</ele>
      </trkpt>
      <trkpt lat="44.7997" lon="4.78487">
        <ele>92.0</ele>
      </trkpt>
      <trkpt lat="44.799" lon="4.78561">
        <ele>92.3</ele>
      </trkpt>
      <trkpt lat="44.7989" lon="4.78572">
        <ele>92.6</ele>
      </trkpt>
      <trkpt lat="44.79848" lon="4.78531">
        <ele>92.6</ele>
      </trkpt>
      <trkpt lat="44.79827" lon="4.78515">
        <ele>92.4</ele>
      </trkpt>
      <trkpt lat="44.79774" lon="4.78469">
        <ele>92.4</ele>
      </trkpt>
      <trkpt lat="44.7972" lon="4.78422">
        <ele>92.7</ele>
      </trkpt>
      <trkpt lat="44.79692" lon="4.78398">
        <ele>93.7</ele>
      </trkpt>
      <trkpt lat="44.7967" lon="4.78381">
        <ele>94.7</ele>
      </trkpt>
      <trkpt lat="44.79656" lon="4.78367">
        <ele>94.9</ele>
      </trkpt>
      <trkpt lat="44.79587" lon="4.78322">
        <ele>94.1</ele>
      </trkpt>
      <trkpt lat="44.79504" lon="4.78278">
        <ele>93.4</ele>
      </trkpt>
      <trkpt lat="44.79479" lon="4.78253">
        <ele>93.9</ele>
      </trkpt>
      <trkpt lat="44.79433" lon="4.78196">
        <ele>94.8</ele>
      </trkpt>
      <trkpt lat="44.79391" lon="4.78169">
        <ele>94.7</ele>
      </trkpt>
      <trkpt lat="44.79361" lon="4.78152">
        <ele>93.2</ele>
      </trkpt>
      <trkpt lat="44.79356" lon="4.78151">
        <ele>93.0</ele>
      </trkpt>
      <trkpt lat="44.79339" lon="4.78136">
        <ele>92.5</ele>
      </trkpt>
      <trkpt lat="44.79328" lon="4.78123">
        <ele>92.5</ele>
      </trkpt>
      <trkpt lat="44.79315" lon="4.78113">
        <ele>92.4</ele>
      </trkpt>
      <trkpt lat="44.79299" lon="4.78097">
        <ele>92.4</ele>
      </trkpt>
      <trkpt lat="44.79284" lon="4.78086">
        <ele>92.4</ele>
      </trkpt>
      <trkpt lat="44.79236" lon="4.78058">
        <ele>92.2</ele>
      </trkpt>
      <trkpt lat="44.79213" lon="4.78041">
        <ele>92.3</ele>
      </trkpt>
      <trkpt lat="44.79154" lon="4.7799">
        <ele>92.5</ele>
      </trkpt>
      <trkpt lat="44.7908" lon="4.77931">
        <ele>91.8</ele>
      </trkpt>
      <trkpt lat="44.79039" lon="4.77895">
        <ele>92.0</ele>
      </trkpt>
      <trkpt lat="44.79004" lon="4.77864">
        <ele>92.0</ele>
      </trkpt>
      <trkpt lat="44.7896" lon="4.77822">
        <ele>91.0</ele>
      </trkpt>
      <trkpt lat="44.78899" lon="4.77768">
        <ele>90.6</ele>
      </trkpt>
      <trkpt lat="44.78857" lon="4.77732">
        <ele>90.4</ele>
      </trkpt>
      <trkpt lat="44.78814" lon="4.77696">
        <ele>91.0</ele>
      </trkpt>
      <trkpt lat="44.78773" lon="4.77665">
        <ele>92.4</ele>
      </trkpt>
      <trkpt lat="44.78703" lon="4.77621">
        <ele>91.7</ele>
      </trkpt>
      <trkpt lat="44.78629" lon="4.7757">
        <ele>91.6</ele>
      </trkpt>
      <trkpt lat="44.78589" lon="4.77545">
        <ele>91.9</ele>
      </trkpt>
      <trkpt lat="44.78564" lon="4.77533">
        <ele>91.9</ele>
      </trkpt>
      <trkpt lat="44.78484" lon="4.77508">
        <ele>91.7</ele>
      </trkpt>
      <trkpt lat="44.78441" lon="4.77492">
        <ele>91.9</ele>
      </trkpt>
      <trkpt lat="44.78398" lon="4.77478">
        <ele>91.8</ele>
      </trkpt>
      <trkpt lat="44.78363" lon="4.77466">
        <ele>91.7</ele>
      </trkpt>
      <trkpt lat="44.7831" lon="4.77447">
        <ele>91.4</ele>
      </trkpt>
      <trkpt lat="44.78258" lon="4.77428">
        <ele>91.5</ele>
      </trkpt>
      <trkpt lat="44.78219" lon="4.77412">
        <ele>91.2</ele>
      </trkpt>
      <trkpt lat="44.78209" lon="4.77398">
        <ele>90.7</ele>
      </trkpt>
      <trkpt lat="44.78198" lon="4.77389">
        <ele>90.5</ele>
      </trkpt>
      <trkpt lat="44.78191" lon="4.77385">
        <ele>90.5</ele>
      </trkpt>
      <trkpt lat="44.78175" lon="4.77369">
        <ele>90.1</ele>
      </trkpt>
      <trkpt lat="44.78167" lon="4.77365">
        <ele>90.1</ele>
      </trkpt>
      <trkpt lat="44.7816" lon="4.77367">
        <ele>90.3</ele>
      </trkpt>
      <trkpt lat="44.78155" lon="4.77373">
        <ele>90.5</ele>
      </trkpt>
      <trkpt lat="44.78152" lon="4.7738">
        <ele>90.8</ele>
      </trkpt>
      <trkpt lat="44.78152" lon="4.77391">
        <ele>91.1</ele>
      </trkpt>
      <trkpt lat="44.78159" lon="4.77416">
        <ele>92.0</ele>
      </trkpt>
      <trkpt lat="44.78158" lon="4.77422">
        <ele>92.1</ele>
      </trkpt>
      <trkpt lat="44.78154" lon="4.77426">
        <ele>92.2</ele>
      </trkpt>
      <trkpt lat="44.78151" lon="4.77425">
        <ele>92.1</ele>
      </trkpt>
      <trkpt lat="44.78147" lon="4.77422">
        <ele>92.1</ele>
      </trkpt>
      <trkpt lat="44.7814" lon="4.77413">
        <ele>91.9</ele>
      </trkpt>
      <trkpt lat="44.78132" lon="4.77412">
        <ele>91.9</ele>
      </trkpt>
      <trkpt lat="44.78128" lon="4.77415">
        <ele>91.9</ele>
      </trkpt>
      <trkpt lat="44.78107" lon="4.77433">
        <ele>92.0</ele>
      </trkpt>
      <trkpt lat="44.78094" lon="4.77436">
        <ele>91.9</ele>
      </trkpt>
      <trkpt lat="44.78093" lon="4.77428">
        <ele>91.9</ele>
      </trkpt>
      <trkpt lat="44.78078" lon="4.77383">
        <ele>91.2</ele>
      </trkpt>
      <trkpt lat="44.78047" lon="4.77319">
        <ele>90.4</ele>
      </trkpt>
      <trkpt lat="44.78016" lon="4.77255">
        <ele>91.4</ele>
      </trkpt>
      <trkpt lat="44.78002" lon="4.77223">
        <ele>91.9</ele>
      </trkpt>
      <trkpt lat="44.77991" lon="4.77195">
        <ele>91.9</ele>
      </trkpt>
      <trkpt lat="44.77965" lon="4.77138">
        <ele>91.2</ele>
      </trkpt>
      <trkpt lat="44.77925" lon="4.77067">
        <ele>89.6</ele>
      </trkpt>
      <trkpt lat="44.77884" lon="4.77009">
        <ele>88.0</ele>
      </trkpt>
      <trkpt lat="44.7785" lon="4.76972">
        <ele>89.0</ele>
      </trkpt>
      <trkpt lat="44.77795" lon="4.76917">
        <ele>90.0</ele>
      </trkpt>
      <trkpt lat="44.7774" lon="4.76862">
        <ele>91.2</ele>
      </trkpt>
      <trkpt lat="44.77684" lon="4.76807">
        <ele>90.4</ele>
      </trkpt>
      <trkpt lat="44.77622" lon="4.76747">
        <ele>92.7</ele>
      </trkpt>
      <trkpt lat="44.77612" lon="4.76745">
        <ele>93.3</ele>
      </trkpt>
      <trkpt lat="44.77588" lon="4.76749">
        <ele>94.7</ele>
      </trkpt>
      <trkpt lat="44.77552" lon="4.76765">
        <ele>94.9</ele>
      </trkpt>
      <trkpt lat="44.7751" lon="4.76781">
        <ele>95.2</ele>
      </trkpt>
      <trkpt lat="44.77489" lon="4.76784">
        <ele>95.4</ele>
      </trkpt>
      <trkpt lat="44.7745" lon="4.76786">
        <ele>95.5</ele>
      </trkpt>
      <trkpt lat="44.77408" lon="4.76777">
        <ele>95.9</ele>
      </trkpt>
      <trkpt lat="44.77378" lon="4.76772">
        <ele>95.4</ele>
      </trkpt>
      <trkpt lat="44.77359" lon="4.76767">
        <ele>95.0</ele>
      </trkpt>
      <trkpt lat="44.77327" lon="4.76767">
        <ele>94.1</ele>
      </trkpt>
      <trkpt lat="44.77271" lon="4.76763">
        <ele>91.9</ele>
      </trkpt>
      <trkpt lat="44.77257" lon="4.76829">
        <ele>92.3</ele>
      </trkpt>
      <trkpt lat="44.7725" lon="4.76904">
        <ele>93.7</ele>
      </trkpt>
      <trkpt lat="44.77164" lon="4.76898">
        <ele>90.7</ele>
      </trkpt>
      <trkpt lat="44.77079" lon="4.76892">
        <ele>89.4</ele>
      </trkpt>
      <trkpt lat="44.77076" lon="4.76892">
        <ele>89.4</ele>
      </trkpt>
      <trkpt lat="44.77079" lon="4.76856">
        <ele>89.8</ele>
      </trkpt>
      <trkpt lat="44.77079" lon="4.76757">
        <ele>88.3</ele>
      </trkpt>
      <trkpt lat="44.77075" lon="4.76652">
        <ele>90.2</ele>
      </trkpt>
      <trkpt lat="44.7707" lon="4.76652">
        <ele>90.2</ele>
      </trkpt>
      <trkpt lat="44.77065" lon="4.76707">
        <ele>89.5</ele>
      </trkpt>
      <trkpt lat="44.77062" lon="4.76709">
        <ele>89.5</ele>
      </trkpt>
      <trkpt lat="44.77059" lon="4.76702">
        <ele>89.7</ele>
      </trkpt>
      <trkpt lat="44.77055" lon="4.76632">
        <ele>90.3</ele>
      </trkpt>
      <trkpt lat="44.7705" lon="4.76594">
        <ele>90.2</ele>
      </trkpt>
      <trkpt lat="44.77038" lon="4.76512">
        <ele>89.1</ele>
      </trkpt>
      <trkpt lat="44.77032" lon="4.76472">
        <ele>88.6</ele>
      </trkpt>
      <trkpt lat="44.77023" lon="4.76435">
        <ele>87.9</ele>
      </trkpt>
      <trkpt lat="44.76998" lon="4.76335">
        <ele>89.0</ele>
      </trkpt>
      <trkpt lat="44.76979" lon="4.7627">
        <ele>89.8</ele>
      </trkpt>
      <trkpt lat="44.76965" lon="4.76228">
        <ele>90.2</ele>
      </trkpt>
      <trkpt lat="44.76948" lon="4.76188">
        <ele>90.1</ele>
      </trkpt>
      <trkpt lat="44.76933" lon="4.76154">
        <ele>89.5</ele>
      </trkpt>
      <trkpt lat="44.7691" lon="4.76113">
        <ele>89.0</ele>
      </trkpt>
      <trkpt lat="44.76891" lon="4.76082">
        <ele>89.0</ele>
      </trkpt>
      <trkpt lat="44.76857" lon="4.76043">
        <ele>89.5</ele>
      </trkpt>
      <trkpt lat="44.76835" lon="4.76021">
        <ele>89.7</ele>
      </trkpt>
      <trkpt lat="44.7682" lon="4.76008">
        <ele>89.8</ele>
      </trkpt>
      <trkpt lat="44.76804" lon="4.75996">
        <ele>89.7</ele>
      </trkpt>
      <trkpt lat="44.76772" lon="4.75975">
        <ele>89.5</ele>
      </trkpt>
      <trkpt lat="44.76689" lon="4.75937">
        <ele>90.1</ele>
      </trkpt>
      <trkpt lat="44.76606" lon="4.75899">
        <ele>90.6</ele>
      </trkpt>
      <trkpt lat="44.76523" lon="4.7586">
        <ele>89.8</ele>
      </trkpt>
      <trkpt lat="44.7644" lon="4.75822">
        <ele>89.4</ele>
      </trkpt>
      <trkpt lat="44.76357" lon="4.75784">
        <ele>88.2</ele>
      </trkpt>
      <trkpt lat="44.76274" lon="4.75745">
        <ele>89.7</ele>
      </trkpt>
      <trkpt lat="44.76209" lon="4.75715">
        <ele>90.4</ele>
      </trkpt>
      <trkpt lat="44.76144" lon="4.75685">
        <ele>91.1</ele>
      </trkpt>
      <trkpt lat="44.76079" lon="4.75656">
        <ele>90.3</ele>
      </trkpt>
      <trkpt lat="44.76046" lon="4.75639">
        <ele>89.2</ele>
      </trkpt>
      <trkpt lat="44.75966" lon="4.75603">
        <ele>90.1</ele>
      </trkpt>
      <trkpt lat="44.75922" lon="4.75586">
        <ele>90.9</ele>
      </trkpt>
      <trkpt lat="44.75878" lon="4.75572">
        <ele>89.6</ele>
      </trkpt>
      <trkpt lat="44.75842" lon="4.75563">
        <ele>88.7</ele>
      </trkpt>
      <trkpt lat="44.75811" lon="4.75557">
        <ele>88.9</ele>
      </trkpt>
      <trkpt lat="44.75745" lon="4.75548">
        <ele>90.0</ele>
      </trkpt>
      <trkpt lat="44.75735" lon="4.7555">
        <ele>90.2</ele>
      </trkpt>
      <trkpt lat="44.75703" lon="4.75548">
        <ele>90.5</ele>
      </trkpt>
      <trkpt lat="44.75701" lon="4.75549">
        <ele>90.6</ele>
      </trkpt>
      <trkpt lat="44.75697" lon="4.75552">
        <ele>90.9</ele>
      </trkpt>
      <trkpt lat="44.75695" lon="4.75559">
        <ele>91.5</ele>
      </trkpt>
      <trkpt lat="44.75685" lon="4.75627">
        <ele>93.0</ele>
      </trkpt>
      <trkpt lat="44.7568" lon="4.75656">
        <ele>92.8</ele>
      </trkpt>
      <trkpt lat="44.75677" lon="4.75661">
        <ele>92.8</ele>
      </trkpt>
      <trkpt lat="44.75674" lon="4.75664">
        <ele>92.8</ele>
      </trkpt>
      <trkpt lat="44.7566" lon="4.75671">
        <ele>92.6</ele>
      </trkpt>
      <trkpt lat="44.75647" lon="4.75679">
        <ele>91.8</ele>
      </trkpt>
      <trkpt lat="44.75643" lon="4.7568">
        <ele>91.6</ele>
      </trkpt>
      <trkpt lat="44.75637" lon="4.75675">
        <ele>91.4</ele>
      </trkpt>
      <trkpt lat="44.75634" lon="4.75669">
        <ele>91.4</ele>
      </trkpt>
      <trkpt lat="44.75634" lon="4.75662">
        <ele>91.5</ele>
      </trkpt>
      <trkpt lat="44.75636" lon="4.75628">
        <ele>92.0</ele>
      </trkpt>
      <trkpt lat="44.75623" lon="4.75627">
        <ele>91.4</ele>
      </trkpt>
      <trkpt lat="44.75627" lon="4.7555">
        <ele>89.9</ele>
      </trkpt>
      <trkpt lat="44.75627" lon="4.75541">
        <ele>89.2</ele>
      </trkpt>
      <trkpt lat="44.75625" lon="4.75534">
        <ele>88.8</ele>
      </trkpt>
      <trkpt lat="44.75622" lon="4.75528">
        <ele>88.3</ele>
      </trkpt>
      <trkpt lat="44.75617" lon="4.75526">
        <ele>88.0</ele>
      </trkpt>
      <trkpt lat="44.75607" lon="4.75525">
        <ele>87.7</ele>
      </trkpt>
      <trkpt lat="44.75605" lon="4.7552">
        <ele>87.4</ele>
      </trkpt>
      <trkpt lat="44.75604" lon="4.75512">
        <ele>86.9</ele>
      </trkpt>
      <trkpt lat="44.75605" lon="4.75507">
        <ele>86.7</ele>
      </trkpt>
      <trkpt lat="44.7561" lon="4.75491">
        <ele>86.4</ele>
      </trkpt>
      <trkpt lat="44.75617" lon="4.75477">
        <ele>86.6</ele>
      </trkpt>
      <trkpt lat="44.75622" lon="4.75471">
        <ele>86.7</ele>
      </trkpt>
      <trkpt lat="44.75627" lon="4.75466">
        <ele>86.7</ele>
      </trkpt>
      <trkpt lat="44.75627" lon="4.75462">
        <ele>86.7</ele>
      </trkpt>
      <trkpt lat="44.75618" lon="4.75367">
        <ele>87.0</ele>
      </trkpt>
      <trkpt lat="44.75609" lon="4.75273">
        <ele>87.0</ele>
      </trkpt>
      <trkpt lat="44.75599" lon="4.75179">
        <ele>87.0</ele>
      </trkpt>
      <trkpt lat="44.7559" lon="4.75085">
        <ele>87.0</ele>
      </trkpt>
      <trkpt lat="44.7559" lon="4.75082">
        <ele>87.1</ele>
      </trkpt>
      <trkpt lat="44.75585" lon="4.75079">
        <ele>87.3</ele>
      </trkpt>
      <trkpt lat="44.75583" lon="4.75054">
        <ele>89.1</ele>
      </trkpt>
      <trkpt lat="44.75584" lon="4.75052">
        <ele>89.2</ele>
      </trkpt>
      <trkpt lat="44.75586" lon="4.7505">
        <ele>89.4</ele>
      </trkpt>
      <trkpt lat="44.75588" lon="4.75034">
        <ele>90.5</ele>
      </trkpt>
      <trkpt lat="44.75583" lon="4.75014">
        <ele>92.0</ele>
      </trkpt>
      <trkpt lat="44.75584" lon="4.74996">
        <ele>93.0</ele>
      </trkpt>
      <trkpt lat="44.75583" lon="4.74982">
        <ele>93.0</ele>
      </trkpt>
      <trkpt lat="44.75581" lon="4.74979">
        <ele>93.0</ele>
      </trkpt>
      <trkpt lat="44.75568" lon="4.74978">
        <ele>92.7</ele>
      </trkpt>
      <trkpt lat="44.7553" lon="4.74965">
        <ele>91.8</ele>
      </trkpt>
      <trkpt lat="44.75529" lon="4.74963">
        <ele>91.8</ele>
      </trkpt>
      <trkpt lat="44.75529" lon="4.7495">
        <ele>91.6</ele>
      </trkpt>
      <trkpt lat="44.75525" lon="4.74949">
        <ele>91.4</ele>
      </trkpt>
      <trkpt lat="44.75515" lon="4.74951">
        <ele>91.2</ele>
      </trkpt>
      <trkpt lat="44.75491" lon="4.74944">
        <ele>90.6</ele>
      </trkpt>
      <trkpt lat="44.75454" lon="4.7493">
        <ele>90.2</ele>
      </trkpt>
      <trkpt lat="44.75443" lon="4.74924">
        <ele>90.1</ele>
      </trkpt>
      <trkpt lat="44.75398" lon="4.74884">
        <ele>90.7</ele>
      </trkpt>
      <trkpt lat="44.75391" lon="4.7488">
        <ele>90.9</ele>
      </trkpt>
      <trkpt lat="44.75395" lon="4.74867">
        <ele>91.0</ele>
      </trkpt>
      <trkpt lat="44.754" lon="4.74857">
        <ele>91.1</ele>
      </trkpt>
      <trkpt lat="44.75408" lon="4.74843">
        <ele>91.1</ele>
      </trkpt>
      <trkpt lat="44.75411" lon="4.74836">
        <ele>91.1</ele>
      </trkpt>
      <trkpt lat="44.75427" lon="4.7481">
        <ele>91.6</ele>
      </trkpt>
      <trkpt lat="44.75438" lon="4.74801">
        <ele>91.7</ele>
      </trkpt>
      <trkpt lat="44.75433" lon="4.74798">
        <ele>91.9</ele>
      </trkpt>
      <trkpt lat="44.75415" lon="4.748">
        <ele>92.2</ele>
      </trkpt>
      <trkpt lat="44.75357" lon="4.74783">
        <ele>93.8</ele>
      </trkpt>
      <trkpt lat="44.75355" lon="4.74783">
        <ele>93.9</ele>
      </trkpt>
    </trkseg>
  </trk>
</gpx>
