<?xml version='1.0' encoding='utf-8'?>
<gpx version="1.1" creator="France2026" xmlns="http://www.topografix.com/GPX/1/1" xmlns:xsi="http://www.w3.org/2001/XMLSchema-instance" xsi:schemaLocation="http://www.topografix.com/GPX/1/1 http://www.topografix.com/GPX/1/1/gpx.xsd"><metadata><name>Jour 5 — Strasbourg → Obernai</name><desc>Départ : 17 rue des Orfèvres, Strasbourg. Arrivée : centre d’Obernai.</desc></metadata><trk><name>Jour 5 — Strasbourg → Obernai</name><trkseg><trkpt lat="48.5825680" lon="7.7489450"><ele>154.2</ele></trkpt><trkpt lat="48.5820800" lon="7.7495000"><ele>154.2</ele></trkpt><trkpt lat="48.5820100" lon="7.7493600"><ele>154.5</ele></trkpt><trkpt lat="48.5818100" lon="7.7489100"><ele>155.4</ele></trkpt><trkpt lat="48.5818100" lon="7.7489000"><ele>154.1</ele></trkpt><trkpt lat="48.5816900" lon="7.7487000"><ele>153.4</ele></trkpt><trkpt lat="48.5816100" lon="7.7485500"><ele>152.6</ele></trkpt><trkpt lat="48.5815800" lon="7.7485300"><ele>151.8</ele></trkpt><trkpt lat="48.5816000" lon="7.7484100"><ele>151.2</ele></trkpt><trkpt lat="48.5816300" lon="7.7483800"><ele>151.6</ele></trkpt><trkpt lat="48.5815700" lon="7.7483800"><ele>151.0</ele></trkpt><trkpt lat="48.5815400" lon="7.7484100"><ele>150.5</ele></trkpt><trkpt lat="48.5815100" lon="7.7484500"><ele>150.0</ele></trkpt><trkpt lat="48.5814700" lon="7.7485300"><ele>149.3</ele></trkpt><trkpt lat="48.5814500" lon="7.7485800"><ele>149.7</ele></trkpt><trkpt lat="48.5814300" lon="7.7486000"><ele>149.9</ele></trkpt><trkpt lat="48.5812700" lon="7.7487800"><ele>150.3</ele></trkpt><trkpt lat="48.5812300" lon="7.7488300"><ele>150.9</ele></trkpt><trkpt lat="48.5812000" lon="7.7489000"><ele>150.5</ele></trkpt><trkpt lat="48.5811300" lon="7.7489700"><ele>148.8</ele></trkpt><trkpt lat="48.5808400" lon="7.7492700"><ele>148.4</ele></trkpt><trkpt lat="48.5806000" lon="7.7495100"><ele>147.8</ele></trkpt><trkpt lat="48.5805200" lon="7.7496100"><ele>147.1</ele></trkpt><trkpt lat="48.5804900" lon="7.7496300"><ele>146.8</ele></trkpt><trkpt lat="48.5804200" lon="7.7496300"><ele>146.1</ele></trkpt><trkpt lat="48.5804100" lon="7.7496400"><ele>145.0</ele></trkpt><trkpt lat="48.5799300" lon="7.7501700"><ele>143.8</ele></trkpt><trkpt lat="48.5799200" lon="7.7502700"><ele>142.5</ele></trkpt><trkpt lat="48.5799200" lon="7.7503300"><ele>141.8</ele></trkpt><trkpt lat="48.5799100" lon="7.7503900"><ele>141.0</ele></trkpt><trkpt lat="48.5798900" lon="7.7504100"><ele>141.0</ele></trkpt><trkpt lat="48.5796300" lon="7.7506700"><ele>141.1</ele></trkpt><trkpt lat="48.5794400" lon="7.7508900"><ele>143.5</ele></trkpt><trkpt lat="48.5794200" lon="7.7509300"><ele>143.9</ele></trkpt><trkpt lat="48.5793700" lon="7.7510200"><ele>144.7</ele></trkpt><trkpt lat="48.5793600" lon="7.7510400"><ele>144.8</ele></trkpt><trkpt lat="48.5793100" lon="7.7511100"><ele>145.5</ele></trkpt><trkpt lat="48.5792700" lon="7.7511600"><ele>146.0</ele></trkpt><trkpt lat="48.5792300" lon="7.7512100"><ele>146.6</ele></trkpt><trkpt lat="48.5791600" lon="7.7512900"><ele>146.9</ele></trkpt><trkpt lat="48.5790900" lon="7.7513700"><ele>146.9</ele></trkpt><trkpt lat="48.5790500" lon="7.7513900"><ele>147.3</ele></trkpt><trkpt lat="48.5790300" lon="7.7514000"><ele>147.5</ele></trkpt><trkpt lat="48.5789700" lon="7.7514300"><ele>147.6</ele></trkpt><trkpt lat="48.5788900" lon="7.7514400"><ele>147.5</ele></trkpt><trkpt lat="48.5788300" lon="7.7514400"><ele>148.0</ele></trkpt><trkpt lat="48.5787600" lon="7.7514200"><ele>148.0</ele></trkpt><trkpt lat="48.5786700" lon="7.7513800"><ele>148.1</ele></trkpt><trkpt lat="48.5786200" lon="7.7513300"><ele>148.2</ele></trkpt><trkpt lat="48.5785600" lon="7.7512800"><ele>148.5</ele></trkpt><trkpt lat="48.5785400" lon="7.7512600"><ele>148.7</ele></trkpt><trkpt lat="48.5779800" lon="7.7508500"><ele>147.5</ele></trkpt><trkpt lat="48.5779200" lon="7.7507900"><ele>146.4</ele></trkpt><trkpt lat="48.5778700" lon="7.7507400"><ele>145.5</ele></trkpt><trkpt lat="48.5778500" lon="7.7507100"><ele>144.8</ele></trkpt><trkpt lat="48.5778200" lon="7.7506800"><ele>143.7</ele></trkpt><trkpt lat="48.5775000" lon="7.7504000"><ele>144.1</ele></trkpt><trkpt lat="48.5774600" lon="7.7503600"><ele>144.3</ele></trkpt><trkpt lat="48.5774200" lon="7.7502900"><ele>144.8</ele></trkpt><trkpt lat="48.5772900" lon="7.7500400"><ele>144.8</ele></trkpt><trkpt lat="48.5772400" lon="7.7499500"><ele>145.3</ele></trkpt><trkpt lat="48.5771800" lon="7.7498200"><ele>145.5</ele></trkpt><trkpt lat="48.5770800" lon="7.7495200"><ele>144.4</ele></trkpt><trkpt lat="48.5770600" lon="7.7495400"><ele>144.2</ele></trkpt><trkpt lat="48.5769900" lon="7.7495900"><ele>143.8</ele></trkpt><trkpt lat="48.5768500" lon="7.7497000"><ele>143.0</ele></trkpt><trkpt lat="48.5768100" lon="7.7497300"><ele>142.8</ele></trkpt><trkpt lat="48.5767700" lon="7.7497600"><ele>142.5</ele></trkpt><trkpt lat="48.5767400" lon="7.7498400"><ele>142.2</ele></trkpt><trkpt lat="48.5767000" lon="7.7499200"><ele>141.9</ele></trkpt><trkpt lat="48.5766600" lon="7.7500100"><ele>141.8</ele></trkpt><trkpt lat="48.5764800" lon="7.7502200"><ele>142.0</ele></trkpt><trkpt lat="48.5761800" lon="7.7504000"><ele>142.6</ele></trkpt><trkpt lat="48.5760800" lon="7.7504500"><ele>143.0</ele></trkpt><trkpt lat="48.5759800" lon="7.7504600"><ele>143.9</ele></trkpt><trkpt lat="48.5758800" lon="7.7504500"><ele>144.4</ele></trkpt><trkpt lat="48.5757800" lon="7.7504100"><ele>144.5</ele></trkpt><trkpt lat="48.5757000" lon="7.7503500"><ele>144.2</ele></trkpt><trkpt lat="48.5755900" lon="7.7502300"><ele>144.8</ele></trkpt><trkpt lat="48.5753600" lon="7.7499600"><ele>145.3</ele></trkpt><trkpt lat="48.5752300" lon="7.7498400"><ele>146.0</ele></trkpt><trkpt lat="48.5751800" lon="7.7498200"><ele>146.0</ele></trkpt><trkpt lat="48.5751700" lon="7.7498100"><ele>145.4</ele></trkpt><trkpt lat="48.5750300" lon="7.7497600"><ele>144.4</ele></trkpt><trkpt lat="48.5747400" lon="7.7497900"><ele>142.8</ele></trkpt><trkpt lat="48.5746300" lon="7.7498100"><ele>141.3</ele></trkpt><trkpt lat="48.5745300" lon="7.7498300"><ele>140.4</ele></trkpt><trkpt lat="48.5745000" lon="7.7497200"><ele>140.1</ele></trkpt><trkpt lat="48.5744800" lon="7.7496000"><ele>139.6</ele></trkpt><trkpt lat="48.5744300" lon="7.7493600"><ele>139.4</ele></trkpt><trkpt lat="48.5744000" lon="7.7491800"><ele>139.3</ele></trkpt><trkpt lat="48.5743800" lon="7.7490800"><ele>138.7</ele></trkpt><trkpt lat="48.5743600" lon="7.7489900"><ele>139.1</ele></trkpt><trkpt lat="48.5742700" lon="7.7487900"><ele>139.1</ele></trkpt><trkpt lat="48.5740900" lon="7.7475300"><ele>139.7</ele></trkpt><trkpt lat="48.5740400" lon="7.7471700"><ele>139.8</ele></trkpt><trkpt lat="48.5739600" lon="7.7463800"><ele>140.6</ele></trkpt><trkpt lat="48.5739100" lon="7.7452500"><ele>140.4</ele></trkpt><trkpt lat="48.5739000" lon="7.7445400"><ele>140.7</ele></trkpt><trkpt lat="48.5739500" lon="7.7431300"><ele>140.5</ele></trkpt><trkpt lat="48.5739600" lon="7.7428800"><ele>140.7</ele></trkpt><trkpt lat="48.5739700" lon="7.7427700"><ele>140.5</ele></trkpt><trkpt lat="48.5739700" lon="7.7427300"><ele>140.6</ele></trkpt><trkpt lat="48.5739700" lon="7.7426600"><ele>140.2</ele></trkpt><trkpt lat="48.5739800" lon="7.7426000"><ele>141.0</ele></trkpt><trkpt lat="48.5740200" lon="7.7420300"><ele>141.5</ele></trkpt><trkpt lat="48.5741100" lon="7.7405300"><ele>142.1</ele></trkpt><trkpt lat="48.5741800" lon="7.7393200"><ele>143.1</ele></trkpt><trkpt lat="48.5742200" lon="7.7388600"><ele>144.2</ele></trkpt><trkpt lat="48.5742500" lon="7.7386000"><ele>144.0</ele></trkpt><trkpt lat="48.5742600" lon="7.7384800"><ele>144.1</ele></trkpt><trkpt lat="48.5742800" lon="7.7384300"><ele>144.3</ele></trkpt><trkpt lat="48.5743200" lon="7.7383800"><ele>144.2</ele></trkpt><trkpt lat="48.5743400" lon="7.7383100"><ele>143.6</ele></trkpt><trkpt lat="48.5743500" lon="7.7382700"><ele>143.2</ele></trkpt><trkpt lat="48.5743600" lon="7.7382400"><ele>143.1</ele></trkpt><trkpt lat="48.5743800" lon="7.7381100"><ele>143.0</ele></trkpt><trkpt lat="48.5743900" lon="7.7379600"><ele>142.9</ele></trkpt><trkpt lat="48.5744000" lon="7.7378700"><ele>143.5</ele></trkpt><trkpt lat="48.5744000" lon="7.7378500"><ele>143.0</ele></trkpt><trkpt lat="48.5744000" lon="7.7378300"><ele>142.6</ele></trkpt><trkpt lat="48.5744100" lon="7.7377600"><ele>142.0</ele></trkpt><trkpt lat="48.5744300" lon="7.7377000"><ele>141.6</ele></trkpt><trkpt lat="48.5744500" lon="7.7376600"><ele>141.1</ele></trkpt><trkpt lat="48.5744600" lon="7.7376400"><ele>141.8</ele></trkpt><trkpt lat="48.5744700" lon="7.7376100"><ele>142.4</ele></trkpt><trkpt lat="48.5745100" lon="7.7375300"><ele>141.7</ele></trkpt><trkpt lat="48.5746100" lon="7.7369500"><ele>141.5</ele></trkpt><trkpt lat="48.5747700" lon="7.7361100"><ele>140.7</ele></trkpt><trkpt lat="48.5748100" lon="7.7358300"><ele>140.4</ele></trkpt><trkpt lat="48.5748400" lon="7.7356200"><ele>140.2</ele></trkpt><trkpt lat="48.5748500" lon="7.7354400"><ele>140.1</ele></trkpt><trkpt lat="48.5748600" lon="7.7352500"><ele>140.5</ele></trkpt><trkpt lat="48.5748600" lon="7.7350400"><ele>140.9</ele></trkpt><trkpt lat="48.5748500" lon="7.7348800"><ele>140.9</ele></trkpt><trkpt lat="48.5748500" lon="7.7347500"><ele>140.9</ele></trkpt><trkpt lat="48.5748600" lon="7.7344900"><ele>141.0</ele></trkpt><trkpt lat="48.5748700" lon="7.7343000"><ele>141.1</ele></trkpt><trkpt lat="48.5748800" lon="7.7340900"><ele>141.3</ele></trkpt><trkpt lat="48.5748900" lon="7.7339900"><ele>141.6</ele></trkpt><trkpt lat="48.5748900" lon="7.7339300"><ele>141.8</ele></trkpt><trkpt lat="48.5748900" lon="7.7338900"><ele>142.8</ele></trkpt><trkpt lat="48.5748800" lon="7.7338200"><ele>142.5</ele></trkpt><trkpt lat="48.5748600" lon="7.7337200"><ele>142.6</ele></trkpt><trkpt lat="48.5748400" lon="7.7336400"><ele>143.3</ele></trkpt><trkpt lat="48.5748100" lon="7.7335500"><ele>143.2</ele></trkpt><trkpt lat="48.5746200" lon="7.7332500"><ele>142.5</ele></trkpt><trkpt lat="48.5745500" lon="7.7331200"><ele>142.4</ele></trkpt><trkpt lat="48.5744500" lon="7.7329700"><ele>141.8</ele></trkpt><trkpt lat="48.5743600" lon="7.7328200"><ele>140.2</ele></trkpt><trkpt lat="48.5743300" lon="7.7327800"><ele>139.5</ele></trkpt><trkpt lat="48.5742800" lon="7.7327400"><ele>138.8</ele></trkpt><trkpt lat="48.5742600" lon="7.7327100"><ele>138.2</ele></trkpt><trkpt lat="48.5742300" lon="7.7326600"><ele>137.9</ele></trkpt><trkpt lat="48.5742100" lon="7.7326000"><ele>138.2</ele></trkpt><trkpt lat="48.5741700" lon="7.7325100"><ele>138.5</ele></trkpt><trkpt lat="48.5741600" lon="7.7324400"><ele>138.6</ele></trkpt><trkpt lat="48.5741500" lon="7.7323600"><ele>138.6</ele></trkpt><trkpt lat="48.5741400" lon="7.7322900"><ele>138.4</ele></trkpt><trkpt lat="48.5741300" lon="7.7321800"><ele>138.8</ele></trkpt><trkpt lat="48.5740600" lon="7.7321800"><ele>139.0</ele></trkpt><trkpt lat="48.5739500" lon="7.7321000"><ele>139.3</ele></trkpt><trkpt lat="48.5736800" lon="7.7316800"><ele>139.6</ele></trkpt><trkpt lat="48.5736300" lon="7.7316300"><ele>140.2</ele></trkpt><trkpt lat="48.5736100" lon="7.7316100"><ele>140.2</ele></trkpt><trkpt lat="48.5735700" lon="7.7316000"><ele>140.3</ele></trkpt><trkpt lat="48.5735200" lon="7.7316000"><ele>140.3</ele></trkpt><trkpt lat="48.5730200" lon="7.7318100"><ele>140.4</ele></trkpt><trkpt lat="48.5729700" lon="7.7318000"><ele>140.3</ele></trkpt><trkpt lat="48.5729200" lon="7.7317500"><ele>140.1</ele></trkpt><trkpt lat="48.5729000" lon="7.7317100"><ele>140.0</ele></trkpt><trkpt lat="48.5728700" lon="7.7316400"><ele>140.0</ele></trkpt><trkpt lat="48.5728200" lon="7.7312800"><ele>139.9</ele></trkpt><trkpt lat="48.5727700" lon="7.7308200"><ele>140.3</ele></trkpt><trkpt lat="48.5727200" lon="7.7301900"><ele>140.5</ele></trkpt><trkpt lat="48.5726900" lon="7.7299100"><ele>141.0</ele></trkpt><trkpt lat="48.5726600" lon="7.7296300"><ele>139.6</ele></trkpt><trkpt lat="48.5726400" lon="7.7295100"><ele>138.3</ele></trkpt><trkpt lat="48.5726400" lon="7.7294600"><ele>137.8</ele></trkpt><trkpt lat="48.5726400" lon="7.7294200"><ele>137.5</ele></trkpt><trkpt lat="48.5726100" lon="7.7293100"><ele>136.9</ele></trkpt><trkpt lat="48.5725700" lon="7.7291300"><ele>138.0</ele></trkpt><trkpt lat="48.5725300" lon="7.7289400"><ele>139.3</ele></trkpt><trkpt lat="48.5724400" lon="7.7285800"><ele>139.9</ele></trkpt><trkpt lat="48.5723600" lon="7.7281800"><ele>140.7</ele></trkpt><trkpt lat="48.5723300" lon="7.7280200"><ele>141.7</ele></trkpt><trkpt lat="48.5723100" lon="7.7278300"><ele>142.5</ele></trkpt><trkpt lat="48.5722900" lon="7.7276600"><ele>143.2</ele></trkpt><trkpt lat="48.5722800" lon="7.7274500"><ele>143.3</ele></trkpt><trkpt lat="48.5722600" lon="7.7271400"><ele>143.2</ele></trkpt><trkpt lat="48.5722700" lon="7.7269500"><ele>143.0</ele></trkpt><trkpt lat="48.5722700" lon="7.7267300"><ele>142.8</ele></trkpt><trkpt lat="48.5722800" lon="7.7265900"><ele>142.8</ele></trkpt><trkpt lat="48.5723000" lon="7.7264200"><ele>143.4</ele></trkpt><trkpt lat="48.5723300" lon="7.7261000"><ele>144.1</ele></trkpt><trkpt lat="48.5723800" lon="7.7258300"><ele>144.9</ele></trkpt><trkpt lat="48.5723900" lon="7.7257700"><ele>145.4</ele></trkpt><trkpt lat="48.5723900" lon="7.7257100"><ele>145.5</ele></trkpt><trkpt lat="48.5723800" lon="7.7256300"><ele>145.4</ele></trkpt><trkpt lat="48.5723600" lon="7.7254800"><ele>144.9</ele></trkpt><trkpt lat="48.5723500" lon="7.7253400"><ele>144.3</ele></trkpt><trkpt lat="48.5723500" lon="7.7252700"><ele>144.2</ele></trkpt><trkpt lat="48.5723100" lon="7.7252400"><ele>144.0</ele></trkpt><trkpt lat="48.5722700" lon="7.7252100"><ele>143.9</ele></trkpt><trkpt lat="48.5722300" lon="7.7252000"><ele>144.0</ele></trkpt><trkpt lat="48.5721600" lon="7.7251600"><ele>143.5</ele></trkpt><trkpt lat="48.5721100" lon="7.7251200"><ele>143.2</ele></trkpt><trkpt lat="48.5720500" lon="7.7250500"><ele>143.0</ele></trkpt><trkpt lat="48.5719800" lon="7.7249900"><ele>141.8</ele></trkpt><trkpt lat="48.5719500" lon="7.7249300"><ele>140.8</ele></trkpt><trkpt lat="48.5718700" lon="7.7248100"><ele>140.7</ele></trkpt><trkpt lat="48.5718400" lon="7.7247400"><ele>140.0</ele></trkpt><trkpt lat="48.5718100" lon="7.7246500"><ele>139.1</ele></trkpt><trkpt lat="48.5717900" lon="7.7245600"><ele>139.1</ele></trkpt><trkpt lat="48.5717700" lon="7.7244600"><ele>139.1</ele></trkpt><trkpt lat="48.5717700" lon="7.7243500"><ele>138.7</ele></trkpt><trkpt lat="48.5717700" lon="7.7242100"><ele>138.7</ele></trkpt><trkpt lat="48.5717900" lon="7.7238700"><ele>139.1</ele></trkpt><trkpt lat="48.5717900" lon="7.7237600"><ele>139.3</ele></trkpt><trkpt lat="48.5719300" lon="7.7236300"><ele>139.7</ele></trkpt><trkpt lat="48.5719500" lon="7.7235800"><ele>140.2</ele></trkpt><trkpt lat="48.5718400" lon="7.7230800"><ele>140.8</ele></trkpt><trkpt lat="48.5718500" lon="7.7229500"><ele>141.1</ele></trkpt><trkpt lat="48.5717300" lon="7.7225600"><ele>141.3</ele></trkpt><trkpt lat="48.5717100" lon="7.7225100"><ele>141.4</ele></trkpt><trkpt lat="48.5714600" lon="7.7216600"><ele>141.4</ele></trkpt><trkpt lat="48.5713600" lon="7.7213400"><ele>141.5</ele></trkpt><trkpt lat="48.5712700" lon="7.7210300"><ele>141.5</ele></trkpt><trkpt lat="48.5710900" lon="7.7203700"><ele>141.6</ele></trkpt><trkpt lat="48.5710100" lon="7.7199300"><ele>141.3</ele></trkpt><trkpt lat="48.5709500" lon="7.7196200"><ele>141.1</ele></trkpt><trkpt lat="48.5709100" lon="7.7193600"><ele>140.7</ele></trkpt><trkpt lat="48.5708400" lon="7.7186100"><ele>140.8</ele></trkpt><trkpt lat="48.5708400" lon="7.7181500"><ele>142.1</ele></trkpt><trkpt lat="48.5708800" lon="7.7179700"><ele>142.7</ele></trkpt><trkpt lat="48.5709000" lon="7.7178800"><ele>143.0</ele></trkpt><trkpt lat="48.5710100" lon="7.7175900"><ele>143.9</ele></trkpt><trkpt lat="48.5711300" lon="7.7172400"><ele>143.9</ele></trkpt><trkpt lat="48.5712100" lon="7.7169300"><ele>143.5</ele></trkpt><trkpt lat="48.5712600" lon="7.7166600"><ele>143.2</ele></trkpt><trkpt lat="48.5714000" lon="7.7161100"><ele>142.5</ele></trkpt><trkpt lat="48.5714700" lon="7.7158900"><ele>141.7</ele></trkpt><trkpt lat="48.5714800" lon="7.7157900"><ele>141.9</ele></trkpt><trkpt lat="48.5714800" lon="7.7156700"><ele>142.1</ele></trkpt><trkpt lat="48.5714700" lon="7.7156500"><ele>142.2</ele></trkpt><trkpt lat="48.5714000" lon="7.7154900"><ele>142.5</ele></trkpt><trkpt lat="48.5713300" lon="7.7152700"><ele>142.9</ele></trkpt><trkpt lat="48.5712800" lon="7.7151200"><ele>142.9</ele></trkpt><trkpt lat="48.5712200" lon="7.7150000"><ele>142.8</ele></trkpt><trkpt lat="48.5709700" lon="7.7146800"><ele>143.1</ele></trkpt><trkpt lat="48.5703100" lon="7.7139600"><ele>143.2</ele></trkpt><trkpt lat="48.5700700" lon="7.7136800"><ele>143.4</ele></trkpt><trkpt lat="48.5698500" lon="7.7134300"><ele>143.7</ele></trkpt><trkpt lat="48.5697600" lon="7.7132700"><ele>144.0</ele></trkpt><trkpt lat="48.5697300" lon="7.7131600"><ele>144.3</ele></trkpt><trkpt lat="48.5697300" lon="7.7131000"><ele>144.3</ele></trkpt><trkpt lat="48.5697100" lon="7.7125800"><ele>144.2</ele></trkpt><trkpt lat="48.5697400" lon="7.7124200"><ele>143.9</ele></trkpt><trkpt lat="48.5698300" lon="7.7121900"><ele>143.7</ele></trkpt><trkpt lat="48.5699600" lon="7.7118400"><ele>143.5</ele></trkpt><trkpt lat="48.5699800" lon="7.7117600"><ele>143.4</ele></trkpt><trkpt lat="48.5700000" lon="7.7116600"><ele>143.0</ele></trkpt><trkpt lat="48.5700300" lon="7.7115100"><ele>142.6</ele></trkpt><trkpt lat="48.5700800" lon="7.7113100"><ele>142.3</ele></trkpt><trkpt lat="48.5701800" lon="7.7110400"><ele>141.9</ele></trkpt><trkpt lat="48.5703200" lon="7.7107300"><ele>141.4</ele></trkpt><trkpt lat="48.5703900" lon="7.7105600"><ele>141.0</ele></trkpt><trkpt lat="48.5704400" lon="7.7103700"><ele>140.9</ele></trkpt><trkpt lat="48.5704500" lon="7.7102200"><ele>140.8</ele></trkpt><trkpt lat="48.5704400" lon="7.7100600"><ele>140.7</ele></trkpt><trkpt lat="48.5704600" lon="7.7099600"><ele>140.6</ele></trkpt><trkpt lat="48.5704900" lon="7.7098300"><ele>140.8</ele></trkpt><trkpt lat="48.5705200" lon="7.7097600"><ele>140.9</ele></trkpt><trkpt lat="48.5705400" lon="7.7097000"><ele>141.0</ele></trkpt><trkpt lat="48.5705600" lon="7.7096500"><ele>140.9</ele></trkpt><trkpt lat="48.5706200" lon="7.7095900"><ele>140.8</ele></trkpt><trkpt lat="48.5706300" lon="7.7095400"><ele>140.7</ele></trkpt><trkpt lat="48.5706500" lon="7.7094700"><ele>140.6</ele></trkpt><trkpt lat="48.5707400" lon="7.7092200"><ele>140.5</ele></trkpt><trkpt lat="48.5707500" lon="7.7091500"><ele>140.3</ele></trkpt><trkpt lat="48.5706900" lon="7.7090900"><ele>140.2</ele></trkpt><trkpt lat="48.5706200" lon="7.7090600"><ele>139.9</ele></trkpt><trkpt lat="48.5705900" lon="7.7090100"><ele>139.7</ele></trkpt><trkpt lat="48.5705900" lon="7.7089400"><ele>140.1</ele></trkpt><trkpt lat="48.5707700" lon="7.7082500"><ele>140.3</ele></trkpt><trkpt lat="48.5713000" lon="7.7065200"><ele>140.9</ele></trkpt><trkpt lat="48.5713200" lon="7.7064700"><ele>141.7</ele></trkpt><trkpt lat="48.5713500" lon="7.7064300"><ele>142.4</ele></trkpt><trkpt lat="48.5713700" lon="7.7064000"><ele>142.7</ele></trkpt><trkpt lat="48.5713900" lon="7.7063600"><ele>142.9</ele></trkpt><trkpt lat="48.5714700" lon="7.7060900"><ele>142.8</ele></trkpt><trkpt lat="48.5714700" lon="7.7060400"><ele>142.7</ele></trkpt><trkpt lat="48.5714800" lon="7.7059500"><ele>142.7</ele></trkpt><trkpt lat="48.5715000" lon="7.7058600"><ele>143.0</ele></trkpt><trkpt lat="48.5717100" lon="7.7050900"><ele>144.5</ele></trkpt><trkpt lat="48.5719500" lon="7.7042600"><ele>144.5</ele></trkpt><trkpt lat="48.5721500" lon="7.7035700"><ele>144.6</ele></trkpt><trkpt lat="48.5725500" lon="7.7021800"><ele>144.6</ele></trkpt><trkpt lat="48.5727900" lon="7.7013200"><ele>144.4</ele></trkpt><trkpt lat="48.5728300" lon="7.7008400"><ele>143.5</ele></trkpt><trkpt lat="48.5728100" lon="7.7004200"><ele>143.7</ele></trkpt><trkpt lat="48.5728100" lon="7.7002300"><ele>144.0</ele></trkpt><trkpt lat="48.5728500" lon="7.6999800"><ele>143.5</ele></trkpt><trkpt lat="48.5728900" lon="7.6998800"><ele>143.2</ele></trkpt><trkpt lat="48.5731400" lon="7.6995400"><ele>142.5</ele></trkpt><trkpt lat="48.5739200" lon="7.6987200"><ele>142.4</ele></trkpt><trkpt lat="48.5746800" lon="7.6983800"><ele>142.2</ele></trkpt><trkpt lat="48.5748800" lon="7.6982200"><ele>143.0</ele></trkpt><trkpt lat="48.5749800" lon="7.6981100"><ele>144.1</ele></trkpt><trkpt lat="48.5752900" lon="7.6977200"><ele>144.2</ele></trkpt><trkpt lat="48.5755400" lon="7.6973700"><ele>144.8</ele></trkpt><trkpt lat="48.5756600" lon="7.6970600"><ele>145.3</ele></trkpt><trkpt lat="48.5757100" lon="7.6967200"><ele>145.2</ele></trkpt><trkpt lat="48.5757200" lon="7.6964000"><ele>144.7</ele></trkpt><trkpt lat="48.5757000" lon="7.6962300"><ele>144.7</ele></trkpt><trkpt lat="48.5756600" lon="7.6960700"><ele>144.0</ele></trkpt><trkpt lat="48.5755600" lon="7.6958700"><ele>143.2</ele></trkpt><trkpt lat="48.5754000" lon="7.6957600"><ele>142.7</ele></trkpt><trkpt lat="48.5750500" lon="7.6955200"><ele>142.4</ele></trkpt><trkpt lat="48.5744600" lon="7.6949500"><ele>142.8</ele></trkpt><trkpt lat="48.5742200" lon="7.6946400"><ele>143.1</ele></trkpt><trkpt lat="48.5741600" lon="7.6944700"><ele>143.6</ele></trkpt><trkpt lat="48.5741400" lon="7.6942500"><ele>144.6</ele></trkpt><trkpt lat="48.5741400" lon="7.6938500"><ele>145.9</ele></trkpt><trkpt lat="48.5741600" lon="7.6936800"><ele>145.5</ele></trkpt><trkpt lat="48.5741800" lon="7.6935400"><ele>145.7</ele></trkpt><trkpt lat="48.5742000" lon="7.6934200"><ele>146.0</ele></trkpt><trkpt lat="48.5742500" lon="7.6932400"><ele>145.8</ele></trkpt><trkpt lat="48.5742700" lon="7.6931900"><ele>145.0</ele></trkpt><trkpt lat="48.5743300" lon="7.6930300"><ele>145.6</ele></trkpt><trkpt lat="48.5745100" lon="7.6927300"><ele>145.6</ele></trkpt><trkpt lat="48.5746100" lon="7.6926100"><ele>145.5</ele></trkpt><trkpt lat="48.5747000" lon="7.6924600"><ele>145.3</ele></trkpt><trkpt lat="48.5747000" lon="7.6923900"><ele>145.5</ele></trkpt><trkpt lat="48.5747400" lon="7.6922800"><ele>145.7</ele></trkpt><trkpt lat="48.5747500" lon="7.6921800"><ele>145.9</ele></trkpt><trkpt lat="48.5747500" lon="7.6920700"><ele>146.0</ele></trkpt><trkpt lat="48.5747400" lon="7.6919600"><ele>146.4</ele></trkpt><trkpt lat="48.5747200" lon="7.6918800"><ele>146.5</ele></trkpt><trkpt lat="48.5746800" lon="7.6917700"><ele>146.2</ele></trkpt><trkpt lat="48.5746400" lon="7.6916900"><ele>146.2</ele></trkpt><trkpt lat="48.5745200" lon="7.6915500"><ele>145.9</ele></trkpt><trkpt lat="48.5744600" lon="7.6914600"><ele>145.4</ele></trkpt><trkpt lat="48.5744100" lon="7.6913800"><ele>145.0</ele></trkpt><trkpt lat="48.5743700" lon="7.6912900"><ele>144.9</ele></trkpt><trkpt lat="48.5743500" lon="7.6912100"><ele>144.4</ele></trkpt><trkpt lat="48.5743300" lon="7.6911200"><ele>144.3</ele></trkpt><trkpt lat="48.5743200" lon="7.6909400"><ele>143.9</ele></trkpt><trkpt lat="48.5743300" lon="7.6908200"><ele>143.8</ele></trkpt><trkpt lat="48.5743500" lon="7.6905000"><ele>143.6</ele></trkpt><trkpt lat="48.5744100" lon="7.6900600"><ele>143.5</ele></trkpt><trkpt lat="48.5744500" lon="7.6896200"><ele>143.7</ele></trkpt><trkpt lat="48.5745200" lon="7.6889800"><ele>144.0</ele></trkpt><trkpt lat="48.5745900" lon="7.6883800"><ele>144.1</ele></trkpt><trkpt lat="48.5746600" lon="7.6875800"><ele>144.2</ele></trkpt><trkpt lat="48.5747100" lon="7.6869700"><ele>144.7</ele></trkpt><trkpt lat="48.5747100" lon="7.6869400"><ele>144.3</ele></trkpt><trkpt lat="48.5747200" lon="7.6868400"><ele>144.4</ele></trkpt><trkpt lat="48.5747300" lon="7.6867500"><ele>144.5</ele></trkpt><trkpt lat="48.5747600" lon="7.6865300"><ele>144.4</ele></trkpt><trkpt lat="48.5747800" lon="7.6863500"><ele>144.3</ele></trkpt><trkpt lat="48.5749200" lon="7.6850300"><ele>144.3</ele></trkpt><trkpt lat="48.5749200" lon="7.6850200"><ele>144.0</ele></trkpt><trkpt lat="48.5749500" lon="7.6847600"><ele>143.2</ele></trkpt><trkpt lat="48.5750200" lon="7.6844000"><ele>142.7</ele></trkpt><trkpt lat="48.5750700" lon="7.6842300"><ele>143.1</ele></trkpt><trkpt lat="48.5753800" lon="7.6835000"><ele>143.3</ele></trkpt><trkpt lat="48.5758400" lon="7.6824200"><ele>143.4</ele></trkpt><trkpt lat="48.5764200" lon="7.6810500"><ele>143.9</ele></trkpt><trkpt lat="48.5767600" lon="7.6802500"><ele>144.2</ele></trkpt><trkpt lat="48.5768900" lon="7.6799600"><ele>143.4</ele></trkpt><trkpt lat="48.5769300" lon="7.6798300"><ele>142.8</ele></trkpt><trkpt lat="48.5769700" lon="7.6796900"><ele>142.6</ele></trkpt><trkpt lat="48.5773500" lon="7.6778700"><ele>142.8</ele></trkpt><trkpt lat="48.5776600" lon="7.6765600"><ele>142.8</ele></trkpt><trkpt lat="48.5777400" lon="7.6762000"><ele>144.2</ele></trkpt><trkpt lat="48.5782500" lon="7.6738300"><ele>145.3</ele></trkpt><trkpt lat="48.5786200" lon="7.6720300"><ele>146.8</ele></trkpt><trkpt lat="48.5788500" lon="7.6709200"><ele>146.7</ele></trkpt><trkpt lat="48.5789000" lon="7.6708000"><ele>146.8</ele></trkpt><trkpt lat="48.5791600" lon="7.6695400"><ele>145.7</ele></trkpt><trkpt lat="48.5792800" lon="7.6689500"><ele>145.9</ele></trkpt><trkpt lat="48.5794300" lon="7.6682800"><ele>145.0</ele></trkpt><trkpt lat="48.5796500" lon="7.6672700"><ele>145.9</ele></trkpt><trkpt lat="48.5797000" lon="7.6670500"><ele>146.2</ele></trkpt><trkpt lat="48.5797500" lon="7.6668100"><ele>146.7</ele></trkpt><trkpt lat="48.5797700" lon="7.6666400"><ele>146.3</ele></trkpt><trkpt lat="48.5797900" lon="7.6665700"><ele>146.3</ele></trkpt><trkpt lat="48.5798200" lon="7.6664400"><ele>145.6</ele></trkpt><trkpt lat="48.5798600" lon="7.6663400"><ele>145.7</ele></trkpt><trkpt lat="48.5799600" lon="7.6658900"><ele>145.5</ele></trkpt><trkpt lat="48.5800900" lon="7.6654000"><ele>145.3</ele></trkpt><trkpt lat="48.5802900" lon="7.6645900"><ele>145.4</ele></trkpt><trkpt lat="48.5803500" lon="7.6643500"><ele>145.9</ele></trkpt><trkpt lat="48.5804200" lon="7.6640500"><ele>145.6</ele></trkpt><trkpt lat="48.5804400" lon="7.6638900"><ele>145.5</ele></trkpt><trkpt lat="48.5804600" lon="7.6636600"><ele>145.6</ele></trkpt><trkpt lat="48.5804600" lon="7.6635600"><ele>145.3</ele></trkpt><trkpt lat="48.5804600" lon="7.6634200"><ele>145.3</ele></trkpt><trkpt lat="48.5803800" lon="7.6627100"><ele>145.5</ele></trkpt><trkpt lat="48.5802200" lon="7.6613600"><ele>146.0</ele></trkpt><trkpt lat="48.5801900" lon="7.6612200"><ele>145.7</ele></trkpt><trkpt lat="48.5801500" lon="7.6611100"><ele>145.5</ele></trkpt><trkpt lat="48.5797800" lon="7.6604700"><ele>144.9</ele></trkpt><trkpt lat="48.5796600" lon="7.6602200"><ele>144.6</ele></trkpt><trkpt lat="48.5795500" lon="7.6599400"><ele>143.9</ele></trkpt><trkpt lat="48.5795000" lon="7.6597600"><ele>143.8</ele></trkpt><trkpt lat="48.5794600" lon="7.6595900"><ele>143.8</ele></trkpt><trkpt lat="48.5794300" lon="7.6594600"><ele>143.9</ele></trkpt><trkpt lat="48.5794000" lon="7.6592700"><ele>143.9</ele></trkpt><trkpt lat="48.5794000" lon="7.6591400"><ele>144.2</ele></trkpt><trkpt lat="48.5794100" lon="7.6589300"><ele>144.5</ele></trkpt><trkpt lat="48.5794400" lon="7.6585700"><ele>144.6</ele></trkpt><trkpt lat="48.5794400" lon="7.6583900"><ele>144.9</ele></trkpt><trkpt lat="48.5794300" lon="7.6582800"><ele>145.1</ele></trkpt><trkpt lat="48.5793500" lon="7.6579700"><ele>145.3</ele></trkpt><trkpt lat="48.5793400" lon="7.6579400"><ele>145.5</ele></trkpt><trkpt lat="48.5793300" lon="7.6578900"><ele>146.1</ele></trkpt><trkpt lat="48.5793000" lon="7.6577400"><ele>146.6</ele></trkpt><trkpt lat="48.5793000" lon="7.6576300"><ele>146.9</ele></trkpt><trkpt lat="48.5793100" lon="7.6575000"><ele>147.1</ele></trkpt><trkpt lat="48.5793200" lon="7.6574400"><ele>146.6</ele></trkpt><trkpt lat="48.5793400" lon="7.6573600"><ele>145.9</ele></trkpt><trkpt lat="48.5794900" lon="7.6570000"><ele>145.2</ele></trkpt><trkpt lat="48.5795700" lon="7.6568000"><ele>144.6</ele></trkpt><trkpt lat="48.5796100" lon="7.6566300"><ele>144.0</ele></trkpt><trkpt lat="48.5796300" lon="7.6564800"><ele>144.0</ele></trkpt><trkpt lat="48.5796300" lon="7.6562200"><ele>144.1</ele></trkpt><trkpt lat="48.5796300" lon="7.6556600"><ele>144.2</ele></trkpt><trkpt lat="48.5796200" lon="7.6554600"><ele>144.2</ele></trkpt><trkpt lat="48.5796000" lon="7.6553100"><ele>144.3</ele></trkpt><trkpt lat="48.5795600" lon="7.6551800"><ele>144.4</ele></trkpt><trkpt lat="48.5794900" lon="7.6549600"><ele>144.5</ele></trkpt><trkpt lat="48.5793100" lon="7.6545000"><ele>144.6</ele></trkpt><trkpt lat="48.5792900" lon="7.6543900"><ele>144.7</ele></trkpt><trkpt lat="48.5792800" lon="7.6543000"><ele>145.0</ele></trkpt><trkpt lat="48.5792800" lon="7.6542200"><ele>144.9</ele></trkpt><trkpt lat="48.5794400" lon="7.6525500"><ele>144.8</ele></trkpt><trkpt lat="48.5795400" lon="7.6515000"><ele>144.7</ele></trkpt><trkpt lat="48.5795600" lon="7.6512800"><ele>145.1</ele></trkpt><trkpt lat="48.5797400" lon="7.6495100"><ele>145.4</ele></trkpt><trkpt lat="48.5798900" lon="7.6480100"><ele>146.2</ele></trkpt><trkpt lat="48.5800200" lon="7.6468600"><ele>146.9</ele></trkpt><trkpt lat="48.5800600" lon="7.6463600"><ele>147.5</ele></trkpt><trkpt lat="48.5800700" lon="7.6463200"><ele>148.2</ele></trkpt><trkpt lat="48.5800700" lon="7.6462900"><ele>149.1</ele></trkpt><trkpt lat="48.5801100" lon="7.6458300"><ele>149.3</ele></trkpt><trkpt lat="48.5802400" lon="7.6446300"><ele>148.8</ele></trkpt><trkpt lat="48.5803700" lon="7.6433900"><ele>149.5</ele></trkpt><trkpt lat="48.5804000" lon="7.6424000"><ele>148.6</ele></trkpt><trkpt lat="48.5804100" lon="7.6413400"><ele>148.8</ele></trkpt><trkpt lat="48.5803700" lon="7.6403400"><ele>149.4</ele></trkpt><trkpt lat="48.5803200" lon="7.6385500"><ele>150.4</ele></trkpt><trkpt lat="48.5803000" lon="7.6382300"><ele>150.3</ele></trkpt><trkpt lat="48.5802200" lon="7.6378500"><ele>151.2</ele></trkpt><trkpt lat="48.5802100" lon="7.6376700"><ele>149.8</ele></trkpt><trkpt lat="48.5802700" lon="7.6371300"><ele>149.2</ele></trkpt><trkpt lat="48.5802900" lon="7.6365900"><ele>148.3</ele></trkpt><trkpt lat="48.5802800" lon="7.6354300"><ele>148.0</ele></trkpt><trkpt lat="48.5803000" lon="7.6349300"><ele>148.1</ele></trkpt><trkpt lat="48.5803200" lon="7.6347500"><ele>148.9</ele></trkpt><trkpt lat="48.5807800" lon="7.6338300"><ele>149.0</ele></trkpt><trkpt lat="48.5808300" lon="7.6336500"><ele>149.7</ele></trkpt><trkpt lat="48.5808300" lon="7.6334700"><ele>148.9</ele></trkpt><trkpt lat="48.5807800" lon="7.6333100"><ele>147.9</ele></trkpt><trkpt lat="48.5803500" lon="7.6328100"><ele>146.9</ele></trkpt><trkpt lat="48.5799200" lon="7.6323400"><ele>146.2</ele></trkpt><trkpt lat="48.5798800" lon="7.6323000"><ele>145.6</ele></trkpt><trkpt lat="48.5794500" lon="7.6319200"><ele>145.6</ele></trkpt><trkpt lat="48.5793000" lon="7.6317800"><ele>145.6</ele></trkpt><trkpt lat="48.5789700" lon="7.6313900"><ele>145.6</ele></trkpt><trkpt lat="48.5786000" lon="7.6309800"><ele>145.6</ele></trkpt><trkpt lat="48.5782500" lon="7.6306000"><ele>145.8</ele></trkpt><trkpt lat="48.5777200" lon="7.6300500"><ele>146.4</ele></trkpt><trkpt lat="48.5772100" lon="7.6295000"><ele>147.1</ele></trkpt><trkpt lat="48.5767500" lon="7.6290300"><ele>147.9</ele></trkpt><trkpt lat="48.5765900" lon="7.6288900"><ele>148.3</ele></trkpt><trkpt lat="48.5763400" lon="7.6286900"><ele>148.6</ele></trkpt><trkpt lat="48.5763200" lon="7.6286700"><ele>148.5</ele></trkpt><trkpt lat="48.5762900" lon="7.6286400"><ele>148.4</ele></trkpt><trkpt lat="48.5762600" lon="7.6286300"><ele>148.7</ele></trkpt><trkpt lat="48.5760700" lon="7.6284800"><ele>149.9</ele></trkpt><trkpt lat="48.5759100" lon="7.6283700"><ele>150.4</ele></trkpt><trkpt lat="48.5757000" lon="7.6282500"><ele>151.0</ele></trkpt><trkpt lat="48.5756300" lon="7.6281900"><ele>151.8</ele></trkpt><trkpt lat="48.5755800" lon="7.6281500"><ele>152.4</ele></trkpt><trkpt lat="48.5755200" lon="7.6280800"><ele>150.9</ele></trkpt><trkpt lat="48.5754500" lon="7.6279900"><ele>150.3</ele></trkpt><trkpt lat="48.5753700" lon="7.6278200"><ele>149.4</ele></trkpt><trkpt lat="48.5750800" lon="7.6272200"><ele>148.3</ele></trkpt><trkpt lat="48.5749900" lon="7.6270800"><ele>147.6</ele></trkpt><trkpt lat="48.5749100" lon="7.6270000"><ele>148.0</ele></trkpt><trkpt lat="48.5748500" lon="7.6269500"><ele>148.3</ele></trkpt><trkpt lat="48.5747700" lon="7.6268900"><ele>148.5</ele></trkpt><trkpt lat="48.5744900" lon="7.6267600"><ele>148.5</ele></trkpt><trkpt lat="48.5737900" lon="7.6264300"><ele>148.1</ele></trkpt><trkpt lat="48.5729900" lon="7.6260800"><ele>147.9</ele></trkpt><trkpt lat="48.5723100" lon="7.6257800"><ele>147.6</ele></trkpt><trkpt lat="48.5720000" lon="7.6256200"><ele>147.9</ele></trkpt><trkpt lat="48.5717600" lon="7.6255200"><ele>148.6</ele></trkpt><trkpt lat="48.5713600" lon="7.6253300"><ele>148.8</ele></trkpt><trkpt lat="48.5712200" lon="7.6252600"><ele>148.9</ele></trkpt><trkpt lat="48.5710900" lon="7.6252200"><ele>148.9</ele></trkpt><trkpt lat="48.5710400" lon="7.6252000"><ele>149.4</ele></trkpt><trkpt lat="48.5709800" lon="7.6251700"><ele>149.4</ele></trkpt><trkpt lat="48.5709400" lon="7.6251500"><ele>149.4</ele></trkpt><trkpt lat="48.5708800" lon="7.6251100"><ele>149.3</ele></trkpt><trkpt lat="48.5708200" lon="7.6250600"><ele>150.5</ele></trkpt><trkpt lat="48.5707300" lon="7.6249700"><ele>151.1</ele></trkpt><trkpt lat="48.5704700" lon="7.6245600"><ele>153.2</ele></trkpt><trkpt lat="48.5701800" lon="7.6241400"><ele>154.2</ele></trkpt><trkpt lat="48.5698500" lon="7.6236400"><ele>156.0</ele></trkpt><trkpt lat="48.5694500" lon="7.6231600"><ele>156.1</ele></trkpt><trkpt lat="48.5690500" lon="7.6226700"><ele>155.0</ele></trkpt><trkpt lat="48.5685400" lon="7.6223100"><ele>152.9</ele></trkpt><trkpt lat="48.5681000" lon="7.6221100"><ele>152.0</ele></trkpt><trkpt lat="48.5677000" lon="7.6218500"><ele>150.7</ele></trkpt><trkpt lat="48.5674500" lon="7.6215700"><ele>150.3</ele></trkpt><trkpt lat="48.5672900" lon="7.6212800"><ele>150.7</ele></trkpt><trkpt lat="48.5670700" lon="7.6210400"><ele>150.6</ele></trkpt><trkpt lat="48.5666100" lon="7.6206500"><ele>150.7</ele></trkpt><trkpt lat="48.5665200" lon="7.6205700"><ele>150.7</ele></trkpt><trkpt lat="48.5659100" lon="7.6200800"><ele>150.2</ele></trkpt><trkpt lat="48.5656500" lon="7.6198800"><ele>149.8</ele></trkpt><trkpt lat="48.5649600" lon="7.6194100"><ele>149.8</ele></trkpt><trkpt lat="48.5643000" lon="7.6188700"><ele>149.6</ele></trkpt><trkpt lat="48.5640500" lon="7.6186100"><ele>150.2</ele></trkpt><trkpt lat="48.5637600" lon="7.6183500"><ele>150.8</ele></trkpt><trkpt lat="48.5635000" lon="7.6182200"><ele>151.7</ele></trkpt><trkpt lat="48.5633100" lon="7.6181800"><ele>151.6</ele></trkpt><trkpt lat="48.5631300" lon="7.6181900"><ele>152.2</ele></trkpt><trkpt lat="48.5629800" lon="7.6182700"><ele>151.7</ele></trkpt><trkpt lat="48.5628600" lon="7.6183900"><ele>151.2</ele></trkpt><trkpt lat="48.5627600" lon="7.6185300"><ele>150.9</ele></trkpt><trkpt lat="48.5625800" lon="7.6187200"><ele>151.2</ele></trkpt><trkpt lat="48.5623500" lon="7.6188800"><ele>150.6</ele></trkpt><trkpt lat="48.5618000" lon="7.6191100"><ele>150.4</ele></trkpt><trkpt lat="48.5615700" lon="7.6191500"><ele>150.3</ele></trkpt><trkpt lat="48.5613900" lon="7.6191300"><ele>149.9</ele></trkpt><trkpt lat="48.5611100" lon="7.6190400"><ele>149.9</ele></trkpt><trkpt lat="48.5608300" lon="7.6189200"><ele>150.4</ele></trkpt><trkpt lat="48.5606800" lon="7.6189000"><ele>150.7</ele></trkpt><trkpt lat="48.5601300" lon="7.6190100"><ele>151.2</ele></trkpt><trkpt lat="48.5596400" lon="7.6190000"><ele>151.4</ele></trkpt><trkpt lat="48.5595000" lon="7.6189700"><ele>151.6</ele></trkpt><trkpt lat="48.5590700" lon="7.6187500"><ele>151.6</ele></trkpt><trkpt lat="48.5587500" lon="7.6185700"><ele>152.7</ele></trkpt><trkpt lat="48.5582700" lon="7.6182900"><ele>153.4</ele></trkpt><trkpt lat="48.5577700" lon="7.6179700"><ele>154.4</ele></trkpt><trkpt lat="48.5573600" lon="7.6177300"><ele>155.0</ele></trkpt><trkpt lat="48.5570200" lon="7.6175400"><ele>155.9</ele></trkpt><trkpt lat="48.5567400" lon="7.6173800"><ele>155.9</ele></trkpt><trkpt lat="48.5567100" lon="7.6173600"><ele>155.9</ele></trkpt><trkpt lat="48.5566900" lon="7.6173500"><ele>156.2</ele></trkpt><trkpt lat="48.5566700" lon="7.6174200"><ele>156.5</ele></trkpt><trkpt lat="48.5566300" lon="7.6173900"><ele>156.8</ele></trkpt><trkpt lat="48.5565900" lon="7.6173700"><ele>156.4</ele></trkpt><trkpt lat="48.5565800" lon="7.6173600"><ele>156.2</ele></trkpt><trkpt lat="48.5564800" lon="7.6173000"><ele>155.9</ele></trkpt><trkpt lat="48.5564100" lon="7.6172300"><ele>155.2</ele></trkpt><trkpt lat="48.5563200" lon="7.6171400"><ele>154.0</ele></trkpt><trkpt lat="48.5562300" lon="7.6170500"><ele>153.6</ele></trkpt><trkpt lat="48.5561500" lon="7.6169600"><ele>153.1</ele></trkpt><trkpt lat="48.5560800" lon="7.6168500"><ele>152.6</ele></trkpt><trkpt lat="48.5560700" lon="7.6168300"><ele>152.1</ele></trkpt><trkpt lat="48.5559800" lon="7.6166000"><ele>152.1</ele></trkpt><trkpt lat="48.5558300" lon="7.6161000"><ele>151.9</ele></trkpt><trkpt lat="48.5557800" lon="7.6159400"><ele>151.5</ele></trkpt><trkpt lat="48.5556600" lon="7.6157400"><ele>151.0</ele></trkpt><trkpt lat="48.5555200" lon="7.6155300"><ele>151.0</ele></trkpt><trkpt lat="48.5552800" lon="7.6149400"><ele>151.2</ele></trkpt><trkpt lat="48.5551100" lon="7.6144800"><ele>152.1</ele></trkpt><trkpt lat="48.5550300" lon="7.6142300"><ele>152.8</ele></trkpt><trkpt lat="48.5549400" lon="7.6137200"><ele>153.0</ele></trkpt><trkpt lat="48.5548600" lon="7.6133100"><ele>153.3</ele></trkpt><trkpt lat="48.5547800" lon="7.6129600"><ele>153.3</ele></trkpt><trkpt lat="48.5546200" lon="7.6125300"><ele>152.8</ele></trkpt><trkpt lat="48.5541800" lon="7.6109900"><ele>152.6</ele></trkpt><trkpt lat="48.5540500" lon="7.6105800"><ele>152.4</ele></trkpt><trkpt lat="48.5540000" lon="7.6103400"><ele>152.5</ele></trkpt><trkpt lat="48.5539800" lon="7.6102800"><ele>152.5</ele></trkpt><trkpt lat="48.5538900" lon="7.6095800"><ele>152.6</ele></trkpt><trkpt lat="48.5538800" lon="7.6094600"><ele>152.6</ele></trkpt><trkpt lat="48.5538000" lon="7.6087000"><ele>152.8</ele></trkpt><trkpt lat="48.5537700" lon="7.6080600"><ele>153.5</ele></trkpt><trkpt lat="48.5537500" lon="7.6075600"><ele>154.8</ele></trkpt><trkpt lat="48.5537400" lon="7.6070200"><ele>156.0</ele></trkpt><trkpt lat="48.5537300" lon="7.6066200"><ele>156.3</ele></trkpt><trkpt lat="48.5537300" lon="7.6065500"><ele>156.3</ele></trkpt><trkpt lat="48.5537300" lon="7.6064000"><ele>156.4</ele></trkpt><trkpt lat="48.5537300" lon="7.6063200"><ele>156.5</ele></trkpt><trkpt lat="48.5537300" lon="7.6062200"><ele>156.6</ele></trkpt><trkpt lat="48.5537700" lon="7.6058600"><ele>156.8</ele></trkpt><trkpt lat="48.5537700" lon="7.6055400"><ele>155.9</ele></trkpt><trkpt lat="48.5537500" lon="7.6051400"><ele>155.2</ele></trkpt><trkpt lat="48.5537400" lon="7.6045600"><ele>155.2</ele></trkpt><trkpt lat="48.5537600" lon="7.6040400"><ele>157.1</ele></trkpt><trkpt lat="48.5538100" lon="7.6033000"><ele>158.2</ele></trkpt><trkpt lat="48.5538700" lon="7.6019800"><ele>158.4</ele></trkpt><trkpt lat="48.5539400" lon="7.6011600"><ele>158.3</ele></trkpt><trkpt lat="48.5539600" lon="7.6005800"><ele>158.4</ele></trkpt><trkpt lat="48.5538900" lon="7.6001400"><ele>157.6</ele></trkpt><trkpt lat="48.5538000" lon="7.5994900"><ele>156.9</ele></trkpt><trkpt lat="48.5537700" lon="7.5988200"><ele>157.1</ele></trkpt><trkpt lat="48.5537000" lon="7.5983900"><ele>156.9</ele></trkpt><trkpt lat="48.5535500" lon="7.5981200"><ele>157.5</ele></trkpt><trkpt lat="48.5532000" lon="7.5976000"><ele>157.2</ele></trkpt><trkpt lat="48.5528900" lon="7.5970900"><ele>157.0</ele></trkpt><trkpt lat="48.5527300" lon="7.5967700"><ele>157.2</ele></trkpt><trkpt lat="48.5526800" lon="7.5964200"><ele>158.2</ele></trkpt><trkpt lat="48.5526300" lon="7.5957800"><ele>157.3</ele></trkpt><trkpt lat="48.5526300" lon="7.5953400"><ele>157.2</ele></trkpt><trkpt lat="48.5527400" lon="7.5946000"><ele>156.9</ele></trkpt><trkpt lat="48.5528800" lon="7.5932700"><ele>156.5</ele></trkpt><trkpt lat="48.5529300" lon="7.5930400"><ele>156.4</ele></trkpt><trkpt lat="48.5530300" lon="7.5927700"><ele>156.9</ele></trkpt><trkpt lat="48.5533200" lon="7.5923200"><ele>156.4</ele></trkpt><trkpt lat="48.5539500" lon="7.5914700"><ele>157.5</ele></trkpt><trkpt lat="48.5547500" lon="7.5903700"><ele>157.7</ele></trkpt><trkpt lat="48.5548600" lon="7.5901700"><ele>157.6</ele></trkpt><trkpt lat="48.5549100" lon="7.5900300"><ele>157.6</ele></trkpt><trkpt lat="48.5549300" lon="7.5899900"><ele>158.5</ele></trkpt><trkpt lat="48.5549500" lon="7.5899300"><ele>158.0</ele></trkpt><trkpt lat="48.5551900" lon="7.5895200"><ele>158.4</ele></trkpt><trkpt lat="48.5557800" lon="7.5885600"><ele>159.6</ele></trkpt><trkpt lat="48.5560200" lon="7.5880100"><ele>159.4</ele></trkpt><trkpt lat="48.5562800" lon="7.5872500"><ele>159.5</ele></trkpt><trkpt lat="48.5566300" lon="7.5860800"><ele>160.2</ele></trkpt><trkpt lat="48.5567700" lon="7.5853700"><ele>159.7</ele></trkpt><trkpt lat="48.5568000" lon="7.5851200"><ele>158.6</ele></trkpt><trkpt lat="48.5568700" lon="7.5848400"><ele>159.7</ele></trkpt><trkpt lat="48.5569500" lon="7.5845700"><ele>158.4</ele></trkpt><trkpt lat="48.5570500" lon="7.5842800"><ele>157.3</ele></trkpt><trkpt lat="48.5573800" lon="7.5835400"><ele>157.7</ele></trkpt><trkpt lat="48.5577400" lon="7.5831200"><ele>157.3</ele></trkpt><trkpt lat="48.5580800" lon="7.5827000"><ele>156.4</ele></trkpt><trkpt lat="48.5581500" lon="7.5824800"><ele>156.6</ele></trkpt><trkpt lat="48.5581600" lon="7.5821800"><ele>156.6</ele></trkpt><trkpt lat="48.5573300" lon="7.5789000"><ele>156.4</ele></trkpt><trkpt lat="48.5570500" lon="7.5778600"><ele>156.7</ele></trkpt><trkpt lat="48.5567400" lon="7.5772400"><ele>157.9</ele></trkpt><trkpt lat="48.5566500" lon="7.5768800"><ele>158.8</ele></trkpt><trkpt lat="48.5566600" lon="7.5764100"><ele>159.1</ele></trkpt><trkpt lat="48.5567500" lon="7.5760900"><ele>160.1</ele></trkpt><trkpt lat="48.5573800" lon="7.5741800"><ele>161.0</ele></trkpt><trkpt lat="48.5576800" lon="7.5732700"><ele>162.2</ele></trkpt><trkpt lat="48.5577100" lon="7.5731300"><ele>163.7</ele></trkpt><trkpt lat="48.5577200" lon="7.5730100"><ele>165.9</ele></trkpt><trkpt lat="48.5577300" lon="7.5728900"><ele>167.1</ele></trkpt><trkpt lat="48.5576700" lon="7.5721900"><ele>167.7</ele></trkpt><trkpt lat="48.5576700" lon="7.5719900"><ele>167.2</ele></trkpt><trkpt lat="48.5576800" lon="7.5717800"><ele>166.1</ele></trkpt><trkpt lat="48.5577000" lon="7.5715900"><ele>164.7</ele></trkpt><trkpt lat="48.5577200" lon="7.5713900"><ele>163.4</ele></trkpt><trkpt lat="48.5577700" lon="7.5711200"><ele>163.7</ele></trkpt><trkpt lat="48.5580700" lon="7.5699300"><ele>163.6</ele></trkpt><trkpt lat="48.5585800" lon="7.5679300"><ele>162.6</ele></trkpt><trkpt lat="48.5587400" lon="7.5673100"><ele>161.6</ele></trkpt><trkpt lat="48.5589000" lon="7.5667300"><ele>160.7</ele></trkpt><trkpt lat="48.5589200" lon="7.5666400"><ele>159.0</ele></trkpt><trkpt lat="48.5589400" lon="7.5665700"><ele>157.6</ele></trkpt><trkpt lat="48.5589500" lon="7.5665300"><ele>157.5</ele></trkpt><trkpt lat="48.5589700" lon="7.5664700"><ele>157.6</ele></trkpt><trkpt lat="48.5590200" lon="7.5663600"><ele>157.8</ele></trkpt><trkpt lat="48.5591200" lon="7.5662000"><ele>158.3</ele></trkpt><trkpt lat="48.5592700" lon="7.5659900"><ele>159.3</ele></trkpt><trkpt lat="48.5596600" lon="7.5655600"><ele>160.6</ele></trkpt><trkpt lat="48.5604000" lon="7.5647700"><ele>161.8</ele></trkpt><trkpt lat="48.5605900" lon="7.5645400"><ele>163.3</ele></trkpt><trkpt lat="48.5608800" lon="7.5641300"><ele>163.0</ele></trkpt><trkpt lat="48.5612100" lon="7.5637100"><ele>163.8</ele></trkpt><trkpt lat="48.5616100" lon="7.5632000"><ele>162.6</ele></trkpt><trkpt lat="48.5617800" lon="7.5630200"><ele>161.5</ele></trkpt><trkpt lat="48.5620900" lon="7.5627700"><ele>160.8</ele></trkpt><trkpt lat="48.5622200" lon="7.5626400"><ele>160.8</ele></trkpt><trkpt lat="48.5623400" lon="7.5625000"><ele>159.2</ele></trkpt><trkpt lat="48.5632000" lon="7.5613000"><ele>159.5</ele></trkpt><trkpt lat="48.5635400" lon="7.5608700"><ele>159.5</ele></trkpt><trkpt lat="48.5636000" lon="7.5607800"><ele>158.6</ele></trkpt><trkpt lat="48.5636300" lon="7.5607000"><ele>160.6</ele></trkpt><trkpt lat="48.5636600" lon="7.5605300"><ele>161.8</ele></trkpt><trkpt lat="48.5637500" lon="7.5594200"><ele>162.9</ele></trkpt><trkpt lat="48.5638300" lon="7.5584900"><ele>164.0</ele></trkpt><trkpt lat="48.5638200" lon="7.5582700"><ele>167.4</ele></trkpt><trkpt lat="48.5638100" lon="7.5581200"><ele>167.6</ele></trkpt><trkpt lat="48.5637300" lon="7.5574900"><ele>168.5</ele></trkpt><trkpt lat="48.5636900" lon="7.5571700"><ele>169.4</ele></trkpt><trkpt lat="48.5636800" lon="7.5570100"><ele>170.9</ele></trkpt><trkpt lat="48.5636900" lon="7.5568600"><ele>169.2</ele></trkpt><trkpt lat="48.5637400" lon="7.5566500"><ele>167.7</ele></trkpt><trkpt lat="48.5638600" lon="7.5563400"><ele>166.7</ele></trkpt><trkpt lat="48.5640600" lon="7.5558400"><ele>165.9</ele></trkpt><trkpt lat="48.5651400" lon="7.5531900"><ele>165.4</ele></trkpt><trkpt lat="48.5651700" lon="7.5530500"><ele>165.5</ele></trkpt><trkpt lat="48.5651900" lon="7.5529300"><ele>166.6</ele></trkpt><trkpt lat="48.5652000" lon="7.5527300"><ele>167.1</ele></trkpt><trkpt lat="48.5652000" lon="7.5525100"><ele>168.0</ele></trkpt><trkpt lat="48.5652200" lon="7.5522700"><ele>168.1</ele></trkpt><trkpt lat="48.5652400" lon="7.5520400"><ele>168.8</ele></trkpt><trkpt lat="48.5653000" lon="7.5517000"><ele>169.2</ele></trkpt><trkpt lat="48.5654000" lon="7.5511100"><ele>169.0</ele></trkpt><trkpt lat="48.5654700" lon="7.5508500"><ele>168.8</ele></trkpt><trkpt lat="48.5656000" lon="7.5505700"><ele>167.5</ele></trkpt><trkpt lat="48.5659600" lon="7.5501800"><ele>166.0</ele></trkpt><trkpt lat="48.5664300" lon="7.5497300"><ele>164.2</ele></trkpt><trkpt lat="48.5668600" lon="7.5491700"><ele>163.0</ele></trkpt><trkpt lat="48.5671900" lon="7.5485300"><ele>161.7</ele></trkpt><trkpt lat="48.5674200" lon="7.5480300"><ele>162.1</ele></trkpt><trkpt lat="48.5675000" lon="7.5477900"><ele>163.3</ele></trkpt><trkpt lat="48.5675500" lon="7.5475400"><ele>165.1</ele></trkpt><trkpt lat="48.5676000" lon="7.5470400"><ele>166.7</ele></trkpt><trkpt lat="48.5676300" lon="7.5460000"><ele>169.6</ele></trkpt><trkpt lat="48.5676000" lon="7.5435100"><ele>171.3</ele></trkpt><trkpt lat="48.5675700" lon="7.5428900"><ele>171.1</ele></trkpt><trkpt lat="48.5674600" lon="7.5413700"><ele>170.4</ele></trkpt><trkpt lat="48.5673900" lon="7.5405000"><ele>169.6</ele></trkpt><trkpt lat="48.5673800" lon="7.5397300"><ele>166.5</ele></trkpt><trkpt lat="48.5673400" lon="7.5389700"><ele>164.2</ele></trkpt><trkpt lat="48.5673200" lon="7.5382600"><ele>163.0</ele></trkpt><trkpt lat="48.5671900" lon="7.5376200"><ele>161.8</ele></trkpt><trkpt lat="48.5668000" lon="7.5362800"><ele>162.5</ele></trkpt><trkpt lat="48.5666600" lon="7.5350800"><ele>163.3</ele></trkpt><trkpt lat="48.5665700" lon="7.5340800"><ele>164.3</ele></trkpt><trkpt lat="48.5665500" lon="7.5338400"><ele>165.2</ele></trkpt><trkpt lat="48.5665600" lon="7.5328400"><ele>165.6</ele></trkpt><trkpt lat="48.5666600" lon="7.5319600"><ele>165.1</ele></trkpt><trkpt lat="48.5667300" lon="7.5311300"><ele>165.2</ele></trkpt><trkpt lat="48.5667800" lon="7.5305100"><ele>164.5</ele></trkpt><trkpt lat="48.5668800" lon="7.5296000"><ele>164.3</ele></trkpt><trkpt lat="48.5669700" lon="7.5287500"><ele>164.6</ele></trkpt><trkpt lat="48.5669800" lon="7.5287000"><ele>164.6</ele></trkpt><trkpt lat="48.5670000" lon="7.5286600"><ele>164.5</ele></trkpt><trkpt lat="48.5670000" lon="7.5286100"><ele>164.5</ele></trkpt><trkpt lat="48.5670300" lon="7.5284800"><ele>164.2</ele></trkpt><trkpt lat="48.5673000" lon="7.5271200"><ele>164.1</ele></trkpt><trkpt lat="48.5675300" lon="7.5253400"><ele>164.4</ele></trkpt><trkpt lat="48.5675400" lon="7.5250900"><ele>165.0</ele></trkpt><trkpt lat="48.5675400" lon="7.5248200"><ele>166.8</ele></trkpt><trkpt lat="48.5675200" lon="7.5237300"><ele>167.2</ele></trkpt><trkpt lat="48.5674800" lon="7.5219100"><ele>167.2</ele></trkpt><trkpt lat="48.5674400" lon="7.5203900"><ele>167.1</ele></trkpt><trkpt lat="48.5673900" lon="7.5186400"><ele>166.6</ele></trkpt><trkpt lat="48.5673400" lon="7.5181700"><ele>165.2</ele></trkpt><trkpt lat="48.5672900" lon="7.5178200"><ele>165.9</ele></trkpt><trkpt lat="48.5671200" lon="7.5170000"><ele>166.7</ele></trkpt><trkpt lat="48.5670700" lon="7.5166800"><ele>167.1</ele></trkpt><trkpt lat="48.5670400" lon="7.5163700"><ele>167.5</ele></trkpt><trkpt lat="48.5669900" lon="7.5160400"><ele>167.6</ele></trkpt><trkpt lat="48.5668800" lon="7.5154400"><ele>167.1</ele></trkpt><trkpt lat="48.5667300" lon="7.5147200"><ele>166.7</ele></trkpt><trkpt lat="48.5666300" lon="7.5142700"><ele>166.4</ele></trkpt><trkpt lat="48.5666100" lon="7.5142200"><ele>166.3</ele></trkpt><trkpt lat="48.5666000" lon="7.5141600"><ele>167.0</ele></trkpt><trkpt lat="48.5666000" lon="7.5141500"><ele>170.1</ele></trkpt><trkpt lat="48.5664100" lon="7.5134600"><ele>172.4</ele></trkpt><trkpt lat="48.5662300" lon="7.5126200"><ele>174.2</ele></trkpt><trkpt lat="48.5661400" lon="7.5119200"><ele>175.9</ele></trkpt><trkpt lat="48.5660400" lon="7.5110200"><ele>176.4</ele></trkpt><trkpt lat="48.5660400" lon="7.5109000"><ele>175.8</ele></trkpt><trkpt lat="48.5660600" lon="7.5107900"><ele>175.4</ele></trkpt><trkpt lat="48.5660900" lon="7.5107200"><ele>175.2</ele></trkpt><trkpt lat="48.5661900" lon="7.5105600"><ele>174.2</ele></trkpt><trkpt lat="48.5662400" lon="7.5105000"><ele>173.2</ele></trkpt><trkpt lat="48.5666300" lon="7.5100400"><ele>171.3</ele></trkpt><trkpt lat="48.5670000" lon="7.5096400"><ele>169.9</ele></trkpt><trkpt lat="48.5672400" lon="7.5092800"><ele>168.3</ele></trkpt><trkpt lat="48.5673300" lon="7.5089600"><ele>167.7</ele></trkpt><trkpt lat="48.5673500" lon="7.5085800"><ele>167.7</ele></trkpt><trkpt lat="48.5673100" lon="7.5080500"><ele>167.8</ele></trkpt><trkpt lat="48.5671900" lon="7.5072000"><ele>167.7</ele></trkpt><trkpt lat="48.5671900" lon="7.5061200"><ele>167.8</ele></trkpt><trkpt lat="48.5671600" lon="7.5057600"><ele>168.0</ele></trkpt><trkpt lat="48.5670700" lon="7.5053000"><ele>167.9</ele></trkpt><trkpt lat="48.5670500" lon="7.5051100"><ele>167.6</ele></trkpt><trkpt lat="48.5670400" lon="7.5045200"><ele>167.8</ele></trkpt><trkpt lat="48.5670000" lon="7.5042000"><ele>168.4</ele></trkpt><trkpt lat="48.5669300" lon="7.5037900"><ele>168.8</ele></trkpt><trkpt lat="48.5668500" lon="7.5034900"><ele>169.6</ele></trkpt><trkpt lat="48.5666800" lon="7.5031200"><ele>170.8</ele></trkpt><trkpt lat="48.5665800" lon="7.5027100"><ele>170.8</ele></trkpt><trkpt lat="48.5665000" lon="7.5019800"><ele>170.3</ele></trkpt><trkpt lat="48.5662200" lon="7.5010900"><ele>170.0</ele></trkpt><trkpt lat="48.5661400" lon="7.5007600"><ele>169.4</ele></trkpt><trkpt lat="48.5660900" lon="7.5003800"><ele>167.9</ele></trkpt><trkpt lat="48.5660800" lon="7.5001100"><ele>168.0</ele></trkpt><trkpt lat="48.5660800" lon="7.4998600"><ele>168.6</ele></trkpt><trkpt lat="48.5660900" lon="7.4996100"><ele>169.0</ele></trkpt><trkpt lat="48.5661000" lon="7.4995200"><ele>169.6</ele></trkpt><trkpt lat="48.5661600" lon="7.4991700"><ele>169.9</ele></trkpt><trkpt lat="48.5661900" lon="7.4989700"><ele>169.7</ele></trkpt><trkpt lat="48.5663500" lon="7.4982100"><ele>169.7</ele></trkpt><trkpt lat="48.5664100" lon="7.4979800"><ele>169.4</ele></trkpt><trkpt lat="48.5665000" lon="7.4976900"><ele>169.2</ele></trkpt><trkpt lat="48.5666300" lon="7.4973100"><ele>169.5</ele></trkpt><trkpt lat="48.5667500" lon="7.4970600"><ele>170.1</ele></trkpt><trkpt lat="48.5668600" lon="7.4968000"><ele>170.2</ele></trkpt><trkpt lat="48.5669800" lon="7.4965000"><ele>170.3</ele></trkpt><trkpt lat="48.5670600" lon="7.4963500"><ele>170.7</ele></trkpt><trkpt lat="48.5671500" lon="7.4962300"><ele>171.3</ele></trkpt><trkpt lat="48.5676000" lon="7.4956800"><ele>171.6</ele></trkpt><trkpt lat="48.5679200" lon="7.4953200"><ele>172.1</ele></trkpt><trkpt lat="48.5685000" lon="7.4947600"><ele>173.1</ele></trkpt><trkpt lat="48.5687800" lon="7.4945100"><ele>173.6</ele></trkpt><trkpt lat="48.5688700" lon="7.4944100"><ele>173.9</ele></trkpt><trkpt lat="48.5689100" lon="7.4943200"><ele>174.0</ele></trkpt><trkpt lat="48.5690800" lon="7.4938400"><ele>173.2</ele></trkpt><trkpt lat="48.5691500" lon="7.4936600"><ele>172.9</ele></trkpt><trkpt lat="48.5692500" lon="7.4933700"><ele>172.4</ele></trkpt><trkpt lat="48.5694200" lon="7.4928100"><ele>171.7</ele></trkpt><trkpt lat="48.5694200" lon="7.4927000"><ele>171.3</ele></trkpt><trkpt lat="48.5692900" lon="7.4924700"><ele>171.3</ele></trkpt><trkpt lat="48.5692200" lon="7.4923300"><ele>171.3</ele></trkpt><trkpt lat="48.5692000" lon="7.4922900"><ele>171.4</ele></trkpt><trkpt lat="48.5691300" lon="7.4921500"><ele>171.5</ele></trkpt><trkpt lat="48.5690400" lon="7.4919600"><ele>171.4</ele></trkpt><trkpt lat="48.5688300" lon="7.4921300"><ele>171.0</ele></trkpt><trkpt lat="48.5681400" lon="7.4928300"><ele>170.7</ele></trkpt><trkpt lat="48.5671500" lon="7.4938100"><ele>170.9</ele></trkpt><trkpt lat="48.5664300" lon="7.4945700"><ele>170.9</ele></trkpt><trkpt lat="48.5658300" lon="7.4952100"><ele>171.0</ele></trkpt><trkpt lat="48.5653300" lon="7.4957700"><ele>171.5</ele></trkpt><trkpt lat="48.5644600" lon="7.4966700"><ele>171.9</ele></trkpt><trkpt lat="48.5635300" lon="7.4976800"><ele>171.5</ele></trkpt><trkpt lat="48.5628600" lon="7.4983000"><ele>172.2</ele></trkpt><trkpt lat="48.5624300" lon="7.4986800"><ele>173.0</ele></trkpt><trkpt lat="48.5620700" lon="7.4989400"><ele>173.0</ele></trkpt><trkpt lat="48.5614600" lon="7.4994600"><ele>173.1</ele></trkpt><trkpt lat="48.5613900" lon="7.4995500"><ele>173.4</ele></trkpt><trkpt lat="48.5613400" lon="7.4995800"><ele>172.6</ele></trkpt><trkpt lat="48.5613000" lon="7.4996100"><ele>172.0</ele></trkpt><trkpt lat="48.5604900" lon="7.5003300"><ele>172.1</ele></trkpt><trkpt lat="48.5599700" lon="7.5008000"><ele>173.0</ele></trkpt><trkpt lat="48.5595900" lon="7.5011200"><ele>174.3</ele></trkpt><trkpt lat="48.5590900" lon="7.5014400"><ele>176.0</ele></trkpt><trkpt lat="48.5582900" lon="7.5017000"><ele>175.7</ele></trkpt><trkpt lat="48.5578400" lon="7.5017400"><ele>175.2</ele></trkpt><trkpt lat="48.5570800" lon="7.5017700"><ele>174.0</ele></trkpt><trkpt lat="48.5569000" lon="7.5017800"><ele>172.5</ele></trkpt><trkpt lat="48.5562000" lon="7.5018100"><ele>170.9</ele></trkpt><trkpt lat="48.5548300" lon="7.5018900"><ele>171.2</ele></trkpt><trkpt lat="48.5540000" lon="7.5019100"><ele>172.3</ele></trkpt><trkpt lat="48.5534200" lon="7.5018800"><ele>173.6</ele></trkpt><trkpt lat="48.5528500" lon="7.5017200"><ele>175.1</ele></trkpt><trkpt lat="48.5522800" lon="7.5015000"><ele>175.6</ele></trkpt><trkpt lat="48.5518200" lon="7.5012700"><ele>176.0</ele></trkpt><trkpt lat="48.5514600" lon="7.5011000"><ele>176.4</ele></trkpt><trkpt lat="48.5510100" lon="7.5008800"><ele>176.0</ele></trkpt><trkpt lat="48.5503800" lon="7.5006300"><ele>175.3</ele></trkpt><trkpt lat="48.5501800" lon="7.5006000"><ele>175.5</ele></trkpt><trkpt lat="48.5497200" lon="7.5005300"><ele>175.4</ele></trkpt><trkpt lat="48.5492100" lon="7.5005600"><ele>174.7</ele></trkpt><trkpt lat="48.5486900" lon="7.5006700"><ele>174.2</ele></trkpt><trkpt lat="48.5483200" lon="7.5007900"><ele>174.2</ele></trkpt><trkpt lat="48.5479800" lon="7.5009800"><ele>173.8</ele></trkpt><trkpt lat="48.5470900" lon="7.5015000"><ele>174.2</ele></trkpt><trkpt lat="48.5462500" lon="7.5019900"><ele>174.9</ele></trkpt><trkpt lat="48.5456300" lon="7.5023600"><ele>175.0</ele></trkpt><trkpt lat="48.5455900" lon="7.5023900"><ele>175.1</ele></trkpt><trkpt lat="48.5452800" lon="7.5025900"><ele>175.1</ele></trkpt><trkpt lat="48.5452500" lon="7.5026100"><ele>175.2</ele></trkpt><trkpt lat="48.5436700" lon="7.5035800"><ele>175.6</ele></trkpt><trkpt lat="48.5436400" lon="7.5036400"><ele>175.0</ele></trkpt><trkpt lat="48.5436200" lon="7.5037600"><ele>174.3</ele></trkpt><trkpt lat="48.5435700" lon="7.5038400"><ele>174.2</ele></trkpt><trkpt lat="48.5430400" lon="7.5044900"><ele>174.2</ele></trkpt><trkpt lat="48.5429700" lon="7.5045500"><ele>174.4</ele></trkpt><trkpt lat="48.5427300" lon="7.5048600"><ele>174.6</ele></trkpt><trkpt lat="48.5426600" lon="7.5049500"><ele>174.9</ele></trkpt><trkpt lat="48.5425800" lon="7.5050900"><ele>175.2</ele></trkpt><trkpt lat="48.5425700" lon="7.5051600"><ele>175.5</ele></trkpt><trkpt lat="48.5425600" lon="7.5052400"><ele>175.5</ele></trkpt><trkpt lat="48.5425800" lon="7.5052900"><ele>175.7</ele></trkpt><trkpt lat="48.5425900" lon="7.5053200"><ele>175.8</ele></trkpt><trkpt lat="48.5425700" lon="7.5053800"><ele>175.8</ele></trkpt><trkpt lat="48.5425200" lon="7.5054700"><ele>175.8</ele></trkpt><trkpt lat="48.5425200" lon="7.5055100"><ele>175.8</ele></trkpt><trkpt lat="48.5424500" lon="7.5054800"><ele>175.7</ele></trkpt><trkpt lat="48.5423900" lon="7.5054900"><ele>175.6</ele></trkpt><trkpt lat="48.5423400" lon="7.5055000"><ele>175.4</ele></trkpt><trkpt lat="48.5423000" lon="7.5055400"><ele>175.3</ele></trkpt><trkpt lat="48.5422600" lon="7.5054800"><ele>175.2</ele></trkpt><trkpt lat="48.5422000" lon="7.5054000"><ele>175.2</ele></trkpt><trkpt lat="48.5421800" lon="7.5053300"><ele>175.3</ele></trkpt><trkpt lat="48.5421900" lon="7.5051900"><ele>175.4</ele></trkpt><trkpt lat="48.5422000" lon="7.5050600"><ele>175.4</ele></trkpt><trkpt lat="48.5421600" lon="7.5049400"><ele>175.5</ele></trkpt><trkpt lat="48.5421300" lon="7.5048400"><ele>175.5</ele></trkpt><trkpt lat="48.5421200" lon="7.5047400"><ele>175.5</ele></trkpt><trkpt lat="48.5421100" lon="7.5046200"><ele>175.3</ele></trkpt><trkpt lat="48.5421000" lon="7.5045700"><ele>175.2</ele></trkpt><trkpt lat="48.5420700" lon="7.5045100"><ele>175.0</ele></trkpt><trkpt lat="48.5420100" lon="7.5043800"><ele>174.8</ele></trkpt><trkpt lat="48.5416100" lon="7.5044300"><ele>174.5</ele></trkpt><trkpt lat="48.5413200" lon="7.5044200"><ele>174.7</ele></trkpt><trkpt lat="48.5411600" lon="7.5044100"><ele>174.7</ele></trkpt><trkpt lat="48.5408300" lon="7.5043000"><ele>175.1</ele></trkpt><trkpt lat="48.5406800" lon="7.5042600"><ele>175.1</ele></trkpt><trkpt lat="48.5405000" lon="7.5041700"><ele>175.2</ele></trkpt><trkpt lat="48.5402500" lon="7.5039900"><ele>175.2</ele></trkpt><trkpt lat="48.5399600" lon="7.5037900"><ele>175.3</ele></trkpt><trkpt lat="48.5397700" lon="7.5035400"><ele>175.0</ele></trkpt><trkpt lat="48.5395700" lon="7.5032900"><ele>175.1</ele></trkpt><trkpt lat="48.5393900" lon="7.5030400"><ele>175.3</ele></trkpt><trkpt lat="48.5393500" lon="7.5029900"><ele>175.4</ele></trkpt><trkpt lat="48.5390000" lon="7.5024700"><ele>175.5</ele></trkpt><trkpt lat="48.5389600" lon="7.5023900"><ele>175.6</ele></trkpt><trkpt lat="48.5389300" lon="7.5023000"><ele>175.8</ele></trkpt><trkpt lat="48.5389000" lon="7.5022300"><ele>175.9</ele></trkpt><trkpt lat="48.5386600" lon="7.5018100"><ele>176.0</ele></trkpt><trkpt lat="48.5380300" lon="7.5008000"><ele>176.2</ele></trkpt><trkpt lat="48.5379400" lon="7.5007500"><ele>176.4</ele></trkpt><trkpt lat="48.5375100" lon="7.5000500"><ele>176.7</ele></trkpt><trkpt lat="48.5374900" lon="7.5000000"><ele>177.0</ele></trkpt><trkpt lat="48.5372700" lon="7.4996400"><ele>177.2</ele></trkpt><trkpt lat="48.5372200" lon="7.4996600"><ele>177.2</ele></trkpt><trkpt lat="48.5371400" lon="7.4995300"><ele>177.2</ele></trkpt><trkpt lat="48.5369600" lon="7.4992300"><ele>177.2</ele></trkpt><trkpt lat="48.5369300" lon="7.4991900"><ele>177.0</ele></trkpt><trkpt lat="48.5368900" lon="7.4991400"><ele>177.2</ele></trkpt><trkpt lat="48.5366200" lon="7.4987000"><ele>177.4</ele></trkpt><trkpt lat="48.5359900" lon="7.4976300"><ele>177.6</ele></trkpt><trkpt lat="48.5356600" lon="7.4970800"><ele>177.8</ele></trkpt><trkpt lat="48.5356900" lon="7.4970500"><ele>178.1</ele></trkpt><trkpt lat="48.5348300" lon="7.4955800"><ele>178.2</ele></trkpt><trkpt lat="48.5345400" lon="7.4950700"><ele>178.4</ele></trkpt><trkpt lat="48.5342800" lon="7.4946100"><ele>178.6</ele></trkpt><trkpt lat="48.5341100" lon="7.4942600"><ele>178.7</ele></trkpt><trkpt lat="48.5340100" lon="7.4940400"><ele>178.8</ele></trkpt><trkpt lat="48.5339100" lon="7.4938100"><ele>178.8</ele></trkpt><trkpt lat="48.5337200" lon="7.4933400"><ele>178.9</ele></trkpt><trkpt lat="48.5335800" lon="7.4929300"><ele>179.1</ele></trkpt><trkpt lat="48.5335200" lon="7.4926900"><ele>179.2</ele></trkpt><trkpt lat="48.5334000" lon="7.4922500"><ele>179.4</ele></trkpt><trkpt lat="48.5332100" lon="7.4914900"><ele>179.5</ele></trkpt><trkpt lat="48.5332000" lon="7.4914700"><ele>179.7</ele></trkpt><trkpt lat="48.5332000" lon="7.4914500"><ele>179.7</ele></trkpt><trkpt lat="48.5331700" lon="7.4914700"><ele>179.8</ele></trkpt><trkpt lat="48.5331200" lon="7.4914900"><ele>179.9</ele></trkpt><trkpt lat="48.5330900" lon="7.4915000"><ele>180.0</ele></trkpt><trkpt lat="48.5330400" lon="7.4915300"><ele>180.0</ele></trkpt><trkpt lat="48.5330200" lon="7.4915300"><ele>179.9</ele></trkpt><trkpt lat="48.5330100" lon="7.4915200"><ele>179.9</ele></trkpt><trkpt lat="48.5329700" lon="7.4915000"><ele>179.8</ele></trkpt><trkpt lat="48.5329700" lon="7.4914300"><ele>179.8</ele></trkpt><trkpt lat="48.5329300" lon="7.4912500"><ele>179.9</ele></trkpt><trkpt lat="48.5328300" lon="7.4904700"><ele>180.0</ele></trkpt><trkpt lat="48.5323700" lon="7.4901600"><ele>180.0</ele></trkpt><trkpt lat="48.5323300" lon="7.4901200"><ele>180.0</ele></trkpt><trkpt lat="48.5322600" lon="7.4900800"><ele>181.0</ele></trkpt><trkpt lat="48.5314800" lon="7.4895500"><ele>181.7</ele></trkpt><trkpt lat="48.5305900" lon="7.4889900"><ele>182.3</ele></trkpt><trkpt lat="48.5304200" lon="7.4888800"><ele>181.9</ele></trkpt><trkpt lat="48.5302300" lon="7.4887400"><ele>181.6</ele></trkpt><trkpt lat="48.5301000" lon="7.4886700"><ele>181.4</ele></trkpt><trkpt lat="48.5296800" lon="7.4884100"><ele>180.6</ele></trkpt><trkpt lat="48.5292500" lon="7.4881500"><ele>180.4</ele></trkpt><trkpt lat="48.5288600" lon="7.4879000"><ele>180.7</ele></trkpt><trkpt lat="48.5279500" lon="7.4873100"><ele>181.0</ele></trkpt><trkpt lat="48.5278600" lon="7.4872700"><ele>181.4</ele></trkpt><trkpt lat="48.5278000" lon="7.4872600"><ele>181.5</ele></trkpt><trkpt lat="48.5276800" lon="7.4872600"><ele>181.6</ele></trkpt><trkpt lat="48.5272700" lon="7.4873100"><ele>181.4</ele></trkpt><trkpt lat="48.5270500" lon="7.4873100"><ele>181.5</ele></trkpt><trkpt lat="48.5270500" lon="7.4873700"><ele>181.6</ele></trkpt><trkpt lat="48.5270200" lon="7.4889300"><ele>181.4</ele></trkpt><trkpt lat="48.5269500" lon="7.4889800"><ele>181.0</ele></trkpt><trkpt lat="48.5268800" lon="7.4892000"><ele>181.1</ele></trkpt><trkpt lat="48.5266100" lon="7.4897500"><ele>180.9</ele></trkpt><trkpt lat="48.5265000" lon="7.4899300"><ele>180.8</ele></trkpt><trkpt lat="48.5264200" lon="7.4900700"><ele>181.3</ele></trkpt><trkpt lat="48.5263400" lon="7.4902300"><ele>181.6</ele></trkpt><trkpt lat="48.5261700" lon="7.4905100"><ele>181.1</ele></trkpt><trkpt lat="48.5259600" lon="7.4908500"><ele>180.7</ele></trkpt><trkpt lat="48.5257900" lon="7.4911200"><ele>180.8</ele></trkpt><trkpt lat="48.5256200" lon="7.4911400"><ele>180.8</ele></trkpt><trkpt lat="48.5253600" lon="7.4910700"><ele>180.8</ele></trkpt><trkpt lat="48.5253000" lon="7.4910600"><ele>181.6</ele></trkpt><trkpt lat="48.5252600" lon="7.4910500"><ele>181.9</ele></trkpt><trkpt lat="48.5249700" lon="7.4910300"><ele>181.6</ele></trkpt><trkpt lat="48.5244500" lon="7.4911100"><ele>181.6</ele></trkpt><trkpt lat="48.5244400" lon="7.4911700"><ele>181.5</ele></trkpt><trkpt lat="48.5243200" lon="7.4911600"><ele>181.4</ele></trkpt><trkpt lat="48.5241600" lon="7.4911600"><ele>181.3</ele></trkpt><trkpt lat="48.5240800" lon="7.4912200"><ele>181.2</ele></trkpt><trkpt lat="48.5237900" lon="7.4912300"><ele>181.0</ele></trkpt><trkpt lat="48.5235400" lon="7.4912700"><ele>181.0</ele></trkpt><trkpt lat="48.5234000" lon="7.4913000"><ele>180.9</ele></trkpt><trkpt lat="48.5232700" lon="7.4913300"><ele>181.0</ele></trkpt><trkpt lat="48.5232700" lon="7.4912400"><ele>181.3</ele></trkpt><trkpt lat="48.5232500" lon="7.4905300"><ele>181.7</ele></trkpt><trkpt lat="48.5232400" lon="7.4901300"><ele>181.9</ele></trkpt><trkpt lat="48.5232300" lon="7.4897600"><ele>182.1</ele></trkpt><trkpt lat="48.5232100" lon="7.4892700"><ele>182.3</ele></trkpt><trkpt lat="48.5232200" lon="7.4891500"><ele>182.4</ele></trkpt><trkpt lat="48.5232300" lon="7.4890300"><ele>182.3</ele></trkpt><trkpt lat="48.5232600" lon="7.4888800"><ele>182.4</ele></trkpt><trkpt lat="48.5232900" lon="7.4887600"><ele>182.3</ele></trkpt><trkpt lat="48.5233200" lon="7.4886500"><ele>182.2</ele></trkpt><trkpt lat="48.5234000" lon="7.4884100"><ele>182.1</ele></trkpt><trkpt lat="48.5234700" lon="7.4881900"><ele>182.0</ele></trkpt><trkpt lat="48.5236100" lon="7.4878500"><ele>181.9</ele></trkpt><trkpt lat="48.5237100" lon="7.4872900"><ele>182.1</ele></trkpt><trkpt lat="48.5238000" lon="7.4865000"><ele>182.5</ele></trkpt><trkpt lat="48.5238300" lon="7.4859200"><ele>182.8</ele></trkpt><trkpt lat="48.5238400" lon="7.4857200"><ele>183.0</ele></trkpt><trkpt lat="48.5238400" lon="7.4855500"><ele>183.1</ele></trkpt><trkpt lat="48.5238300" lon="7.4853800"><ele>183.2</ele></trkpt><trkpt lat="48.5237900" lon="7.4850700"><ele>183.7</ele></trkpt><trkpt lat="48.5236800" lon="7.4845200"><ele>184.1</ele></trkpt><trkpt lat="48.5235700" lon="7.4839800"><ele>184.4</ele></trkpt><trkpt lat="48.5235400" lon="7.4837900"><ele>184.9</ele></trkpt><trkpt lat="48.5235000" lon="7.4831500"><ele>185.2</ele></trkpt><trkpt lat="48.5235000" lon="7.4829700"><ele>185.1</ele></trkpt><trkpt lat="48.5235400" lon="7.4829100"><ele>185.1</ele></trkpt><trkpt lat="48.5236000" lon="7.4828100"><ele>185.2</ele></trkpt><trkpt lat="48.5236200" lon="7.4828200"><ele>185.2</ele></trkpt><trkpt lat="48.5236400" lon="7.4828200"><ele>185.1</ele></trkpt><trkpt lat="48.5236600" lon="7.4828100"><ele>185.1</ele></trkpt><trkpt lat="48.5236800" lon="7.4827900"><ele>185.2</ele></trkpt><trkpt lat="48.5236900" lon="7.4827600"><ele>185.4</ele></trkpt><trkpt lat="48.5237000" lon="7.4827400"><ele>185.5</ele></trkpt><trkpt lat="48.5237000" lon="7.4827100"><ele>185.7</ele></trkpt><trkpt lat="48.5237000" lon="7.4826800"><ele>185.9</ele></trkpt><trkpt lat="48.5236900" lon="7.4826600"><ele>185.8</ele></trkpt><trkpt lat="48.5236800" lon="7.4826300"><ele>185.8</ele></trkpt><trkpt lat="48.5236600" lon="7.4826100"><ele>185.7</ele></trkpt><trkpt lat="48.5236300" lon="7.4826100"><ele>185.6</ele></trkpt><trkpt lat="48.5236100" lon="7.4826100"><ele>185.5</ele></trkpt><trkpt lat="48.5236000" lon="7.4825400"><ele>185.6</ele></trkpt><trkpt lat="48.5235300" lon="7.4824500"><ele>185.7</ele></trkpt><trkpt lat="48.5234200" lon="7.4823200"><ele>186.7</ele></trkpt><trkpt lat="48.5232100" lon="7.4820700"><ele>187.7</ele></trkpt><trkpt lat="48.5229100" lon="7.4817300"><ele>189.0</ele></trkpt><trkpt lat="48.5225900" lon="7.4812600"><ele>190.2</ele></trkpt><trkpt lat="48.5223000" lon="7.4805900"><ele>191.2</ele></trkpt><trkpt lat="48.5221700" lon="7.4801800"><ele>191.6</ele></trkpt><trkpt lat="48.5221100" lon="7.4798900"><ele>191.8</ele></trkpt><trkpt lat="48.5220000" lon="7.4792600"><ele>191.9</ele></trkpt><trkpt lat="48.5219500" lon="7.4785700"><ele>192.1</ele></trkpt><trkpt lat="48.5219300" lon="7.4781700"><ele>192.4</ele></trkpt><trkpt lat="48.5219100" lon="7.4777600"><ele>192.6</ele></trkpt><trkpt lat="48.5209700" lon="7.4780900"><ele>192.8</ele></trkpt><trkpt lat="48.5209000" lon="7.4780700"><ele>192.8</ele></trkpt><trkpt lat="48.5204900" lon="7.4775400"><ele>192.7</ele></trkpt><trkpt lat="48.5204900" lon="7.4775300"><ele>192.5</ele></trkpt><trkpt lat="48.5199400" lon="7.4767300"><ele>192.3</ele></trkpt><trkpt lat="48.5196700" lon="7.4764500"><ele>192.4</ele></trkpt><trkpt lat="48.5195900" lon="7.4763900"><ele>192.3</ele></trkpt><trkpt lat="48.5195500" lon="7.4763600"><ele>192.2</ele></trkpt><trkpt lat="48.5194000" lon="7.4762900"><ele>192.9</ele></trkpt><trkpt lat="48.5190400" lon="7.4761600"><ele>193.4</ele></trkpt><trkpt lat="48.5186900" lon="7.4759300"><ele>193.8</ele></trkpt><trkpt lat="48.5183300" lon="7.4756800"><ele>194.3</ele></trkpt><trkpt lat="48.5182200" lon="7.4756200"><ele>195.0</ele></trkpt><trkpt lat="48.5180900" lon="7.4755000"><ele>194.8</ele></trkpt><trkpt lat="48.5177800" lon="7.4750400"><ele>194.7</ele></trkpt><trkpt lat="48.5175800" lon="7.4748200"><ele>195.0</ele></trkpt><trkpt lat="48.5175400" lon="7.4748000"><ele>195.2</ele></trkpt><trkpt lat="48.5172500" lon="7.4746000"><ele>195.5</ele></trkpt><trkpt lat="48.5168400" lon="7.4744000"><ele>196.5</ele></trkpt><trkpt lat="48.5168000" lon="7.4743800"><ele>197.9</ele></trkpt><trkpt lat="48.5164000" lon="7.4741800"><ele>198.4</ele></trkpt><trkpt lat="48.5162100" lon="7.4741400"><ele>199.4</ele></trkpt><trkpt lat="48.5159900" lon="7.4741200"><ele>200.8</ele></trkpt><trkpt lat="48.5158200" lon="7.4740700"><ele>202.1</ele></trkpt><trkpt lat="48.5156800" lon="7.4740100"><ele>204.7</ele></trkpt><trkpt lat="48.5155700" lon="7.4739200"><ele>207.4</ele></trkpt><trkpt lat="48.5151200" lon="7.4733400"><ele>211.8</ele></trkpt><trkpt lat="48.5149800" lon="7.4732200"><ele>215.7</ele></trkpt><trkpt lat="48.5148000" lon="7.4730900"><ele>219.4</ele></trkpt><trkpt lat="48.5145800" lon="7.4728900"><ele>221.4</ele></trkpt><trkpt lat="48.5143800" lon="7.4726300"><ele>225.7</ele></trkpt><trkpt lat="48.5141600" lon="7.4723200"><ele>227.0</ele></trkpt><trkpt lat="48.5139800" lon="7.4721100"><ele>230.2</ele></trkpt><trkpt lat="48.5138200" lon="7.4719200"><ele>232.7</ele></trkpt><trkpt lat="48.5137000" lon="7.4718200"><ele>235.7</ele></trkpt><trkpt lat="48.5135000" lon="7.4717000"><ele>237.2</ele></trkpt><trkpt lat="48.5133500" lon="7.4716700"><ele>240.2</ele></trkpt><trkpt lat="48.5127600" lon="7.4719500"><ele>241.9</ele></trkpt><trkpt lat="48.5124100" lon="7.4720500"><ele>244.4</ele></trkpt><trkpt lat="48.5122100" lon="7.4720600"><ele>247.3</ele></trkpt><trkpt lat="48.5118700" lon="7.4719700"><ele>249.8</ele></trkpt><trkpt lat="48.5115800" lon="7.4717900"><ele>251.6</ele></trkpt><trkpt lat="48.5103200" lon="7.4711400"><ele>252.4</ele></trkpt><trkpt lat="48.5101800" lon="7.4710900"><ele>252.8</ele></trkpt><trkpt lat="48.5100000" lon="7.4710300"><ele>252.1</ele></trkpt><trkpt lat="48.5098300" lon="7.4709900"><ele>251.4</ele></trkpt><trkpt lat="48.5096700" lon="7.4709700"><ele>250.7</ele></trkpt><trkpt lat="48.5095200" lon="7.4709800"><ele>250.1</ele></trkpt><trkpt lat="48.5094500" lon="7.4709900"><ele>249.2</ele></trkpt><trkpt lat="48.5093500" lon="7.4710000"><ele>248.4</ele></trkpt><trkpt lat="48.5092200" lon="7.4709900"><ele>247.6</ele></trkpt><trkpt lat="48.5091200" lon="7.4709500"><ele>246.4</ele></trkpt><trkpt lat="48.5087800" lon="7.4707000"><ele>245.2</ele></trkpt><trkpt lat="48.5084800" lon="7.4703900"><ele>244.0</ele></trkpt><trkpt lat="48.5083000" lon="7.4702200"><ele>242.9</ele></trkpt><trkpt lat="48.5081200" lon="7.4701300"><ele>241.8</ele></trkpt><trkpt lat="48.5080000" lon="7.4701000"><ele>241.0</ele></trkpt><trkpt lat="48.5078200" lon="7.4701100"><ele>240.0</ele></trkpt><trkpt lat="48.5077400" lon="7.4701400"><ele>239.2</ele></trkpt><trkpt lat="48.5074000" lon="7.4702700"><ele>238.4</ele></trkpt><trkpt lat="48.5072900" lon="7.4703000"><ele>237.5</ele></trkpt><trkpt lat="48.5071900" lon="7.4703200"><ele>236.8</ele></trkpt><trkpt lat="48.5070500" lon="7.4702900"><ele>236.2</ele></trkpt><trkpt lat="48.5069200" lon="7.4702300"><ele>235.3</ele></trkpt><trkpt lat="48.5067300" lon="7.4700400"><ele>234.8</ele></trkpt><trkpt lat="48.5064900" lon="7.4697200"><ele>233.3</ele></trkpt><trkpt lat="48.5062500" lon="7.4694900"><ele>231.2</ele></trkpt><trkpt lat="48.5056100" lon="7.4690400"><ele>229.1</ele></trkpt><trkpt lat="48.5051800" lon="7.4688000"><ele>226.8</ele></trkpt><trkpt lat="48.5049200" lon="7.4687000"><ele>223.3</ele></trkpt><trkpt lat="48.5044800" lon="7.4685900"><ele>220.7</ele></trkpt><trkpt lat="48.5041100" lon="7.4683900"><ele>217.9</ele></trkpt><trkpt lat="48.5039300" lon="7.4683400"><ele>214.8</ele></trkpt><trkpt lat="48.5035000" lon="7.4683900"><ele>212.2</ele></trkpt><trkpt lat="48.5032400" lon="7.4684300"><ele>209.8</ele></trkpt><trkpt lat="48.5031900" lon="7.4684300"><ele>207.7</ele></trkpt><trkpt lat="48.5026000" lon="7.4685200"><ele>205.9</ele></trkpt><trkpt lat="48.5020800" lon="7.4686200"><ele>204.8</ele></trkpt><trkpt lat="48.5019100" lon="7.4686700"><ele>203.3</ele></trkpt><trkpt lat="48.5017300" lon="7.4687400"><ele>202.2</ele></trkpt><trkpt lat="48.5011500" lon="7.4691100"><ele>201.5</ele></trkpt><trkpt lat="48.5011000" lon="7.4691400"><ele>201.2</ele></trkpt><trkpt lat="48.5010600" lon="7.4691600"><ele>200.5</ele></trkpt><trkpt lat="48.5006900" lon="7.4692900"><ele>199.9</ele></trkpt><trkpt lat="48.5000200" lon="7.4695100"><ele>199.3</ele></trkpt><trkpt lat="48.4993400" lon="7.4698800"><ele>198.8</ele></trkpt><trkpt lat="48.4992400" lon="7.4699300"><ele>197.8</ele></trkpt><trkpt lat="48.4991000" lon="7.4700100"><ele>197.2</ele></trkpt><trkpt lat="48.4988400" lon="7.4701700"><ele>197.2</ele></trkpt><trkpt lat="48.4988100" lon="7.4701900"><ele>197.0</ele></trkpt><trkpt lat="48.4987900" lon="7.4702000"><ele>196.8</ele></trkpt><trkpt lat="48.4987800" lon="7.4701800"><ele>196.7</ele></trkpt><trkpt lat="48.4987600" lon="7.4701600"><ele>197.0</ele></trkpt><trkpt lat="48.4987500" lon="7.4701500"><ele>197.1</ele></trkpt><trkpt lat="48.4987300" lon="7.4701400"><ele>197.4</ele></trkpt><trkpt lat="48.4987000" lon="7.4701500"><ele>197.6</ele></trkpt><trkpt lat="48.4986800" lon="7.4701700"><ele>197.8</ele></trkpt><trkpt lat="48.4986700" lon="7.4701500"><ele>197.9</ele></trkpt><trkpt lat="48.4986600" lon="7.4701400"><ele>197.9</ele></trkpt><trkpt lat="48.4985400" lon="7.4702200"><ele>197.9</ele></trkpt><trkpt lat="48.4985100" lon="7.4702600"><ele>197.3</ele></trkpt><trkpt lat="48.4984900" lon="7.4703300"><ele>196.7</ele></trkpt><trkpt lat="48.4978600" lon="7.4705600"><ele>196.1</ele></trkpt><trkpt lat="48.4977400" lon="7.4705900"><ele>195.5</ele></trkpt><trkpt lat="48.4977000" lon="7.4706000"><ele>195.2</ele></trkpt><trkpt lat="48.4976400" lon="7.4706000"><ele>195.7</ele></trkpt><trkpt lat="48.4975900" lon="7.4705700"><ele>196.0</ele></trkpt><trkpt lat="48.4973800" lon="7.4705000"><ele>196.3</ele></trkpt><trkpt lat="48.4973400" lon="7.4704600"><ele>196.5</ele></trkpt><trkpt lat="48.4972800" lon="7.4703600"><ele>196.4</ele></trkpt><trkpt lat="48.4972100" lon="7.4701900"><ele>196.4</ele></trkpt><trkpt lat="48.4971700" lon="7.4700800"><ele>196.3</ele></trkpt><trkpt lat="48.4970700" lon="7.4699900"><ele>196.2</ele></trkpt><trkpt lat="48.4969800" lon="7.4698100"><ele>196.1</ele></trkpt><trkpt lat="48.4969100" lon="7.4695900"><ele>196.3</ele></trkpt><trkpt lat="48.4968600" lon="7.4693100"><ele>196.3</ele></trkpt><trkpt lat="48.4967000" lon="7.4693600"><ele>196.2</ele></trkpt><trkpt lat="48.4965400" lon="7.4694200"><ele>196.0</ele></trkpt><trkpt lat="48.4963500" lon="7.4694900"><ele>196.0</ele></trkpt><trkpt lat="48.4963700" lon="7.4695800"><ele>195.4</ele></trkpt><trkpt lat="48.4964100" lon="7.4698000"><ele>195.0</ele></trkpt><trkpt lat="48.4964900" lon="7.4704000"><ele>194.4</ele></trkpt><trkpt lat="48.4965600" lon="7.4709800"><ele>193.5</ele></trkpt><trkpt lat="48.4965800" lon="7.4711300"><ele>193.3</ele></trkpt><trkpt lat="48.4966000" lon="7.4712200"><ele>193.2</ele></trkpt><trkpt lat="48.4966100" lon="7.4713000"><ele>193.1</ele></trkpt><trkpt lat="48.4966400" lon="7.4714800"><ele>192.8</ele></trkpt><trkpt lat="48.4966700" lon="7.4716000"><ele>192.6</ele></trkpt><trkpt lat="48.4967000" lon="7.4717600"><ele>192.5</ele></trkpt><trkpt lat="48.4967200" lon="7.4719200"><ele>192.3</ele></trkpt><trkpt lat="48.4967500" lon="7.4721200"><ele>192.1</ele></trkpt><trkpt lat="48.4967600" lon="7.4721600"><ele>191.6</ele></trkpt><trkpt lat="48.4968200" lon="7.4726300"><ele>190.4</ele></trkpt><trkpt lat="48.4968500" lon="7.4729200"><ele>189.3</ele></trkpt><trkpt lat="48.4968800" lon="7.4733700"><ele>188.2</ele></trkpt><trkpt lat="48.4968900" lon="7.4735000"><ele>187.0</ele></trkpt><trkpt lat="48.4969000" lon="7.4736500"><ele>186.9</ele></trkpt><trkpt lat="48.4969300" lon="7.4738800"><ele>186.8</ele></trkpt><trkpt lat="48.4969400" lon="7.4739700"><ele>186.7</ele></trkpt><trkpt lat="48.4969500" lon="7.4740000"><ele>186.7</ele></trkpt><trkpt lat="48.4970800" lon="7.4744200"><ele>186.4</ele></trkpt><trkpt lat="48.4971300" lon="7.4745800"><ele>186.0</ele></trkpt><trkpt lat="48.4972100" lon="7.4747900"><ele>185.7</ele></trkpt><trkpt lat="48.4975600" lon="7.4756000"><ele>185.4</ele></trkpt><trkpt lat="48.4979900" lon="7.4765800"><ele>184.8</ele></trkpt><trkpt lat="48.4980700" lon="7.4769200"><ele>185.1</ele></trkpt><trkpt lat="48.4981100" lon="7.4771600"><ele>185.8</ele></trkpt><trkpt lat="48.4982300" lon="7.4779800"><ele>186.0</ele></trkpt><trkpt lat="48.4982400" lon="7.4780900"><ele>186.4</ele></trkpt><trkpt lat="48.4982500" lon="7.4783000"><ele>186.9</ele></trkpt><trkpt lat="48.4983000" lon="7.4785200"><ele>186.6</ele></trkpt><trkpt lat="48.4982400" lon="7.4785300"><ele>186.2</ele></trkpt><trkpt lat="48.4980300" lon="7.4784300"><ele>186.2</ele></trkpt><trkpt lat="48.4978700" lon="7.4783500"><ele>185.7</ele></trkpt><trkpt lat="48.4976300" lon="7.4782800"><ele>185.1</ele></trkpt><trkpt lat="48.4973900" lon="7.4782300"><ele>184.6</ele></trkpt><trkpt lat="48.4972100" lon="7.4782000"><ele>183.9</ele></trkpt><trkpt lat="48.4971000" lon="7.4781900"><ele>183.6</ele></trkpt><trkpt lat="48.4970000" lon="7.4782100"><ele>184.2</ele></trkpt><trkpt lat="48.4967700" lon="7.4782300"><ele>185.1</ele></trkpt><trkpt lat="48.4964300" lon="7.4783200"><ele>186.2</ele></trkpt><trkpt lat="48.4963200" lon="7.4783500"><ele>187.3</ele></trkpt><trkpt lat="48.4961600" lon="7.4784200"><ele>188.9</ele></trkpt><trkpt lat="48.4960200" lon="7.4784800"><ele>189.1</ele></trkpt><trkpt lat="48.4959200" lon="7.4785300"><ele>189.1</ele></trkpt><trkpt lat="48.4958600" lon="7.4785800"><ele>189.0</ele></trkpt><trkpt lat="48.4958100" lon="7.4786400"><ele>189.0</ele></trkpt><trkpt lat="48.4957700" lon="7.4787300"><ele>188.6</ele></trkpt><trkpt lat="48.4957400" lon="7.4788500"><ele>189.1</ele></trkpt><trkpt lat="48.4956700" lon="7.4789000"><ele>189.6</ele></trkpt><trkpt lat="48.4956200" lon="7.4789300"><ele>190.0</ele></trkpt><trkpt lat="48.4955900" lon="7.4789400"><ele>190.3</ele></trkpt><trkpt lat="48.4955500" lon="7.4789400"><ele>190.0</ele></trkpt><trkpt lat="48.4955200" lon="7.4789200"><ele>189.7</ele></trkpt><trkpt lat="48.4954800" lon="7.4789200"><ele>190.6</ele></trkpt><trkpt lat="48.4954500" lon="7.4789300"><ele>190.4</ele></trkpt><trkpt lat="48.4954100" lon="7.4789600"><ele>190.3</ele></trkpt><trkpt lat="48.4953000" lon="7.4790600"><ele>190.1</ele></trkpt><trkpt lat="48.4952000" lon="7.4791700"><ele>191.0</ele></trkpt><trkpt lat="48.4949900" lon="7.4794200"><ele>189.8</ele></trkpt><trkpt lat="48.4948200" lon="7.4796600"><ele>190.0</ele></trkpt><trkpt lat="48.4946900" lon="7.4798300"><ele>191.2</ele></trkpt><trkpt lat="48.4945900" lon="7.4799800"><ele>191.6</ele></trkpt><trkpt lat="48.4945100" lon="7.4801200"><ele>191.2</ele></trkpt><trkpt lat="48.4944400" lon="7.4802700"><ele>192.1</ele></trkpt><trkpt lat="48.4943400" lon="7.4804700"><ele>192.6</ele></trkpt><trkpt lat="48.4942700" lon="7.4806400"><ele>192.0</ele></trkpt><trkpt lat="48.4942000" lon="7.4807900"><ele>192.3</ele></trkpt><trkpt lat="48.4941600" lon="7.4809200"><ele>192.4</ele></trkpt><trkpt lat="48.4940900" lon="7.4811600"><ele>192.0</ele></trkpt><trkpt lat="48.4940300" lon="7.4813600"><ele>191.9</ele></trkpt><trkpt lat="48.4939800" lon="7.4815800"><ele>191.7</ele></trkpt><trkpt lat="48.4939100" lon="7.4818400"><ele>191.6</ele></trkpt><trkpt lat="48.4938800" lon="7.4819800"><ele>191.2</ele></trkpt><trkpt lat="48.4937800" lon="7.4825900"><ele>191.8</ele></trkpt><trkpt lat="48.4935400" lon="7.4841200"><ele>192.1</ele></trkpt><trkpt lat="48.4931700" lon="7.4863600"><ele>192.7</ele></trkpt><trkpt lat="48.4930500" lon="7.4871100"><ele>193.4</ele></trkpt><trkpt lat="48.4930000" lon="7.4871200"><ele>194.2</ele></trkpt><trkpt lat="48.4929500" lon="7.4871200"><ele>194.5</ele></trkpt><trkpt lat="48.4929200" lon="7.4871300"><ele>195.5</ele></trkpt><trkpt lat="48.4916700" lon="7.4885800"><ele>196.2</ele></trkpt><trkpt lat="48.4913100" lon="7.4889600"><ele>196.8</ele></trkpt><trkpt lat="48.4905300" lon="7.4897000"><ele>197.3</ele></trkpt><trkpt lat="48.4904700" lon="7.4897400"><ele>197.8</ele></trkpt><trkpt lat="48.4904500" lon="7.4896600"><ele>197.7</ele></trkpt><trkpt lat="48.4898800" lon="7.4900400"><ele>197.9</ele></trkpt><trkpt lat="48.4891700" lon="7.4905600"><ele>198.1</ele></trkpt><trkpt lat="48.4889800" lon="7.4906700"><ele>198.1</ele></trkpt><trkpt lat="48.4887200" lon="7.4907400"><ele>197.8</ele></trkpt><trkpt lat="48.4885900" lon="7.4907700"><ele>197.6</ele></trkpt><trkpt lat="48.4882800" lon="7.4907500"><ele>197.6</ele></trkpt><trkpt lat="48.4880600" lon="7.4908300"><ele>197.3</ele></trkpt><trkpt lat="48.4876600" lon="7.4910500"><ele>197.4</ele></trkpt><trkpt lat="48.4871000" lon="7.4912600"><ele>197.6</ele></trkpt><trkpt lat="48.4870500" lon="7.4912800"><ele>197.7</ele></trkpt><trkpt lat="48.4870500" lon="7.4914100"><ele>197.6</ele></trkpt><trkpt lat="48.4870100" lon="7.4914400"><ele>198.1</ele></trkpt><trkpt lat="48.4868700" lon="7.4915200"><ele>198.5</ele></trkpt><trkpt lat="48.4867200" lon="7.4916100"><ele>199.2</ele></trkpt><trkpt lat="48.4866500" lon="7.4916600"><ele>199.9</ele></trkpt><trkpt lat="48.4861900" lon="7.4916900"><ele>200.4</ele></trkpt><trkpt lat="48.4861000" lon="7.4916700"><ele>201.0</ele></trkpt><trkpt lat="48.4859800" lon="7.4916000"><ele>201.4</ele></trkpt><trkpt lat="48.4859200" lon="7.4915800"><ele>201.5</ele></trkpt><trkpt lat="48.4858900" lon="7.4915700"><ele>201.5</ele></trkpt><trkpt lat="48.4857400" lon="7.4915200"><ele>201.6</ele></trkpt><trkpt lat="48.4853700" lon="7.4914700"><ele>201.6</ele></trkpt><trkpt lat="48.4848400" lon="7.4914800"><ele>201.7</ele></trkpt><trkpt lat="48.4845600" lon="7.4914900"><ele>201.6</ele></trkpt><trkpt lat="48.4845300" lon="7.4914900"><ele>201.2</ele></trkpt><trkpt lat="48.4844500" lon="7.4915000"><ele>200.7</ele></trkpt><trkpt lat="48.4844100" lon="7.4915500"><ele>200.3</ele></trkpt><trkpt lat="48.4843400" lon="7.4916100"><ele>200.0</ele></trkpt><trkpt lat="48.4843000" lon="7.4916200"><ele>199.1</ele></trkpt><trkpt lat="48.4836200" lon="7.4919300"><ele>198.7</ele></trkpt><trkpt lat="48.4832000" lon="7.4920400"><ele>198.5</ele></trkpt><trkpt lat="48.4831800" lon="7.4920500"><ele>198.3</ele></trkpt><trkpt lat="48.4828900" lon="7.4920400"><ele>197.8</ele></trkpt><trkpt lat="48.4822200" lon="7.4919200"><ele>198.3</ele></trkpt><trkpt lat="48.4818400" lon="7.4918600"><ele>198.0</ele></trkpt><trkpt lat="48.4806600" lon="7.4919300"><ele>197.5</ele></trkpt><trkpt lat="48.4800500" lon="7.4919500"><ele>196.7</ele></trkpt><trkpt lat="48.4795300" lon="7.4920000"><ele>196.3</ele></trkpt><trkpt lat="48.4790800" lon="7.4921600"><ele>195.4</ele></trkpt><trkpt lat="48.4788700" lon="7.4922600"><ele>195.6</ele></trkpt><trkpt lat="48.4786300" lon="7.4923800"><ele>196.4</ele></trkpt><trkpt lat="48.4782900" lon="7.4925500"><ele>197.3</ele></trkpt><trkpt lat="48.4777600" lon="7.4929200"><ele>198.2</ele></trkpt><trkpt lat="48.4775400" lon="7.4930300"><ele>199.4</ele></trkpt><trkpt lat="48.4774200" lon="7.4930500"><ele>200.3</ele></trkpt><trkpt lat="48.4773300" lon="7.4930400"><ele>201.2</ele></trkpt><trkpt lat="48.4771000" lon="7.4929500"><ele>202.0</ele></trkpt><trkpt lat="48.4768300" lon="7.4927400"><ele>203.1</ele></trkpt><trkpt lat="48.4766000" lon="7.4924900"><ele>204.1</ele></trkpt><trkpt lat="48.4761600" lon="7.4918500"><ele>205.1</ele></trkpt><trkpt lat="48.4759200" lon="7.4915400"><ele>205.9</ele></trkpt><trkpt lat="48.4755400" lon="7.4911500"><ele>206.3</ele></trkpt><trkpt lat="48.4753800" lon="7.4910100"><ele>206.3</ele></trkpt><trkpt lat="48.4750400" lon="7.4907500"><ele>205.6</ele></trkpt><trkpt lat="48.4748500" lon="7.4906500"><ele>204.6</ele></trkpt><trkpt lat="48.4743600" lon="7.4905000"><ele>203.1</ele></trkpt><trkpt lat="48.4740700" lon="7.4903700"><ele>201.4</ele></trkpt><trkpt lat="48.4738000" lon="7.4901700"><ele>199.7</ele></trkpt><trkpt lat="48.4734500" lon="7.4898100"><ele>198.5</ele></trkpt><trkpt lat="48.4732700" lon="7.4895500"><ele>197.4</ele></trkpt><trkpt lat="48.4731100" lon="7.4893800"><ele>196.5</ele></trkpt><trkpt lat="48.4728500" lon="7.4892000"><ele>196.2</ele></trkpt><trkpt lat="48.4726600" lon="7.4891000"><ele>196.4</ele></trkpt><trkpt lat="48.4723900" lon="7.4889900"><ele>196.6</ele></trkpt><trkpt lat="48.4721900" lon="7.4889700"><ele>197.3</ele></trkpt><trkpt lat="48.4719100" lon="7.4890100"><ele>197.8</ele></trkpt><trkpt lat="48.4714300" lon="7.4890100"><ele>198.1</ele></trkpt><trkpt lat="48.4705100" lon="7.4889400"><ele>198.2</ele></trkpt><trkpt lat="48.4702400" lon="7.4888700"><ele>198.6</ele></trkpt><trkpt lat="48.4701200" lon="7.4888200"><ele>198.4</ele></trkpt><trkpt lat="48.4698000" lon="7.4884600"><ele>199.0</ele></trkpt><trkpt lat="48.4696600" lon="7.4882500"><ele>199.6</ele></trkpt><trkpt lat="48.4694800" lon="7.4880400"><ele>200.4</ele></trkpt><trkpt lat="48.4692700" lon="7.4877900"><ele>201.3</ele></trkpt><trkpt lat="48.4688100" lon="7.4873400"><ele>202.7</ele></trkpt><trkpt lat="48.4682000" lon="7.4868000"><ele>204.0</ele></trkpt><trkpt lat="48.4676800" lon="7.4862200"><ele>205.4</ele></trkpt><trkpt lat="48.4674500" lon="7.4859600"><ele>207.3</ele></trkpt><trkpt lat="48.4672100" lon="7.4857200"><ele>208.6</ele></trkpt><trkpt lat="48.4671700" lon="7.4856600"><ele>209.6</ele></trkpt><trkpt lat="48.4671300" lon="7.4856600"><ele>210.9</ele></trkpt><trkpt lat="48.4671000" lon="7.4856600"><ele>211.6</ele></trkpt><trkpt lat="48.4670600" lon="7.4856300"><ele>211.5</ele></trkpt><trkpt lat="48.4665800" lon="7.4852700"><ele>211.3</ele></trkpt><trkpt lat="48.4661700" lon="7.4849900"><ele>210.1</ele></trkpt><trkpt lat="48.4655500" lon="7.4845700"><ele>208.3</ele></trkpt><trkpt lat="48.4651300" lon="7.4842500"><ele>205.3</ele></trkpt><trkpt lat="48.4648900" lon="7.4840300"><ele>202.5</ele></trkpt><trkpt lat="48.4645700" lon="7.4837300"><ele>199.4</ele></trkpt><trkpt lat="48.4645100" lon="7.4836600"><ele>197.6</ele></trkpt><trkpt lat="48.4644400" lon="7.4835600"><ele>195.1</ele></trkpt><trkpt lat="48.4643700" lon="7.4834400"><ele>194.4</ele></trkpt><trkpt lat="48.4643000" lon="7.4833200"><ele>193.0</ele></trkpt><trkpt lat="48.4642200" lon="7.4832400"><ele>192.4</ele></trkpt><trkpt lat="48.4641900" lon="7.4831600"><ele>191.5</ele></trkpt><trkpt lat="48.4642500" lon="7.4838200"><ele>191.1</ele></trkpt><trkpt lat="48.4642200" lon="7.4838200"><ele>190.2</ele></trkpt><trkpt lat="48.4641700" lon="7.4838200"><ele>189.7</ele></trkpt><trkpt lat="48.4639500" lon="7.4838100"><ele>189.2</ele></trkpt><trkpt lat="48.4637300" lon="7.4838100"><ele>188.6</ele></trkpt><trkpt lat="48.4635300" lon="7.4837400"><ele>188.0</ele></trkpt><trkpt lat="48.4634400" lon="7.4837200"><ele>187.9</ele></trkpt><trkpt lat="48.4633300" lon="7.4836800"><ele>187.9</ele></trkpt><trkpt lat="48.4630550" lon="7.4827770"><ele>187.9</ele></trkpt></trkseg></trk></gpx>