<?xml version="1.0" encoding="UTF-8"?>
<gpx xmlns:gpxdata="http://www.cluetrust.com/XML/GPXDATA/1/0" xmlns:xsi="http://www.w3.org/2001/XMLSchema-instance" xmlns="http://www.topografix.com/GPX/1/1" version="1.1" creator="http://ridewithgps.com/" xsi:schemaLocation="http://www.topografix.com/GPX/1/1 http://www.topografix.com/GPX/1/1/gpx.xsd http://www.cluetrust.com/XML/GPXDATA/1/0 http://www.cluetrust.com/Schemas/gpxdata10.xsd">
  <metadata>
    <name>Jour 11 - Dole @ Dijon</name>
    <link href="https://ridewithgps.com/routes/56222465">
      <text>Jour 11 - Dole @ Dijon</text>
    </link>
    <time>2026-07-20T08:23:32Z</time>
  </metadata>
  <trk>
    <name>Jour 11 - Dole @ Dijon</name>
    <trkseg>
      <trkpt lat="47.09424" lon="5.497">
        <ele>222.3</ele>
      </trkpt>
      <trkpt lat="47.09415" lon="5.49714">
        <ele>221.0</ele>
      </trkpt>
      <trkpt lat="47.09403" lon="5.49753">
        <ele>217.8</ele>
      </trkpt>
      <trkpt lat="47.09399" lon="5.49751">
        <ele>217.5</ele>
      </trkpt>
      <trkpt lat="47.09387" lon="5.49794">
        <ele>214.7</ele>
      </trkpt>
      <trkpt lat="47.09365" lon="5.49882">
        <ele>209.4</ele>
      </trkpt>
      <trkpt lat="47.09361" lon="5.49892">
        <ele>208.6</ele>
      </trkpt>
      <trkpt lat="47.09363" lon="5.49895">
        <ele>208.9</ele>
      </trkpt>
      <trkpt lat="47.09374" lon="5.49927">
        <ele>209.9</ele>
      </trkpt>
      <trkpt lat="47.09377" lon="5.49938">
        <ele>209.9</ele>
      </trkpt>
      <trkpt lat="47.09379" lon="5.4995">
        <ele>209.7</ele>
      </trkpt>
      <trkpt lat="47.09375" lon="5.49951">
        <ele>209.1</ele>
      </trkpt>
      <trkpt lat="47.09373" lon="5.49939">
        <ele>209.3</ele>
      </trkpt>
      <trkpt lat="47.09362" lon="5.49909">
        <ele>208.6</ele>
      </trkpt>
      <trkpt lat="47.0936" lon="5.49908">
        <ele>208.3</ele>
      </trkpt>
      <trkpt lat="47.09358" lon="5.49908">
        <ele>208.0</ele>
      </trkpt>
      <trkpt lat="47.09354" lon="5.49911">
        <ele>207.4</ele>
      </trkpt>
      <trkpt lat="47.09335" lon="5.49934">
        <ele>203.8</ele>
      </trkpt>
      <trkpt lat="47.09332" lon="5.49938">
        <ele>203.5</ele>
      </trkpt>
      <trkpt lat="47.0933" lon="5.49942">
        <ele>203.5</ele>
      </trkpt>
      <trkpt lat="47.09329" lon="5.49948">
        <ele>203.3</ele>
      </trkpt>
      <trkpt lat="47.09329" lon="5.49958">
        <ele>203.1</ele>
      </trkpt>
      <trkpt lat="47.09332" lon="5.49972">
        <ele>202.7</ele>
      </trkpt>
      <trkpt lat="47.09333" lon="5.49979">
        <ele>202.5</ele>
      </trkpt>
      <trkpt lat="47.0933" lon="5.49995">
        <ele>202.2</ele>
      </trkpt>
      <trkpt lat="47.09333" lon="5.49995">
        <ele>202.1</ele>
      </trkpt>
      <trkpt lat="47.09338" lon="5.49981">
        <ele>203.0</ele>
      </trkpt>
      <trkpt lat="47.0934" lon="5.49964">
        <ele>203.7</ele>
      </trkpt>
      <trkpt lat="47.09341" lon="5.49942">
        <ele>204.6</ele>
      </trkpt>
      <trkpt lat="47.09339" lon="5.49934">
        <ele>204.5</ele>
      </trkpt>
      <trkpt lat="47.09331" lon="5.49919">
        <ele>204.0</ele>
      </trkpt>
      <trkpt lat="47.09326" lon="5.49913">
        <ele>204.3</ele>
      </trkpt>
      <trkpt lat="47.0932" lon="5.49912">
        <ele>204.4</ele>
      </trkpt>
      <trkpt lat="47.09316" lon="5.49913">
        <ele>204.5</ele>
      </trkpt>
      <trkpt lat="47.09306" lon="5.49892">
        <ele>204.9</ele>
      </trkpt>
      <trkpt lat="47.09289" lon="5.49862">
        <ele>205.0</ele>
      </trkpt>
      <trkpt lat="47.09278" lon="5.49844">
        <ele>204.7</ele>
      </trkpt>
      <trkpt lat="47.09212" lon="5.49787">
        <ele>202.5</ele>
      </trkpt>
      <trkpt lat="47.09147" lon="5.49731">
        <ele>201.4</ele>
      </trkpt>
      <trkpt lat="47.09082" lon="5.49674">
        <ele>201.0</ele>
      </trkpt>
      <trkpt lat="47.09069" lon="5.49662">
        <ele>201.1</ele>
      </trkpt>
      <trkpt lat="47.0905" lon="5.49649">
        <ele>201.3</ele>
      </trkpt>
      <trkpt lat="47.09002" lon="5.4962">
        <ele>200.5</ele>
      </trkpt>
      <trkpt lat="47.08955" lon="5.4959">
        <ele>200.1</ele>
      </trkpt>
      <trkpt lat="47.0895" lon="5.49584">
        <ele>200.0</ele>
      </trkpt>
      <trkpt lat="47.08939" lon="5.49565">
        <ele>200.3</ele>
      </trkpt>
      <trkpt lat="47.08916" lon="5.49521">
        <ele>200.7</ele>
      </trkpt>
      <trkpt lat="47.08914" lon="5.49513">
        <ele>200.8</ele>
      </trkpt>
      <trkpt lat="47.08911" lon="5.49492">
        <ele>200.9</ele>
      </trkpt>
      <trkpt lat="47.08905" lon="5.49431">
        <ele>200.8</ele>
      </trkpt>
      <trkpt lat="47.089" lon="5.4941">
        <ele>200.8</ele>
      </trkpt>
      <trkpt lat="47.08877" lon="5.49339">
        <ele>201.4</ele>
      </trkpt>
      <trkpt lat="47.0887" lon="5.49313">
        <ele>201.7</ele>
      </trkpt>
      <trkpt lat="47.08861" lon="5.49283">
        <ele>202.0</ele>
      </trkpt>
      <trkpt lat="47.0886" lon="5.49276">
        <ele>202.0</ele>
      </trkpt>
      <trkpt lat="47.08861" lon="5.49274">
        <ele>202.0</ele>
      </trkpt>
      <trkpt lat="47.08863" lon="5.49273">
        <ele>202.0</ele>
      </trkpt>
      <trkpt lat="47.0887" lon="5.49268">
        <ele>201.9</ele>
      </trkpt>
      <trkpt lat="47.08875" lon="5.49264">
        <ele>201.9</ele>
      </trkpt>
      <trkpt lat="47.08877" lon="5.49261">
        <ele>201.9</ele>
      </trkpt>
      <trkpt lat="47.08877" lon="5.49254">
        <ele>202.0</ele>
      </trkpt>
      <trkpt lat="47.08874" lon="5.49244">
        <ele>202.7</ele>
      </trkpt>
      <trkpt lat="47.08859" lon="5.49214">
        <ele>205.3</ele>
      </trkpt>
      <trkpt lat="47.08845" lon="5.49185">
        <ele>207.2</ele>
      </trkpt>
      <trkpt lat="47.08844" lon="5.49183">
        <ele>207.3</ele>
      </trkpt>
      <trkpt lat="47.08787" lon="5.49148">
        <ele>207.9</ele>
      </trkpt>
      <trkpt lat="47.08769" lon="5.49131">
        <ele>208.3</ele>
      </trkpt>
      <trkpt lat="47.08756" lon="5.49116">
        <ele>208.5</ele>
      </trkpt>
      <trkpt lat="47.08741" lon="5.49097">
        <ele>208.1</ele>
      </trkpt>
      <trkpt lat="47.08735" lon="5.49086">
        <ele>207.9</ele>
      </trkpt>
      <trkpt lat="47.08725" lon="5.49058">
        <ele>208.2</ele>
      </trkpt>
      <trkpt lat="47.08714" lon="5.4903">
        <ele>208.2</ele>
      </trkpt>
      <trkpt lat="47.08678" lon="5.48947">
        <ele>205.5</ele>
      </trkpt>
      <trkpt lat="47.08642" lon="5.48864">
        <ele>208.6</ele>
      </trkpt>
      <trkpt lat="47.08606" lon="5.48782">
        <ele>208.9</ele>
      </trkpt>
      <trkpt lat="47.08578" lon="5.4872">
        <ele>206.2</ele>
      </trkpt>
      <trkpt lat="47.08565" lon="5.48695">
        <ele>205.9</ele>
      </trkpt>
      <trkpt lat="47.08555" lon="5.48676">
        <ele>205.6</ele>
      </trkpt>
      <trkpt lat="47.0852" lon="5.48624">
        <ele>205.9</ele>
      </trkpt>
      <trkpt lat="47.08478" lon="5.48557">
        <ele>207.2</ele>
      </trkpt>
      <trkpt lat="47.08437" lon="5.4849">
        <ele>205.9</ele>
      </trkpt>
      <trkpt lat="47.08411" lon="5.48444">
        <ele>205.2</ele>
      </trkpt>
      <trkpt lat="47.08384" lon="5.48399">
        <ele>205.1</ele>
      </trkpt>
      <trkpt lat="47.08365" lon="5.4837">
        <ele>204.7</ele>
      </trkpt>
      <trkpt lat="47.08354" lon="5.48356">
        <ele>204.1</ele>
      </trkpt>
      <trkpt lat="47.08325" lon="5.48324">
        <ele>202.2</ele>
      </trkpt>
      <trkpt lat="47.08284" lon="5.48286">
        <ele>201.7</ele>
      </trkpt>
      <trkpt lat="47.08275" lon="5.48268">
        <ele>201.6</ele>
      </trkpt>
      <trkpt lat="47.08238" lon="5.48206">
        <ele>202.4</ele>
      </trkpt>
      <trkpt lat="47.08201" lon="5.48144">
        <ele>205.0</ele>
      </trkpt>
      <trkpt lat="47.08193" lon="5.48132">
        <ele>205.1</ele>
      </trkpt>
      <trkpt lat="47.08173" lon="5.48108">
        <ele>204.3</ele>
      </trkpt>
      <trkpt lat="47.08117" lon="5.48043">
        <ele>202.1</ele>
      </trkpt>
      <trkpt lat="47.08106" lon="5.48036">
        <ele>201.4</ele>
      </trkpt>
      <trkpt lat="47.08079" lon="5.48008">
        <ele>199.8</ele>
      </trkpt>
      <trkpt lat="47.08046" lon="5.47978">
        <ele>200.3</ele>
      </trkpt>
      <trkpt lat="47.08037" lon="5.47966">
        <ele>200.4</ele>
      </trkpt>
      <trkpt lat="47.08023" lon="5.47945">
        <ele>200.4</ele>
      </trkpt>
      <trkpt lat="47.07988" lon="5.47887">
        <ele>199.9</ele>
      </trkpt>
      <trkpt lat="47.07953" lon="5.47828">
        <ele>199.6</ele>
      </trkpt>
      <trkpt lat="47.07895" lon="5.47737">
        <ele>199.0</ele>
      </trkpt>
      <trkpt lat="47.07862" lon="5.47687">
        <ele>199.5</ele>
      </trkpt>
      <trkpt lat="47.07853" lon="5.47678">
        <ele>198.9</ele>
      </trkpt>
      <trkpt lat="47.07843" lon="5.47664">
        <ele>198.1</ele>
      </trkpt>
      <trkpt lat="47.07789" lon="5.47576">
        <ele>197.7</ele>
      </trkpt>
      <trkpt lat="47.07738" lon="5.47496">
        <ele>196.1</ele>
      </trkpt>
      <trkpt lat="47.07704" lon="5.47443">
        <ele>197.8</ele>
      </trkpt>
      <trkpt lat="47.07671" lon="5.47391">
        <ele>200.7</ele>
      </trkpt>
      <trkpt lat="47.07616" lon="5.47302">
        <ele>205.1</ele>
      </trkpt>
      <trkpt lat="47.07608" lon="5.47291">
        <ele>205.5</ele>
      </trkpt>
      <trkpt lat="47.07598" lon="5.47277">
        <ele>205.5</ele>
      </trkpt>
      <trkpt lat="47.07587" lon="5.47266">
        <ele>205.2</ele>
      </trkpt>
      <trkpt lat="47.07558" lon="5.47244">
        <ele>204.8</ele>
      </trkpt>
      <trkpt lat="47.07505" lon="5.47199">
        <ele>205.1</ele>
      </trkpt>
      <trkpt lat="47.07461" lon="5.47165">
        <ele>204.8</ele>
      </trkpt>
      <trkpt lat="47.07417" lon="5.47131">
        <ele>204.0</ele>
      </trkpt>
      <trkpt lat="47.07365" lon="5.4709">
        <ele>203.8</ele>
      </trkpt>
      <trkpt lat="47.07312" lon="5.47049">
        <ele>204.9</ele>
      </trkpt>
      <trkpt lat="47.07294" lon="5.47031">
        <ele>205.2</ele>
      </trkpt>
      <trkpt lat="47.07271" lon="5.47026">
        <ele>203.4</ele>
      </trkpt>
      <trkpt lat="47.07265" lon="5.47022">
        <ele>203.2</ele>
      </trkpt>
      <trkpt lat="47.07256" lon="5.47007">
        <ele>203.3</ele>
      </trkpt>
      <trkpt lat="47.07248" lon="5.46997">
        <ele>203.1</ele>
      </trkpt>
      <trkpt lat="47.07238" lon="5.4699">
        <ele>203.1</ele>
      </trkpt>
      <trkpt lat="47.07206" lon="5.46965">
        <ele>203.8</ele>
      </trkpt>
      <trkpt lat="47.07193" lon="5.46952">
        <ele>204.4</ele>
      </trkpt>
      <trkpt lat="47.07184" lon="5.46939">
        <ele>205.3</ele>
      </trkpt>
      <trkpt lat="47.07181" lon="5.46931">
        <ele>206.1</ele>
      </trkpt>
      <trkpt lat="47.07103" lon="5.46868">
        <ele>206.1</ele>
      </trkpt>
      <trkpt lat="47.07025" lon="5.46805">
        <ele>204.1</ele>
      </trkpt>
      <trkpt lat="47.06946" lon="5.46742">
        <ele>203.1</ele>
      </trkpt>
      <trkpt lat="47.06878" lon="5.46691">
        <ele>201.1</ele>
      </trkpt>
      <trkpt lat="47.06825" lon="5.46649">
        <ele>198.5</ele>
      </trkpt>
      <trkpt lat="47.068" lon="5.46633">
        <ele>198.4</ele>
      </trkpt>
      <trkpt lat="47.0678" lon="5.46624">
        <ele>197.9</ele>
      </trkpt>
      <trkpt lat="47.06771" lon="5.46619">
        <ele>197.6</ele>
      </trkpt>
      <trkpt lat="47.06694" lon="5.46558">
        <ele>198.2</ele>
      </trkpt>
      <trkpt lat="47.06673" lon="5.46543">
        <ele>198.0</ele>
      </trkpt>
      <trkpt lat="47.0663" lon="5.4651">
        <ele>198.3</ele>
      </trkpt>
      <trkpt lat="47.06588" lon="5.46478">
        <ele>198.8</ele>
      </trkpt>
      <trkpt lat="47.06524" lon="5.46425">
        <ele>196.9</ele>
      </trkpt>
      <trkpt lat="47.0647" lon="5.46383">
        <ele>196.8</ele>
      </trkpt>
      <trkpt lat="47.06417" lon="5.46341">
        <ele>196.8</ele>
      </trkpt>
      <trkpt lat="47.06363" lon="5.463">
        <ele>196.8</ele>
      </trkpt>
      <trkpt lat="47.06336" lon="5.46271">
        <ele>196.8</ele>
      </trkpt>
      <trkpt lat="47.06293" lon="5.46238">
        <ele>197.8</ele>
      </trkpt>
      <trkpt lat="47.06251" lon="5.46204">
        <ele>199.1</ele>
      </trkpt>
      <trkpt lat="47.06238" lon="5.46196">
        <ele>199.1</ele>
      </trkpt>
      <trkpt lat="47.06206" lon="5.46179">
        <ele>199.5</ele>
      </trkpt>
      <trkpt lat="47.06161" lon="5.46147">
        <ele>200.1</ele>
      </trkpt>
      <trkpt lat="47.06126" lon="5.46119">
        <ele>199.7</ele>
      </trkpt>
      <trkpt lat="47.06118" lon="5.46113">
        <ele>199.6</ele>
      </trkpt>
      <trkpt lat="47.06102" lon="5.46109">
        <ele>199.4</ele>
      </trkpt>
      <trkpt lat="47.06095" lon="5.46106">
        <ele>199.4</ele>
      </trkpt>
      <trkpt lat="47.0609" lon="5.46099">
        <ele>199.5</ele>
      </trkpt>
      <trkpt lat="47.06074" lon="5.46077">
        <ele>199.6</ele>
      </trkpt>
      <trkpt lat="47.06053" lon="5.46039">
        <ele>198.8</ele>
      </trkpt>
      <trkpt lat="47.06045" lon="5.46018">
        <ele>198.6</ele>
      </trkpt>
      <trkpt lat="47.06013" lon="5.4591">
        <ele>197.3</ele>
      </trkpt>
      <trkpt lat="47.05981" lon="5.45802">
        <ele>196.6</ele>
      </trkpt>
      <trkpt lat="47.05948" lon="5.457">
        <ele>196.9</ele>
      </trkpt>
      <trkpt lat="47.0593" lon="5.45642">
        <ele>197.5</ele>
      </trkpt>
      <trkpt lat="47.05905" lon="5.45566">
        <ele>197.1</ele>
      </trkpt>
      <trkpt lat="47.05885" lon="5.45499">
        <ele>197.0</ele>
      </trkpt>
      <trkpt lat="47.05849" lon="5.45385">
        <ele>198.4</ele>
      </trkpt>
      <trkpt lat="47.05813" lon="5.45271">
        <ele>197.6</ele>
      </trkpt>
      <trkpt lat="47.05778" lon="5.45157">
        <ele>196.9</ele>
      </trkpt>
      <trkpt lat="47.05742" lon="5.45043">
        <ele>195.9</ele>
      </trkpt>
      <trkpt lat="47.05706" lon="5.44928">
        <ele>195.9</ele>
      </trkpt>
      <trkpt lat="47.0567" lon="5.44814">
        <ele>195.0</ele>
      </trkpt>
      <trkpt lat="47.05634" lon="5.447">
        <ele>195.2</ele>
      </trkpt>
      <trkpt lat="47.05599" lon="5.44586">
        <ele>195.0</ele>
      </trkpt>
      <trkpt lat="47.05577" lon="5.44518">
        <ele>194.3</ele>
      </trkpt>
      <trkpt lat="47.05555" lon="5.44451">
        <ele>194.7</ele>
      </trkpt>
      <trkpt lat="47.05547" lon="5.44418">
        <ele>195.0</ele>
      </trkpt>
      <trkpt lat="47.05546" lon="5.44408">
        <ele>195.1</ele>
      </trkpt>
      <trkpt lat="47.05546" lon="5.44388">
        <ele>195.2</ele>
      </trkpt>
      <trkpt lat="47.0555" lon="5.44364">
        <ele>195.4</ele>
      </trkpt>
      <trkpt lat="47.05556" lon="5.44346">
        <ele>195.6</ele>
      </trkpt>
      <trkpt lat="47.05565" lon="5.4433">
        <ele>195.8</ele>
      </trkpt>
      <trkpt lat="47.056" lon="5.4428">
        <ele>196.4</ele>
      </trkpt>
      <trkpt lat="47.05609" lon="5.44272">
        <ele>196.4</ele>
      </trkpt>
      <trkpt lat="47.05619" lon="5.44262">
        <ele>196.4</ele>
      </trkpt>
      <trkpt lat="47.05626" lon="5.44258">
        <ele>196.4</ele>
      </trkpt>
      <trkpt lat="47.05625" lon="5.4425">
        <ele>196.5</ele>
      </trkpt>
      <trkpt lat="47.05626" lon="5.44247">
        <ele>196.5</ele>
      </trkpt>
      <trkpt lat="47.05633" lon="5.44229">
        <ele>196.1</ele>
      </trkpt>
      <trkpt lat="47.05651" lon="5.44204">
        <ele>195.3</ele>
      </trkpt>
      <trkpt lat="47.05665" lon="5.44205">
        <ele>194.9</ele>
      </trkpt>
      <trkpt lat="47.05673" lon="5.44197">
        <ele>194.7</ele>
      </trkpt>
      <trkpt lat="47.05692" lon="5.44173">
        <ele>194.4</ele>
      </trkpt>
      <trkpt lat="47.05748" lon="5.44099">
        <ele>195.0</ele>
      </trkpt>
      <trkpt lat="47.05805" lon="5.44026">
        <ele>194.3</ele>
      </trkpt>
      <trkpt lat="47.05861" lon="5.43953">
        <ele>193.4</ele>
      </trkpt>
      <trkpt lat="47.05866" lon="5.43946">
        <ele>193.4</ele>
      </trkpt>
      <trkpt lat="47.05876" lon="5.43928">
        <ele>193.4</ele>
      </trkpt>
      <trkpt lat="47.05887" lon="5.43909">
        <ele>193.5</ele>
      </trkpt>
      <trkpt lat="47.05902" lon="5.4389">
        <ele>193.8</ele>
      </trkpt>
      <trkpt lat="47.05924" lon="5.43864">
        <ele>194.2</ele>
      </trkpt>
      <trkpt lat="47.05937" lon="5.43846">
        <ele>194.5</ele>
      </trkpt>
      <trkpt lat="47.05951" lon="5.43823">
        <ele>194.8</ele>
      </trkpt>
      <trkpt lat="47.05956" lon="5.43813">
        <ele>195.0</ele>
      </trkpt>
      <trkpt lat="47.05961" lon="5.438">
        <ele>195.3</ele>
      </trkpt>
      <trkpt lat="47.05973" lon="5.43757">
        <ele>196.5</ele>
      </trkpt>
      <trkpt lat="47.05973" lon="5.43656">
        <ele>195.1</ele>
      </trkpt>
      <trkpt lat="47.05971" lon="5.43648">
        <ele>195.0</ele>
      </trkpt>
      <trkpt lat="47.0597" lon="5.43642">
        <ele>194.9</ele>
      </trkpt>
      <trkpt lat="47.05968" lon="5.43529">
        <ele>193.1</ele>
      </trkpt>
      <trkpt lat="47.05969" lon="5.4341">
        <ele>193.1</ele>
      </trkpt>
      <trkpt lat="47.05968" lon="5.43308">
        <ele>193.9</ele>
      </trkpt>
      <trkpt lat="47.05968" lon="5.43206">
        <ele>193.4</ele>
      </trkpt>
      <trkpt lat="47.05969" lon="5.43105">
        <ele>193.2</ele>
      </trkpt>
      <trkpt lat="47.05969" lon="5.43004">
        <ele>195.1</ele>
      </trkpt>
      <trkpt lat="47.05966" lon="5.42982">
        <ele>195.3</ele>
      </trkpt>
      <trkpt lat="47.05961" lon="5.42962">
        <ele>195.3</ele>
      </trkpt>
      <trkpt lat="47.05961" lon="5.42946">
        <ele>195.4</ele>
      </trkpt>
      <trkpt lat="47.05968" lon="5.42914">
        <ele>195.8</ele>
      </trkpt>
      <trkpt lat="47.05968" lon="5.42808">
        <ele>194.3</ele>
      </trkpt>
      <trkpt lat="47.05968" lon="5.42703">
        <ele>193.7</ele>
      </trkpt>
      <trkpt lat="47.05969" lon="5.42675">
        <ele>193.7</ele>
      </trkpt>
      <trkpt lat="47.06034" lon="5.42676">
        <ele>194.6</ele>
      </trkpt>
      <trkpt lat="47.06092" lon="5.42676">
        <ele>195.1</ele>
      </trkpt>
      <trkpt lat="47.0615" lon="5.42676">
        <ele>194.5</ele>
      </trkpt>
      <trkpt lat="47.06201" lon="5.42675">
        <ele>195.0</ele>
      </trkpt>
      <trkpt lat="47.06251" lon="5.42674">
        <ele>196.2</ele>
      </trkpt>
      <trkpt lat="47.06269" lon="5.42673">
        <ele>197.2</ele>
      </trkpt>
      <trkpt lat="47.06282" lon="5.42671">
        <ele>197.9</ele>
      </trkpt>
      <trkpt lat="47.06283" lon="5.42647">
        <ele>198.4</ele>
      </trkpt>
      <trkpt lat="47.06278" lon="5.42625">
        <ele>198.7</ele>
      </trkpt>
      <trkpt lat="47.06256" lon="5.42544">
        <ele>199.3</ele>
      </trkpt>
      <trkpt lat="47.06234" lon="5.42462">
        <ele>200.2</ele>
      </trkpt>
      <trkpt lat="47.06209" lon="5.42365">
        <ele>200.3</ele>
      </trkpt>
      <trkpt lat="47.06183" lon="5.42268">
        <ele>199.0</ele>
      </trkpt>
      <trkpt lat="47.06181" lon="5.42256">
        <ele>198.7</ele>
      </trkpt>
      <trkpt lat="47.0618" lon="5.42241">
        <ele>198.6</ele>
      </trkpt>
      <trkpt lat="47.06179" lon="5.42168">
        <ele>198.6</ele>
      </trkpt>
      <trkpt lat="47.0618" lon="5.42077">
        <ele>202.4</ele>
      </trkpt>
      <trkpt lat="47.06183" lon="5.42015">
        <ele>203.7</ele>
      </trkpt>
      <trkpt lat="47.06185" lon="5.41994">
        <ele>204.0</ele>
      </trkpt>
      <trkpt lat="47.06201" lon="5.41903">
        <ele>204.2</ele>
      </trkpt>
      <trkpt lat="47.06215" lon="5.41826">
        <ele>205.2</ele>
      </trkpt>
      <trkpt lat="47.06229" lon="5.4175">
        <ele>208.4</ele>
      </trkpt>
      <trkpt lat="47.06238" lon="5.41713">
        <ele>209.6</ele>
      </trkpt>
      <trkpt lat="47.06254" lon="5.41668">
        <ele>211.1</ele>
      </trkpt>
      <trkpt lat="47.06265" lon="5.41634">
        <ele>210.0</ele>
      </trkpt>
      <trkpt lat="47.06272" lon="5.41609">
        <ele>209.0</ele>
      </trkpt>
      <trkpt lat="47.06277" lon="5.41601">
        <ele>208.8</ele>
      </trkpt>
      <trkpt lat="47.06284" lon="5.41585">
        <ele>208.3</ele>
      </trkpt>
      <trkpt lat="47.06292" lon="5.41575">
        <ele>208.4</ele>
      </trkpt>
      <trkpt lat="47.06295" lon="5.41571">
        <ele>208.4</ele>
      </trkpt>
      <trkpt lat="47.06312" lon="5.41583">
        <ele>209.2</ele>
      </trkpt>
      <trkpt lat="47.06334" lon="5.41595">
        <ele>210.6</ele>
      </trkpt>
      <trkpt lat="47.06356" lon="5.416">
        <ele>211.2</ele>
      </trkpt>
      <trkpt lat="47.06372" lon="5.416">
        <ele>211.5</ele>
      </trkpt>
      <trkpt lat="47.06389" lon="5.41598">
        <ele>211.8</ele>
      </trkpt>
      <trkpt lat="47.06401" lon="5.41594">
        <ele>211.9</ele>
      </trkpt>
      <trkpt lat="47.06487" lon="5.41557">
        <ele>213.0</ele>
      </trkpt>
      <trkpt lat="47.06572" lon="5.41519">
        <ele>211.2</ele>
      </trkpt>
      <trkpt lat="47.06658" lon="5.41481">
        <ele>208.5</ele>
      </trkpt>
      <trkpt lat="47.06679" lon="5.41475">
        <ele>208.6</ele>
      </trkpt>
      <trkpt lat="47.067" lon="5.41476">
        <ele>209.2</ele>
      </trkpt>
      <trkpt lat="47.06707" lon="5.41478">
        <ele>209.4</ele>
      </trkpt>
      <trkpt lat="47.06713" lon="5.41483">
        <ele>209.4</ele>
      </trkpt>
      <trkpt lat="47.06715" lon="5.41487">
        <ele>209.4</ele>
      </trkpt>
      <trkpt lat="47.06719" lon="5.41492">
        <ele>209.4</ele>
      </trkpt>
      <trkpt lat="47.06723" lon="5.41495">
        <ele>209.5</ele>
      </trkpt>
      <trkpt lat="47.0673" lon="5.41494">
        <ele>209.6</ele>
      </trkpt>
      <trkpt lat="47.06734" lon="5.41492">
        <ele>209.8</ele>
      </trkpt>
      <trkpt lat="47.06737" lon="5.41488">
        <ele>209.9</ele>
      </trkpt>
      <trkpt lat="47.06739" lon="5.41483">
        <ele>210.1</ele>
      </trkpt>
      <trkpt lat="47.0674" lon="5.41478">
        <ele>210.3</ele>
      </trkpt>
      <trkpt lat="47.0674" lon="5.41469">
        <ele>210.5</ele>
      </trkpt>
      <trkpt lat="47.06744" lon="5.4146">
        <ele>210.8</ele>
      </trkpt>
      <trkpt lat="47.06759" lon="5.41438">
        <ele>211.6</ele>
      </trkpt>
      <trkpt lat="47.06823" lon="5.41407">
        <ele>212.6</ele>
      </trkpt>
      <trkpt lat="47.06886" lon="5.41375">
        <ele>210.4</ele>
      </trkpt>
      <trkpt lat="47.0695" lon="5.41343">
        <ele>209.6</ele>
      </trkpt>
      <trkpt lat="47.06959" lon="5.41339">
        <ele>209.5</ele>
      </trkpt>
      <trkpt lat="47.06974" lon="5.41341">
        <ele>209.3</ele>
      </trkpt>
      <trkpt lat="47.0698" lon="5.41341">
        <ele>209.3</ele>
      </trkpt>
      <trkpt lat="47.06989" lon="5.41337">
        <ele>209.2</ele>
      </trkpt>
      <trkpt lat="47.06994" lon="5.41332">
        <ele>209.1</ele>
      </trkpt>
      <trkpt lat="47.07003" lon="5.41317">
        <ele>208.8</ele>
      </trkpt>
      <trkpt lat="47.0701" lon="5.41311">
        <ele>208.7</ele>
      </trkpt>
      <trkpt lat="47.07033" lon="5.413">
        <ele>208.6</ele>
      </trkpt>
      <trkpt lat="47.07092" lon="5.41268">
        <ele>208.1</ele>
      </trkpt>
      <trkpt lat="47.0715" lon="5.41237">
        <ele>206.0</ele>
      </trkpt>
      <trkpt lat="47.07158" lon="5.41234">
        <ele>205.8</ele>
      </trkpt>
      <trkpt lat="47.07173" lon="5.41231">
        <ele>205.5</ele>
      </trkpt>
      <trkpt lat="47.07186" lon="5.4123">
        <ele>205.6</ele>
      </trkpt>
      <trkpt lat="47.07204" lon="5.41234">
        <ele>205.7</ele>
      </trkpt>
      <trkpt lat="47.07224" lon="5.41244">
        <ele>205.9</ele>
      </trkpt>
      <trkpt lat="47.07236" lon="5.41251">
        <ele>206.0</ele>
      </trkpt>
      <trkpt lat="47.07294" lon="5.41285">
        <ele>208.0</ele>
      </trkpt>
      <trkpt lat="47.07352" lon="5.4132">
        <ele>210.4</ele>
      </trkpt>
      <trkpt lat="47.07361" lon="5.41324">
        <ele>210.6</ele>
      </trkpt>
      <trkpt lat="47.07369" lon="5.41326">
        <ele>210.7</ele>
      </trkpt>
      <trkpt lat="47.07377" lon="5.41326">
        <ele>210.7</ele>
      </trkpt>
      <trkpt lat="47.07442" lon="5.41291">
        <ele>209.2</ele>
      </trkpt>
      <trkpt lat="47.07464" lon="5.41288">
        <ele>208.8</ele>
      </trkpt>
      <trkpt lat="47.07468" lon="5.41286">
        <ele>208.7</ele>
      </trkpt>
      <trkpt lat="47.07484" lon="5.41269">
        <ele>207.9</ele>
      </trkpt>
      <trkpt lat="47.07514" lon="5.41239">
        <ele>206.8</ele>
      </trkpt>
      <trkpt lat="47.0753" lon="5.41226">
        <ele>206.4</ele>
      </trkpt>
      <trkpt lat="47.07529" lon="5.41222">
        <ele>206.3</ele>
      </trkpt>
      <trkpt lat="47.07547" lon="5.41163">
        <ele>204.2</ele>
      </trkpt>
      <trkpt lat="47.07553" lon="5.41155">
        <ele>203.7</ele>
      </trkpt>
      <trkpt lat="47.07541" lon="5.41131">
        <ele>203.2</ele>
      </trkpt>
      <trkpt lat="47.0753" lon="5.41116">
        <ele>202.9</ele>
      </trkpt>
      <trkpt lat="47.07489" lon="5.41076">
        <ele>201.9</ele>
      </trkpt>
      <trkpt lat="47.07452" lon="5.41037">
        <ele>201.5</ele>
      </trkpt>
      <trkpt lat="47.07449" lon="5.41033">
        <ele>201.4</ele>
      </trkpt>
      <trkpt lat="47.07448" lon="5.41023">
        <ele>201.2</ele>
      </trkpt>
      <trkpt lat="47.07449" lon="5.41015">
        <ele>201.0</ele>
      </trkpt>
      <trkpt lat="47.07458" lon="5.40969">
        <ele>200.3</ele>
      </trkpt>
      <trkpt lat="47.0746" lon="5.40961">
        <ele>200.3</ele>
      </trkpt>
      <trkpt lat="47.07463" lon="5.40948">
        <ele>200.3</ele>
      </trkpt>
      <trkpt lat="47.07472" lon="5.40926">
        <ele>200.6</ele>
      </trkpt>
      <trkpt lat="47.07502" lon="5.40872">
        <ele>202.1</ele>
      </trkpt>
      <trkpt lat="47.07532" lon="5.40817">
        <ele>202.4</ele>
      </trkpt>
      <trkpt lat="47.07537" lon="5.40804">
        <ele>202.2</ele>
      </trkpt>
      <trkpt lat="47.07543" lon="5.40775">
        <ele>201.6</ele>
      </trkpt>
      <trkpt lat="47.07551" lon="5.40702">
        <ele>200.7</ele>
      </trkpt>
      <trkpt lat="47.07564" lon="5.40602">
        <ele>201.1</ele>
      </trkpt>
      <trkpt lat="47.07577" lon="5.40502">
        <ele>201.8</ele>
      </trkpt>
      <trkpt lat="47.07585" lon="5.40504">
        <ele>202.1</ele>
      </trkpt>
      <trkpt lat="47.076" lon="5.40383">
        <ele>205.9</ele>
      </trkpt>
      <trkpt lat="47.07614" lon="5.40263">
        <ele>209.1</ele>
      </trkpt>
      <trkpt lat="47.07629" lon="5.40142">
        <ele>210.3</ele>
      </trkpt>
      <trkpt lat="47.07645" lon="5.40017">
        <ele>210.4</ele>
      </trkpt>
      <trkpt lat="47.07661" lon="5.39891">
        <ele>208.7</ele>
      </trkpt>
      <trkpt lat="47.07677" lon="5.39766">
        <ele>205.4</ele>
      </trkpt>
      <trkpt lat="47.07693" lon="5.39641">
        <ele>202.3</ele>
      </trkpt>
      <trkpt lat="47.07709" lon="5.39515">
        <ele>200.3</ele>
      </trkpt>
      <trkpt lat="47.07724" lon="5.3939">
        <ele>198.5</ele>
      </trkpt>
      <trkpt lat="47.0774" lon="5.39265">
        <ele>196.9</ele>
      </trkpt>
      <trkpt lat="47.07756" lon="5.39139">
        <ele>196.4</ele>
      </trkpt>
      <trkpt lat="47.07756" lon="5.39121">
        <ele>196.4</ele>
      </trkpt>
      <trkpt lat="47.07756" lon="5.39112">
        <ele>196.4</ele>
      </trkpt>
      <trkpt lat="47.07742" lon="5.39075">
        <ele>195.4</ele>
      </trkpt>
      <trkpt lat="47.07701" lon="5.38975">
        <ele>192.2</ele>
      </trkpt>
      <trkpt lat="47.07659" lon="5.38875">
        <ele>190.3</ele>
      </trkpt>
      <trkpt lat="47.07618" lon="5.38774">
        <ele>189.1</ele>
      </trkpt>
      <trkpt lat="47.07612" lon="5.38744">
        <ele>189.0</ele>
      </trkpt>
      <trkpt lat="47.07602" lon="5.38676">
        <ele>188.3</ele>
      </trkpt>
      <trkpt lat="47.07592" lon="5.38609">
        <ele>188.1</ele>
      </trkpt>
      <trkpt lat="47.07578" lon="5.38499">
        <ele>189.0</ele>
      </trkpt>
      <trkpt lat="47.07565" lon="5.38389">
        <ele>190.8</ele>
      </trkpt>
      <trkpt lat="47.0755" lon="5.38272">
        <ele>193.0</ele>
      </trkpt>
      <trkpt lat="47.07535" lon="5.38156">
        <ele>194.7</ele>
      </trkpt>
      <trkpt lat="47.0752" lon="5.38039">
        <ele>192.3</ele>
      </trkpt>
      <trkpt lat="47.07512" lon="5.37923">
        <ele>190.1</ele>
      </trkpt>
      <trkpt lat="47.07504" lon="5.37807">
        <ele>190.2</ele>
      </trkpt>
      <trkpt lat="47.07493" lon="5.37723">
        <ele>190.6</ele>
      </trkpt>
      <trkpt lat="47.07482" lon="5.37638">
        <ele>190.7</ele>
      </trkpt>
      <trkpt lat="47.07474" lon="5.37557">
        <ele>191.8</ele>
      </trkpt>
      <trkpt lat="47.07465" lon="5.37475">
        <ele>191.9</ele>
      </trkpt>
      <trkpt lat="47.07459" lon="5.37431">
        <ele>192.7</ele>
      </trkpt>
      <trkpt lat="47.0745" lon="5.37391">
        <ele>193.6</ele>
      </trkpt>
      <trkpt lat="47.07433" lon="5.37332">
        <ele>194.4</ele>
      </trkpt>
      <trkpt lat="47.07414" lon="5.37273">
        <ele>194.6</ele>
      </trkpt>
      <trkpt lat="47.07382" lon="5.37216">
        <ele>195.0</ele>
      </trkpt>
      <trkpt lat="47.0735" lon="5.3716">
        <ele>195.5</ele>
      </trkpt>
      <trkpt lat="47.07333" lon="5.37138">
        <ele>195.3</ele>
      </trkpt>
      <trkpt lat="47.07315" lon="5.37118">
        <ele>194.3</ele>
      </trkpt>
      <trkpt lat="47.073" lon="5.37105">
        <ele>193.4</ele>
      </trkpt>
      <trkpt lat="47.07256" lon="5.37081">
        <ele>190.4</ele>
      </trkpt>
      <trkpt lat="47.07244" lon="5.3708">
        <ele>189.9</ele>
      </trkpt>
      <trkpt lat="47.07242" lon="5.37079">
        <ele>189.9</ele>
      </trkpt>
      <trkpt lat="47.07234" lon="5.37073">
        <ele>189.8</ele>
      </trkpt>
      <trkpt lat="47.07231" lon="5.37071">
        <ele>189.7</ele>
      </trkpt>
      <trkpt lat="47.07228" lon="5.37066">
        <ele>189.7</ele>
      </trkpt>
      <trkpt lat="47.07215" lon="5.37058">
        <ele>189.4</ele>
      </trkpt>
      <trkpt lat="47.07215" lon="5.37062">
        <ele>189.5</ele>
      </trkpt>
      <trkpt lat="47.07172" lon="5.37032">
        <ele>188.5</ele>
      </trkpt>
      <trkpt lat="47.0713" lon="5.37001">
        <ele>188.0</ele>
      </trkpt>
      <trkpt lat="47.07141" lon="5.36972">
        <ele>187.7</ele>
      </trkpt>
      <trkpt lat="47.07175" lon="5.36872">
        <ele>186.6</ele>
      </trkpt>
      <trkpt lat="47.07208" lon="5.36771">
        <ele>187.4</ele>
      </trkpt>
      <trkpt lat="47.07242" lon="5.36671">
        <ele>189.6</ele>
      </trkpt>
      <trkpt lat="47.07276" lon="5.36571">
        <ele>190.9</ele>
      </trkpt>
      <trkpt lat="47.0731" lon="5.3647">
        <ele>192.7</ele>
      </trkpt>
      <trkpt lat="47.07325" lon="5.36439">
        <ele>192.6</ele>
      </trkpt>
      <trkpt lat="47.07348" lon="5.36411">
        <ele>192.5</ele>
      </trkpt>
      <trkpt lat="47.07424" lon="5.36366">
        <ele>192.0</ele>
      </trkpt>
      <trkpt lat="47.07499" lon="5.3632">
        <ele>193.7</ele>
      </trkpt>
      <trkpt lat="47.07574" lon="5.36275">
        <ele>192.1</ele>
      </trkpt>
      <trkpt lat="47.07631" lon="5.36238">
        <ele>192.7</ele>
      </trkpt>
      <trkpt lat="47.07688" lon="5.36201">
        <ele>190.8</ele>
      </trkpt>
      <trkpt lat="47.07768" lon="5.36153">
        <ele>188.7</ele>
      </trkpt>
      <trkpt lat="47.07848" lon="5.36105">
        <ele>189.7</ele>
      </trkpt>
      <trkpt lat="47.07895" lon="5.36075">
        <ele>191.0</ele>
      </trkpt>
      <trkpt lat="47.07942" lon="5.36046">
        <ele>191.3</ele>
      </trkpt>
      <trkpt lat="47.08018" lon="5.36">
        <ele>189.4</ele>
      </trkpt>
      <trkpt lat="47.08094" lon="5.35954">
        <ele>190.8</ele>
      </trkpt>
      <trkpt lat="47.0817" lon="5.35909">
        <ele>189.0</ele>
      </trkpt>
      <trkpt lat="47.08246" lon="5.35863">
        <ele>186.5</ele>
      </trkpt>
      <trkpt lat="47.08322" lon="5.35817">
        <ele>186.1</ele>
      </trkpt>
      <trkpt lat="47.08334" lon="5.35808">
        <ele>186.0</ele>
      </trkpt>
      <trkpt lat="47.08344" lon="5.35798">
        <ele>185.9</ele>
      </trkpt>
      <trkpt lat="47.08351" lon="5.35789">
        <ele>185.9</ele>
      </trkpt>
      <trkpt lat="47.08358" lon="5.35778">
        <ele>185.9</ele>
      </trkpt>
      <trkpt lat="47.08366" lon="5.35761">
        <ele>185.9</ele>
      </trkpt>
      <trkpt lat="47.08371" lon="5.35746">
        <ele>186.0</ele>
      </trkpt>
      <trkpt lat="47.08375" lon="5.35726">
        <ele>186.0</ele>
      </trkpt>
      <trkpt lat="47.08395" lon="5.35621">
        <ele>186.6</ele>
      </trkpt>
      <trkpt lat="47.08395" lon="5.35611">
        <ele>186.6</ele>
      </trkpt>
      <trkpt lat="47.084" lon="5.35579">
        <ele>186.8</ele>
      </trkpt>
      <trkpt lat="47.08422" lon="5.35454">
        <ele>187.4</ele>
      </trkpt>
      <trkpt lat="47.08444" lon="5.3533">
        <ele>187.0</ele>
      </trkpt>
      <trkpt lat="47.08466" lon="5.35206">
        <ele>187.4</ele>
      </trkpt>
      <trkpt lat="47.08488" lon="5.35081">
        <ele>188.7</ele>
      </trkpt>
      <trkpt lat="47.0851" lon="5.34957">
        <ele>189.7</ele>
      </trkpt>
      <trkpt lat="47.08532" lon="5.34833">
        <ele>187.9</ele>
      </trkpt>
      <trkpt lat="47.08553" lon="5.34708">
        <ele>186.5</ele>
      </trkpt>
      <trkpt lat="47.0856" lon="5.34676">
        <ele>186.1</ele>
      </trkpt>
      <trkpt lat="47.08582" lon="5.34549">
        <ele>186.6</ele>
      </trkpt>
      <trkpt lat="47.08604" lon="5.34423">
        <ele>185.8</ele>
      </trkpt>
      <trkpt lat="47.08614" lon="5.34363">
        <ele>186.8</ele>
      </trkpt>
      <trkpt lat="47.0862" lon="5.34341">
        <ele>187.2</ele>
      </trkpt>
      <trkpt lat="47.08621" lon="5.3433">
        <ele>187.4</ele>
      </trkpt>
      <trkpt lat="47.08621" lon="5.34298">
        <ele>188.0</ele>
      </trkpt>
      <trkpt lat="47.08622" lon="5.34288">
        <ele>188.2</ele>
      </trkpt>
      <trkpt lat="47.08624" lon="5.34279">
        <ele>188.5</ele>
      </trkpt>
      <trkpt lat="47.0863" lon="5.34263">
        <ele>189.0</ele>
      </trkpt>
      <trkpt lat="47.08635" lon="5.34246">
        <ele>189.5</ele>
      </trkpt>
      <trkpt lat="47.08651" lon="5.34152">
        <ele>189.5</ele>
      </trkpt>
      <trkpt lat="47.08667" lon="5.34058">
        <ele>189.0</ele>
      </trkpt>
      <trkpt lat="47.08679" lon="5.33975">
        <ele>189.0</ele>
      </trkpt>
      <trkpt lat="47.08692" lon="5.33892">
        <ele>188.3</ele>
      </trkpt>
      <trkpt lat="47.08704" lon="5.33825">
        <ele>187.7</ele>
      </trkpt>
      <trkpt lat="47.08713" lon="5.33782">
        <ele>188.1</ele>
      </trkpt>
      <trkpt lat="47.08722" lon="5.33753">
        <ele>188.3</ele>
      </trkpt>
      <trkpt lat="47.08726" lon="5.33744">
        <ele>188.2</ele>
      </trkpt>
      <trkpt lat="47.08759" lon="5.33667">
        <ele>188.0</ele>
      </trkpt>
      <trkpt lat="47.08793" lon="5.3359">
        <ele>188.1</ele>
      </trkpt>
      <trkpt lat="47.08804" lon="5.3356">
        <ele>188.8</ele>
      </trkpt>
      <trkpt lat="47.08811" lon="5.33531">
        <ele>189.5</ele>
      </trkpt>
      <trkpt lat="47.08815" lon="5.335">
        <ele>190.1</ele>
      </trkpt>
      <trkpt lat="47.08818" lon="5.33458">
        <ele>190.4</ele>
      </trkpt>
      <trkpt lat="47.08822" lon="5.33378">
        <ele>190.6</ele>
      </trkpt>
      <trkpt lat="47.08825" lon="5.33298">
        <ele>190.3</ele>
      </trkpt>
      <trkpt lat="47.08828" lon="5.33257">
        <ele>190.0</ele>
      </trkpt>
      <trkpt lat="47.0883" lon="5.3319">
        <ele>189.9</ele>
      </trkpt>
      <trkpt lat="47.08834" lon="5.33088">
        <ele>188.2</ele>
      </trkpt>
      <trkpt lat="47.08839" lon="5.32986">
        <ele>187.4</ele>
      </trkpt>
      <trkpt lat="47.08841" lon="5.32961">
        <ele>187.8</ele>
      </trkpt>
      <trkpt lat="47.08845" lon="5.32937">
        <ele>188.2</ele>
      </trkpt>
      <trkpt lat="47.08851" lon="5.32914">
        <ele>188.6</ele>
      </trkpt>
      <trkpt lat="47.08859" lon="5.32894">
        <ele>188.7</ele>
      </trkpt>
      <trkpt lat="47.08867" lon="5.32876">
        <ele>188.8</ele>
      </trkpt>
      <trkpt lat="47.0888" lon="5.32855">
        <ele>188.9</ele>
      </trkpt>
      <trkpt lat="47.08891" lon="5.32844">
        <ele>188.9</ele>
      </trkpt>
      <trkpt lat="47.08908" lon="5.32828">
        <ele>188.6</ele>
      </trkpt>
      <trkpt lat="47.0894" lon="5.3281">
        <ele>188.0</ele>
      </trkpt>
      <trkpt lat="47.08963" lon="5.32802">
        <ele>187.9</ele>
      </trkpt>
      <trkpt lat="47.0898" lon="5.32792">
        <ele>187.7</ele>
      </trkpt>
      <trkpt lat="47.09027" lon="5.32759">
        <ele>186.6</ele>
      </trkpt>
      <trkpt lat="47.09096" lon="5.3271">
        <ele>186.3</ele>
      </trkpt>
      <trkpt lat="47.09108" lon="5.327">
        <ele>186.3</ele>
      </trkpt>
      <trkpt lat="47.09118" lon="5.32688">
        <ele>186.4</ele>
      </trkpt>
      <trkpt lat="47.09141" lon="5.32652">
        <ele>186.6</ele>
      </trkpt>
      <trkpt lat="47.09155" lon="5.32633">
        <ele>186.4</ele>
      </trkpt>
      <trkpt lat="47.09197" lon="5.32586">
        <ele>185.8</ele>
      </trkpt>
      <trkpt lat="47.09213" lon="5.32573">
        <ele>185.9</ele>
      </trkpt>
      <trkpt lat="47.09259" lon="5.32542">
        <ele>186.1</ele>
      </trkpt>
      <trkpt lat="47.09296" lon="5.3252">
        <ele>185.7</ele>
      </trkpt>
      <trkpt lat="47.09307" lon="5.32516">
        <ele>185.6</ele>
      </trkpt>
      <trkpt lat="47.09323" lon="5.32514">
        <ele>185.6</ele>
      </trkpt>
      <trkpt lat="47.09344" lon="5.32514">
        <ele>185.6</ele>
      </trkpt>
      <trkpt lat="47.09382" lon="5.32516">
        <ele>185.7</ele>
      </trkpt>
      <trkpt lat="47.09457" lon="5.32523">
        <ele>186.3</ele>
      </trkpt>
      <trkpt lat="47.09513" lon="5.3253">
        <ele>187.4</ele>
      </trkpt>
      <trkpt lat="47.09571" lon="5.3254">
        <ele>189.1</ele>
      </trkpt>
      <trkpt lat="47.09628" lon="5.3255">
        <ele>189.8</ele>
      </trkpt>
      <trkpt lat="47.09643" lon="5.32547">
        <ele>189.8</ele>
      </trkpt>
      <trkpt lat="47.09662" lon="5.32532">
        <ele>190.2</ele>
      </trkpt>
      <trkpt lat="47.09673" lon="5.32513">
        <ele>190.8</ele>
      </trkpt>
      <trkpt lat="47.09678" lon="5.32501">
        <ele>191.2</ele>
      </trkpt>
      <trkpt lat="47.09683" lon="5.32476">
        <ele>191.7</ele>
      </trkpt>
      <trkpt lat="47.09684" lon="5.32463">
        <ele>191.9</ele>
      </trkpt>
      <trkpt lat="47.09675" lon="5.32402">
        <ele>191.6</ele>
      </trkpt>
      <trkpt lat="47.09675" lon="5.32371">
        <ele>191.2</ele>
      </trkpt>
      <trkpt lat="47.09676" lon="5.32358">
        <ele>191.3</ele>
      </trkpt>
      <trkpt lat="47.09681" lon="5.32332">
        <ele>191.5</ele>
      </trkpt>
      <trkpt lat="47.09694" lon="5.32287">
        <ele>189.9</ele>
      </trkpt>
      <trkpt lat="47.09721" lon="5.32197">
        <ele>189.8</ele>
      </trkpt>
      <trkpt lat="47.09733" lon="5.32163">
        <ele>190.6</ele>
      </trkpt>
      <trkpt lat="47.09748" lon="5.32131">
        <ele>191.0</ele>
      </trkpt>
      <trkpt lat="47.0978" lon="5.32073">
        <ele>189.5</ele>
      </trkpt>
      <trkpt lat="47.09796" lon="5.32051">
        <ele>189.2</ele>
      </trkpt>
      <trkpt lat="47.09812" lon="5.32031">
        <ele>189.3</ele>
      </trkpt>
      <trkpt lat="47.09825" lon="5.32019">
        <ele>189.9</ele>
      </trkpt>
      <trkpt lat="47.09839" lon="5.3201">
        <ele>190.0</ele>
      </trkpt>
      <trkpt lat="47.09847" lon="5.32006">
        <ele>189.7</ele>
      </trkpt>
      <trkpt lat="47.09892" lon="5.32">
        <ele>187.9</ele>
      </trkpt>
      <trkpt lat="47.09937" lon="5.31994">
        <ele>186.7</ele>
      </trkpt>
      <trkpt lat="47.09948" lon="5.31989">
        <ele>186.5</ele>
      </trkpt>
      <trkpt lat="47.09957" lon="5.31981">
        <ele>186.3</ele>
      </trkpt>
      <trkpt lat="47.09977" lon="5.31953">
        <ele>185.7</ele>
      </trkpt>
      <trkpt lat="47.09982" lon="5.31938">
        <ele>185.5</ele>
      </trkpt>
      <trkpt lat="47.10003" lon="5.31894">
        <ele>184.6</ele>
      </trkpt>
      <trkpt lat="47.10024" lon="5.31862">
        <ele>183.8</ele>
      </trkpt>
      <trkpt lat="47.10077" lon="5.31772">
        <ele>184.2</ele>
      </trkpt>
      <trkpt lat="47.10082" lon="5.31756">
        <ele>184.8</ele>
      </trkpt>
      <trkpt lat="47.10089" lon="5.31747">
        <ele>184.9</ele>
      </trkpt>
      <trkpt lat="47.10095" lon="5.31742">
        <ele>184.7</ele>
      </trkpt>
      <trkpt lat="47.10115" lon="5.31706">
        <ele>184.2</ele>
      </trkpt>
      <trkpt lat="47.10125" lon="5.31693">
        <ele>184.2</ele>
      </trkpt>
      <trkpt lat="47.10131" lon="5.31687">
        <ele>184.2</ele>
      </trkpt>
      <trkpt lat="47.10153" lon="5.31672">
        <ele>184.6</ele>
      </trkpt>
      <trkpt lat="47.10161" lon="5.31667">
        <ele>184.9</ele>
      </trkpt>
      <trkpt lat="47.10175" lon="5.3166">
        <ele>184.8</ele>
      </trkpt>
      <trkpt lat="47.10191" lon="5.31659">
        <ele>184.6</ele>
      </trkpt>
      <trkpt lat="47.10239" lon="5.31664">
        <ele>184.1</ele>
      </trkpt>
      <trkpt lat="47.10271" lon="5.31662">
        <ele>183.3</ele>
      </trkpt>
      <trkpt lat="47.1032" lon="5.31652">
        <ele>181.8</ele>
      </trkpt>
      <trkpt lat="47.10392" lon="5.31631">
        <ele>182.1</ele>
      </trkpt>
      <trkpt lat="47.10463" lon="5.3161">
        <ele>182.1</ele>
      </trkpt>
      <trkpt lat="47.10498" lon="5.31598">
        <ele>181.7</ele>
      </trkpt>
      <trkpt lat="47.10517" lon="5.31596">
        <ele>181.7</ele>
      </trkpt>
      <trkpt lat="47.10599" lon="5.31577">
        <ele>181.9</ele>
      </trkpt>
      <trkpt lat="47.10644" lon="5.31556">
        <ele>181.7</ele>
      </trkpt>
      <trkpt lat="47.10699" lon="5.31514">
        <ele>180.0</ele>
      </trkpt>
      <trkpt lat="47.10712" lon="5.315">
        <ele>179.4</ele>
      </trkpt>
      <trkpt lat="47.10733" lon="5.31469">
        <ele>178.6</ele>
      </trkpt>
      <trkpt lat="47.10753" lon="5.31428">
        <ele>178.0</ele>
      </trkpt>
      <trkpt lat="47.10763" lon="5.31391">
        <ele>178.5</ele>
      </trkpt>
      <trkpt lat="47.10785" lon="5.31348">
        <ele>179.2</ele>
      </trkpt>
      <trkpt lat="47.10785" lon="5.31345">
        <ele>179.3</ele>
      </trkpt>
      <trkpt lat="47.10784" lon="5.31342">
        <ele>179.3</ele>
      </trkpt>
      <trkpt lat="47.10781" lon="5.31338">
        <ele>179.3</ele>
      </trkpt>
      <trkpt lat="47.10775" lon="5.31332">
        <ele>179.3</ele>
      </trkpt>
      <trkpt lat="47.10754" lon="5.3131">
        <ele>179.3</ele>
      </trkpt>
      <trkpt lat="47.10747" lon="5.31297">
        <ele>179.4</ele>
      </trkpt>
      <trkpt lat="47.10747" lon="5.31292">
        <ele>179.5</ele>
      </trkpt>
      <trkpt lat="47.10756" lon="5.31265">
        <ele>179.8</ele>
      </trkpt>
      <trkpt lat="47.10764" lon="5.31227">
        <ele>179.8</ele>
      </trkpt>
      <trkpt lat="47.10761" lon="5.3119">
        <ele>179.5</ele>
      </trkpt>
      <trkpt lat="47.10755" lon="5.31156">
        <ele>178.8</ele>
      </trkpt>
      <trkpt lat="47.10741" lon="5.31085">
        <ele>176.4</ele>
      </trkpt>
      <trkpt lat="47.10727" lon="5.31014">
        <ele>176.4</ele>
      </trkpt>
      <trkpt lat="47.10723" lon="5.30988">
        <ele>176.5</ele>
      </trkpt>
      <trkpt lat="47.10715" lon="5.30903">
        <ele>178.1</ele>
      </trkpt>
      <trkpt lat="47.10699" lon="5.30818">
        <ele>179.2</ele>
      </trkpt>
      <trkpt lat="47.10683" lon="5.30733">
        <ele>178.9</ele>
      </trkpt>
      <trkpt lat="47.10674" lon="5.30672">
        <ele>177.4</ele>
      </trkpt>
      <trkpt lat="47.10669" lon="5.30648">
        <ele>176.6</ele>
      </trkpt>
      <trkpt lat="47.10663" lon="5.30625">
        <ele>176.0</ele>
      </trkpt>
      <trkpt lat="47.10649" lon="5.3058">
        <ele>175.6</ele>
      </trkpt>
      <trkpt lat="47.10625" lon="5.30519">
        <ele>178.3</ele>
      </trkpt>
      <trkpt lat="47.106" lon="5.30462">
        <ele>178.6</ele>
      </trkpt>
      <trkpt lat="47.10549" lon="5.30354">
        <ele>176.8</ele>
      </trkpt>
      <trkpt lat="47.10533" lon="5.30329">
        <ele>176.7</ele>
      </trkpt>
      <trkpt lat="47.10513" lon="5.30302">
        <ele>176.3</ele>
      </trkpt>
      <trkpt lat="47.105" lon="5.30286">
        <ele>175.7</ele>
      </trkpt>
      <trkpt lat="47.10426" lon="5.30223">
        <ele>175.8</ele>
      </trkpt>
      <trkpt lat="47.10375" lon="5.30175">
        <ele>176.6</ele>
      </trkpt>
      <trkpt lat="47.10324" lon="5.30112">
        <ele>176.8</ele>
      </trkpt>
      <trkpt lat="47.10274" lon="5.30049">
        <ele>178.2</ele>
      </trkpt>
      <trkpt lat="47.10224" lon="5.29969">
        <ele>180.0</ele>
      </trkpt>
      <trkpt lat="47.10193" lon="5.29897">
        <ele>182.1</ele>
      </trkpt>
      <trkpt lat="47.10162" lon="5.29807">
        <ele>184.5</ele>
      </trkpt>
      <trkpt lat="47.10153" lon="5.29768">
        <ele>185.3</ele>
      </trkpt>
      <trkpt lat="47.10144" lon="5.29717">
        <ele>184.9</ele>
      </trkpt>
      <trkpt lat="47.10142" lon="5.29632">
        <ele>182.9</ele>
      </trkpt>
      <trkpt lat="47.10145" lon="5.29547">
        <ele>180.0</ele>
      </trkpt>
      <trkpt lat="47.10144" lon="5.29531">
        <ele>179.1</ele>
      </trkpt>
      <trkpt lat="47.10141" lon="5.29511">
        <ele>178.1</ele>
      </trkpt>
      <trkpt lat="47.1014" lon="5.29475">
        <ele>176.9</ele>
      </trkpt>
      <trkpt lat="47.10145" lon="5.29388">
        <ele>175.8</ele>
      </trkpt>
      <trkpt lat="47.10149" lon="5.293">
        <ele>177.2</ele>
      </trkpt>
      <trkpt lat="47.10156" lon="5.29214">
        <ele>177.1</ele>
      </trkpt>
      <trkpt lat="47.10164" lon="5.29125">
        <ele>176.5</ele>
      </trkpt>
      <trkpt lat="47.10176" lon="5.29014">
        <ele>176.9</ele>
      </trkpt>
      <trkpt lat="47.10191" lon="5.28902">
        <ele>176.7</ele>
      </trkpt>
      <trkpt lat="47.10206" lon="5.2879">
        <ele>176.5</ele>
      </trkpt>
      <trkpt lat="47.10221" lon="5.28678">
        <ele>177.0</ele>
      </trkpt>
      <trkpt lat="47.10223" lon="5.28655">
        <ele>176.8</ele>
      </trkpt>
      <trkpt lat="47.10224" lon="5.28632">
        <ele>176.4</ele>
      </trkpt>
      <trkpt lat="47.10222" lon="5.28576">
        <ele>175.9</ele>
      </trkpt>
      <trkpt lat="47.10217" lon="5.28494">
        <ele>178.5</ele>
      </trkpt>
      <trkpt lat="47.10211" lon="5.28412">
        <ele>179.2</ele>
      </trkpt>
      <trkpt lat="47.10209" lon="5.28391">
        <ele>179.2</ele>
      </trkpt>
      <trkpt lat="47.102" lon="5.28324">
        <ele>179.0</ele>
      </trkpt>
      <trkpt lat="47.10191" lon="5.28257">
        <ele>177.8</ele>
      </trkpt>
      <trkpt lat="47.10179" lon="5.28181">
        <ele>179.1</ele>
      </trkpt>
      <trkpt lat="47.10168" lon="5.28105">
        <ele>179.0</ele>
      </trkpt>
      <trkpt lat="47.10155" lon="5.28009">
        <ele>178.2</ele>
      </trkpt>
      <trkpt lat="47.10141" lon="5.27912">
        <ele>177.8</ele>
      </trkpt>
      <trkpt lat="47.10128" lon="5.27815">
        <ele>175.7</ele>
      </trkpt>
      <trkpt lat="47.10123" lon="5.27789">
        <ele>176.3</ele>
      </trkpt>
      <trkpt lat="47.101" lon="5.27712">
        <ele>177.0</ele>
      </trkpt>
      <trkpt lat="47.10086" lon="5.27642">
        <ele>176.4</ele>
      </trkpt>
      <trkpt lat="47.10076" lon="5.27567">
        <ele>175.4</ele>
      </trkpt>
      <trkpt lat="47.1007" lon="5.27463">
        <ele>176.8</ele>
      </trkpt>
      <trkpt lat="47.10068" lon="5.27441">
        <ele>177.0</ele>
      </trkpt>
      <trkpt lat="47.10063" lon="5.27403">
        <ele>177.6</ele>
      </trkpt>
      <trkpt lat="47.10053" lon="5.27326">
        <ele>179.5</ele>
      </trkpt>
      <trkpt lat="47.10025" lon="5.27211">
        <ele>180.0</ele>
      </trkpt>
      <trkpt lat="47.1002" lon="5.27159">
        <ele>179.3</ele>
      </trkpt>
      <trkpt lat="47.10014" lon="5.27129">
        <ele>179.3</ele>
      </trkpt>
      <trkpt lat="47.09981" lon="5.27009">
        <ele>179.5</ele>
      </trkpt>
      <trkpt lat="47.09965" lon="5.26949">
        <ele>179.3</ele>
      </trkpt>
      <trkpt lat="47.09952" lon="5.26889">
        <ele>178.9</ele>
      </trkpt>
      <trkpt lat="47.09944" lon="5.26838">
        <ele>178.9</ele>
      </trkpt>
      <trkpt lat="47.09937" lon="5.26788">
        <ele>178.9</ele>
      </trkpt>
      <trkpt lat="47.09934" lon="5.26739">
        <ele>178.9</ele>
      </trkpt>
      <trkpt lat="47.09932" lon="5.26691">
        <ele>180.1</ele>
      </trkpt>
      <trkpt lat="47.09933" lon="5.26664">
        <ele>180.7</ele>
      </trkpt>
      <trkpt lat="47.09934" lon="5.26637">
        <ele>180.7</ele>
      </trkpt>
      <trkpt lat="47.09941" lon="5.26587">
        <ele>180.6</ele>
      </trkpt>
      <trkpt lat="47.09954" lon="5.26524">
        <ele>179.9</ele>
      </trkpt>
      <trkpt lat="47.09963" lon="5.26461">
        <ele>179.4</ele>
      </trkpt>
      <trkpt lat="47.09966" lon="5.2638">
        <ele>179.4</ele>
      </trkpt>
      <trkpt lat="47.09969" lon="5.263">
        <ele>178.8</ele>
      </trkpt>
      <trkpt lat="47.09974" lon="5.263">
        <ele>178.6</ele>
      </trkpt>
      <trkpt lat="47.10052" lon="5.26308">
        <ele>177.9</ele>
      </trkpt>
      <trkpt lat="47.10129" lon="5.26316">
        <ele>180.6</ele>
      </trkpt>
      <trkpt lat="47.1016" lon="5.26317">
        <ele>181.9</ele>
      </trkpt>
      <trkpt lat="47.10159" lon="5.26274">
        <ele>182.3</ele>
      </trkpt>
      <trkpt lat="47.10152" lon="5.26235">
        <ele>181.7</ele>
      </trkpt>
      <trkpt lat="47.10149" lon="5.26212">
        <ele>181.3</ele>
      </trkpt>
      <trkpt lat="47.1014" lon="5.26136">
        <ele>180.3</ele>
      </trkpt>
      <trkpt lat="47.10138" lon="5.26112">
        <ele>180.4</ele>
      </trkpt>
      <trkpt lat="47.1014" lon="5.26104">
        <ele>180.6</ele>
      </trkpt>
      <trkpt lat="47.10153" lon="5.26087">
        <ele>181.3</ele>
      </trkpt>
      <trkpt lat="47.10141" lon="5.2608">
        <ele>180.9</ele>
      </trkpt>
      <trkpt lat="47.10148" lon="5.26068">
        <ele>181.5</ele>
      </trkpt>
      <trkpt lat="47.10162" lon="5.26045">
        <ele>182.7</ele>
      </trkpt>
      <trkpt lat="47.10173" lon="5.26028">
        <ele>183.3</ele>
      </trkpt>
      <trkpt lat="47.10188" lon="5.2601">
        <ele>183.4</ele>
      </trkpt>
      <trkpt lat="47.10212" lon="5.25992">
        <ele>182.9</ele>
      </trkpt>
      <trkpt lat="47.1022" lon="5.2598">
        <ele>182.6</ele>
      </trkpt>
      <trkpt lat="47.1024" lon="5.25944">
        <ele>181.7</ele>
      </trkpt>
      <trkpt lat="47.10255" lon="5.2592">
        <ele>180.9</ele>
      </trkpt>
      <trkpt lat="47.10259" lon="5.25911">
        <ele>180.7</ele>
      </trkpt>
      <trkpt lat="47.1026" lon="5.25903">
        <ele>180.5</ele>
      </trkpt>
      <trkpt lat="47.1026" lon="5.25894">
        <ele>180.3</ele>
      </trkpt>
      <trkpt lat="47.10258" lon="5.25884">
        <ele>180.1</ele>
      </trkpt>
      <trkpt lat="47.10254" lon="5.25876">
        <ele>180.0</ele>
      </trkpt>
      <trkpt lat="47.10249" lon="5.25864">
        <ele>179.8</ele>
      </trkpt>
      <trkpt lat="47.10237" lon="5.25836">
        <ele>179.4</ele>
      </trkpt>
      <trkpt lat="47.10245" lon="5.25823">
        <ele>179.5</ele>
      </trkpt>
      <trkpt lat="47.10277" lon="5.25785">
        <ele>180.7</ele>
      </trkpt>
      <trkpt lat="47.10347" lon="5.25716">
        <ele>180.9</ele>
      </trkpt>
      <trkpt lat="47.10375" lon="5.25689">
        <ele>180.6</ele>
      </trkpt>
      <trkpt lat="47.10405" lon="5.25648">
        <ele>180.3</ele>
      </trkpt>
      <trkpt lat="47.10459" lon="5.25588">
        <ele>180.9</ele>
      </trkpt>
      <trkpt lat="47.10472" lon="5.25588">
        <ele>180.9</ele>
      </trkpt>
      <trkpt lat="47.10515" lon="5.25548">
        <ele>180.8</ele>
      </trkpt>
      <trkpt lat="47.10557" lon="5.25509">
        <ele>180.8</ele>
      </trkpt>
      <trkpt lat="47.10586" lon="5.25455">
        <ele>181.0</ele>
      </trkpt>
      <trkpt lat="47.1059" lon="5.25468">
        <ele>181.0</ele>
      </trkpt>
      <trkpt lat="47.106" lon="5.25499">
        <ele>181.0</ele>
      </trkpt>
      <trkpt lat="47.10603" lon="5.25505">
        <ele>181.0</ele>
      </trkpt>
      <trkpt lat="47.10613" lon="5.25525">
        <ele>181.2</ele>
      </trkpt>
      <trkpt lat="47.10617" lon="5.25536">
        <ele>181.3</ele>
      </trkpt>
      <trkpt lat="47.10618" lon="5.25527">
        <ele>181.2</ele>
      </trkpt>
      <trkpt lat="47.10623" lon="5.25521">
        <ele>181.1</ele>
      </trkpt>
      <trkpt lat="47.10657" lon="5.25485">
        <ele>180.8</ele>
      </trkpt>
      <trkpt lat="47.1072" lon="5.2542">
        <ele>178.8</ele>
      </trkpt>
      <trkpt lat="47.10766" lon="5.25366">
        <ele>179.5</ele>
      </trkpt>
      <trkpt lat="47.10836" lon="5.25292">
        <ele>180.0</ele>
      </trkpt>
      <trkpt lat="47.10906" lon="5.25218">
        <ele>179.0</ele>
      </trkpt>
      <trkpt lat="47.10976" lon="5.25143">
        <ele>179.3</ele>
      </trkpt>
      <trkpt lat="47.11046" lon="5.25069">
        <ele>179.9</ele>
      </trkpt>
      <trkpt lat="47.11116" lon="5.24995">
        <ele>180.9</ele>
      </trkpt>
      <trkpt lat="47.11186" lon="5.24921">
        <ele>180.2</ele>
      </trkpt>
      <trkpt lat="47.11256" lon="5.24846">
        <ele>179.6</ele>
      </trkpt>
      <trkpt lat="47.11326" lon="5.24772">
        <ele>179.1</ele>
      </trkpt>
      <trkpt lat="47.11396" lon="5.24698">
        <ele>179.0</ele>
      </trkpt>
      <trkpt lat="47.11457" lon="5.24632">
        <ele>180.0</ele>
      </trkpt>
      <trkpt lat="47.11519" lon="5.24567">
        <ele>180.1</ele>
      </trkpt>
      <trkpt lat="47.1158" lon="5.24501">
        <ele>181.9</ele>
      </trkpt>
      <trkpt lat="47.11598" lon="5.24478">
        <ele>181.2</ele>
      </trkpt>
      <trkpt lat="47.11643" lon="5.24433">
        <ele>179.5</ele>
      </trkpt>
      <trkpt lat="47.11687" lon="5.24389">
        <ele>179.4</ele>
      </trkpt>
      <trkpt lat="47.11737" lon="5.24342">
        <ele>179.9</ele>
      </trkpt>
      <trkpt lat="47.11782" lon="5.24286">
        <ele>181.0</ele>
      </trkpt>
      <trkpt lat="47.11833" lon="5.24232">
        <ele>182.6</ele>
      </trkpt>
      <trkpt lat="47.11885" lon="5.24178">
        <ele>182.9</ele>
      </trkpt>
      <trkpt lat="47.11936" lon="5.24124">
        <ele>182.7</ele>
      </trkpt>
      <trkpt lat="47.11961" lon="5.24094">
        <ele>182.1</ele>
      </trkpt>
      <trkpt lat="47.11967" lon="5.24087">
        <ele>182.0</ele>
      </trkpt>
      <trkpt lat="47.11979" lon="5.24079">
        <ele>181.9</ele>
      </trkpt>
      <trkpt lat="47.12007" lon="5.24051">
        <ele>181.7</ele>
      </trkpt>
      <trkpt lat="47.12016" lon="5.24039">
        <ele>181.7</ele>
      </trkpt>
      <trkpt lat="47.12061" lon="5.23991">
        <ele>182.5</ele>
      </trkpt>
      <trkpt lat="47.12107" lon="5.23944">
        <ele>182.9</ele>
      </trkpt>
      <trkpt lat="47.12175" lon="5.23871">
        <ele>182.3</ele>
      </trkpt>
      <trkpt lat="47.12243" lon="5.23798">
        <ele>181.4</ele>
      </trkpt>
      <trkpt lat="47.12312" lon="5.23725">
        <ele>181.6</ele>
      </trkpt>
      <trkpt lat="47.1238" lon="5.23652">
        <ele>182.5</ele>
      </trkpt>
      <trkpt lat="47.12449" lon="5.2358">
        <ele>181.8</ele>
      </trkpt>
      <trkpt lat="47.12517" lon="5.23507">
        <ele>180.9</ele>
      </trkpt>
      <trkpt lat="47.12585" lon="5.23434">
        <ele>182.6</ele>
      </trkpt>
      <trkpt lat="47.12654" lon="5.23361">
        <ele>183.6</ele>
      </trkpt>
      <trkpt lat="47.12724" lon="5.23287">
        <ele>183.1</ele>
      </trkpt>
      <trkpt lat="47.12794" lon="5.23213">
        <ele>183.8</ele>
      </trkpt>
      <trkpt lat="47.12865" lon="5.23139">
        <ele>184.8</ele>
      </trkpt>
      <trkpt lat="47.12935" lon="5.23065">
        <ele>183.9</ele>
      </trkpt>
      <trkpt lat="47.13005" lon="5.2299">
        <ele>182.9</ele>
      </trkpt>
      <trkpt lat="47.13076" lon="5.22916">
        <ele>181.2</ele>
      </trkpt>
      <trkpt lat="47.13087" lon="5.22899">
        <ele>181.2</ele>
      </trkpt>
      <trkpt lat="47.13153" lon="5.2283">
        <ele>182.0</ele>
      </trkpt>
      <trkpt lat="47.13218" lon="5.22761">
        <ele>183.4</ele>
      </trkpt>
      <trkpt lat="47.13284" lon="5.22693">
        <ele>183.9</ele>
      </trkpt>
      <trkpt lat="47.13334" lon="5.2264">
        <ele>184.0</ele>
      </trkpt>
      <trkpt lat="47.134" lon="5.22569">
        <ele>184.1</ele>
      </trkpt>
      <trkpt lat="47.13467" lon="5.22498">
        <ele>185.6</ele>
      </trkpt>
      <trkpt lat="47.13534" lon="5.22427">
        <ele>185.9</ele>
      </trkpt>
      <trkpt lat="47.13556" lon="5.22412">
        <ele>186.0</ele>
      </trkpt>
      <trkpt lat="47.13568" lon="5.22408">
        <ele>186.0</ele>
      </trkpt>
      <trkpt lat="47.13579" lon="5.22401">
        <ele>186.0</ele>
      </trkpt>
      <trkpt lat="47.13598" lon="5.22377">
        <ele>185.7</ele>
      </trkpt>
      <trkpt lat="47.13637" lon="5.2232">
        <ele>185.5</ele>
      </trkpt>
      <trkpt lat="47.13678" lon="5.22275">
        <ele>185.9</ele>
      </trkpt>
      <trkpt lat="47.13734" lon="5.22215">
        <ele>184.6</ele>
      </trkpt>
      <trkpt lat="47.1379" lon="5.22156">
        <ele>185.2</ele>
      </trkpt>
      <trkpt lat="47.13846" lon="5.22097">
        <ele>185.9</ele>
      </trkpt>
      <trkpt lat="47.13902" lon="5.22037">
        <ele>186.9</ele>
      </trkpt>
      <trkpt lat="47.1397" lon="5.21964">
        <ele>186.5</ele>
      </trkpt>
      <trkpt lat="47.14039" lon="5.21892">
        <ele>187.6</ele>
      </trkpt>
      <trkpt lat="47.14108" lon="5.2182">
        <ele>188.0</ele>
      </trkpt>
      <trkpt lat="47.14176" lon="5.21747">
        <ele>187.1</ele>
      </trkpt>
      <trkpt lat="47.14245" lon="5.21675">
        <ele>187.2</ele>
      </trkpt>
      <trkpt lat="47.14314" lon="5.21603">
        <ele>186.2</ele>
      </trkpt>
      <trkpt lat="47.14326" lon="5.21587">
        <ele>186.1</ele>
      </trkpt>
      <trkpt lat="47.14369" lon="5.21544">
        <ele>186.9</ele>
      </trkpt>
      <trkpt lat="47.14407" lon="5.21503">
        <ele>187.9</ele>
      </trkpt>
      <trkpt lat="47.14426" lon="5.21484">
        <ele>187.7</ele>
      </trkpt>
      <trkpt lat="47.14436" lon="5.21471">
        <ele>187.4</ele>
      </trkpt>
      <trkpt lat="47.14506" lon="5.21398">
        <ele>186.1</ele>
      </trkpt>
      <trkpt lat="47.14575" lon="5.21324">
        <ele>187.1</ele>
      </trkpt>
      <trkpt lat="47.14644" lon="5.2125">
        <ele>187.5</ele>
      </trkpt>
      <trkpt lat="47.14713" lon="5.21177">
        <ele>188.7</ele>
      </trkpt>
      <trkpt lat="47.14783" lon="5.21103">
        <ele>188.9</ele>
      </trkpt>
      <trkpt lat="47.14852" lon="5.2103">
        <ele>189.3</ele>
      </trkpt>
      <trkpt lat="47.14921" lon="5.20956">
        <ele>188.6</ele>
      </trkpt>
      <trkpt lat="47.14991" lon="5.20882">
        <ele>190.3</ele>
      </trkpt>
      <trkpt lat="47.1506" lon="5.20809">
        <ele>188.3</ele>
      </trkpt>
      <trkpt lat="47.15129" lon="5.20735">
        <ele>187.7</ele>
      </trkpt>
      <trkpt lat="47.15198" lon="5.20662">
        <ele>186.6</ele>
      </trkpt>
      <trkpt lat="47.15241" lon="5.20617">
        <ele>187.0</ele>
      </trkpt>
      <trkpt lat="47.15281" lon="5.2058">
        <ele>188.0</ele>
      </trkpt>
      <trkpt lat="47.1529" lon="5.20567">
        <ele>187.9</ele>
      </trkpt>
      <trkpt lat="47.15306" lon="5.20547">
        <ele>187.7</ele>
      </trkpt>
      <trkpt lat="47.15325" lon="5.20526">
        <ele>187.4</ele>
      </trkpt>
      <trkpt lat="47.15389" lon="5.20459">
        <ele>187.7</ele>
      </trkpt>
      <trkpt lat="47.15452" lon="5.20392">
        <ele>188.5</ele>
      </trkpt>
      <trkpt lat="47.15515" lon="5.20325">
        <ele>188.5</ele>
      </trkpt>
      <trkpt lat="47.15578" lon="5.20259">
        <ele>187.9</ele>
      </trkpt>
      <trkpt lat="47.15638" lon="5.20195">
        <ele>188.4</ele>
      </trkpt>
      <trkpt lat="47.15697" lon="5.20132">
        <ele>188.8</ele>
      </trkpt>
      <trkpt lat="47.15757" lon="5.20068">
        <ele>189.7</ele>
      </trkpt>
      <trkpt lat="47.15818" lon="5.20005">
        <ele>188.9</ele>
      </trkpt>
      <trkpt lat="47.15879" lon="5.19942">
        <ele>188.9</ele>
      </trkpt>
      <trkpt lat="47.1594" lon="5.19879">
        <ele>187.9</ele>
      </trkpt>
      <trkpt lat="47.16008" lon="5.19806">
        <ele>186.4</ele>
      </trkpt>
      <trkpt lat="47.16077" lon="5.19733">
        <ele>186.3</ele>
      </trkpt>
      <trkpt lat="47.16145" lon="5.1966">
        <ele>188.5</ele>
      </trkpt>
      <trkpt lat="47.16213" lon="5.19588">
        <ele>191.2</ele>
      </trkpt>
      <trkpt lat="47.16282" lon="5.19515">
        <ele>191.9</ele>
      </trkpt>
      <trkpt lat="47.1635" lon="5.19442">
        <ele>191.2</ele>
      </trkpt>
      <trkpt lat="47.16419" lon="5.1937">
        <ele>190.0</ele>
      </trkpt>
      <trkpt lat="47.16487" lon="5.19297">
        <ele>188.6</ele>
      </trkpt>
      <trkpt lat="47.16556" lon="5.19224">
        <ele>188.4</ele>
      </trkpt>
      <trkpt lat="47.16624" lon="5.19152">
        <ele>188.9</ele>
      </trkpt>
      <trkpt lat="47.16693" lon="5.19079">
        <ele>189.7</ele>
      </trkpt>
      <trkpt lat="47.16722" lon="5.19046">
        <ele>189.9</ele>
      </trkpt>
      <trkpt lat="47.16743" lon="5.19026">
        <ele>190.3</ele>
      </trkpt>
      <trkpt lat="47.16777" lon="5.18991">
        <ele>190.4</ele>
      </trkpt>
      <trkpt lat="47.16843" lon="5.18919">
        <ele>190.7</ele>
      </trkpt>
      <trkpt lat="47.1691" lon="5.18847">
        <ele>190.7</ele>
      </trkpt>
      <trkpt lat="47.16977" lon="5.18776">
        <ele>190.8</ele>
      </trkpt>
      <trkpt lat="47.17043" lon="5.18704">
        <ele>190.5</ele>
      </trkpt>
      <trkpt lat="47.1711" lon="5.18633">
        <ele>190.5</ele>
      </trkpt>
      <trkpt lat="47.17177" lon="5.18562">
        <ele>190.2</ele>
      </trkpt>
      <trkpt lat="47.17244" lon="5.1849">
        <ele>191.1</ele>
      </trkpt>
      <trkpt lat="47.17311" lon="5.18419">
        <ele>192.0</ele>
      </trkpt>
      <trkpt lat="47.17378" lon="5.18347">
        <ele>191.4</ele>
      </trkpt>
      <trkpt lat="47.17445" lon="5.18276">
        <ele>191.3</ele>
      </trkpt>
      <trkpt lat="47.17512" lon="5.18205">
        <ele>190.5</ele>
      </trkpt>
      <trkpt lat="47.17579" lon="5.18133">
        <ele>192.1</ele>
      </trkpt>
      <trkpt lat="47.1763" lon="5.18079">
        <ele>193.9</ele>
      </trkpt>
      <trkpt lat="47.17681" lon="5.18025">
        <ele>193.0</ele>
      </trkpt>
      <trkpt lat="47.17736" lon="5.17966">
        <ele>195.0</ele>
      </trkpt>
      <trkpt lat="47.17791" lon="5.17907">
        <ele>195.1</ele>
      </trkpt>
      <trkpt lat="47.17846" lon="5.17848">
        <ele>194.1</ele>
      </trkpt>
      <trkpt lat="47.17916" lon="5.17773">
        <ele>192.5</ele>
      </trkpt>
      <trkpt lat="47.17986" lon="5.17699">
        <ele>191.7</ele>
      </trkpt>
      <trkpt lat="47.18056" lon="5.17625">
        <ele>191.8</ele>
      </trkpt>
      <trkpt lat="47.18126" lon="5.17551">
        <ele>191.7</ele>
      </trkpt>
      <trkpt lat="47.18196" lon="5.17476">
        <ele>192.2</ele>
      </trkpt>
      <trkpt lat="47.18266" lon="5.17402">
        <ele>192.7</ele>
      </trkpt>
      <trkpt lat="47.18335" lon="5.17328">
        <ele>192.9</ele>
      </trkpt>
      <trkpt lat="47.18405" lon="5.17254">
        <ele>192.1</ele>
      </trkpt>
      <trkpt lat="47.18475" lon="5.17179">
        <ele>193.3</ele>
      </trkpt>
      <trkpt lat="47.18545" lon="5.17105">
        <ele>194.1</ele>
      </trkpt>
      <trkpt lat="47.18618" lon="5.17028">
        <ele>193.5</ele>
      </trkpt>
      <trkpt lat="47.1869" lon="5.1695">
        <ele>192.6</ele>
      </trkpt>
      <trkpt lat="47.18763" lon="5.16873">
        <ele>193.0</ele>
      </trkpt>
      <trkpt lat="47.18835" lon="5.16796">
        <ele>193.4</ele>
      </trkpt>
      <trkpt lat="47.18907" lon="5.16718">
        <ele>192.9</ele>
      </trkpt>
      <trkpt lat="47.1898" lon="5.16641">
        <ele>193.3</ele>
      </trkpt>
      <trkpt lat="47.19052" lon="5.16564">
        <ele>193.4</ele>
      </trkpt>
      <trkpt lat="47.19125" lon="5.16486">
        <ele>194.4</ele>
      </trkpt>
      <trkpt lat="47.19197" lon="5.16409">
        <ele>194.8</ele>
      </trkpt>
      <trkpt lat="47.1927" lon="5.16331">
        <ele>194.0</ele>
      </trkpt>
      <trkpt lat="47.19342" lon="5.16254">
        <ele>194.7</ele>
      </trkpt>
      <trkpt lat="47.19415" lon="5.16177">
        <ele>193.9</ele>
      </trkpt>
      <trkpt lat="47.19487" lon="5.16099">
        <ele>193.9</ele>
      </trkpt>
      <trkpt lat="47.1956" lon="5.16022">
        <ele>194.7</ele>
      </trkpt>
      <trkpt lat="47.19632" lon="5.15945">
        <ele>195.3</ele>
      </trkpt>
      <trkpt lat="47.19705" lon="5.15867">
        <ele>195.8</ele>
      </trkpt>
      <trkpt lat="47.19777" lon="5.1579">
        <ele>195.2</ele>
      </trkpt>
      <trkpt lat="47.1985" lon="5.15713">
        <ele>195.6</ele>
      </trkpt>
      <trkpt lat="47.19922" lon="5.15635">
        <ele>195.6</ele>
      </trkpt>
      <trkpt lat="47.19995" lon="5.15558">
        <ele>195.6</ele>
      </trkpt>
      <trkpt lat="47.20067" lon="5.1548">
        <ele>196.4</ele>
      </trkpt>
      <trkpt lat="47.20124" lon="5.15431">
        <ele>196.7</ele>
      </trkpt>
      <trkpt lat="47.20144" lon="5.1541">
        <ele>196.7</ele>
      </trkpt>
      <trkpt lat="47.20158" lon="5.15391">
        <ele>196.9</ele>
      </trkpt>
      <trkpt lat="47.2017" lon="5.15383">
        <ele>197.0</ele>
      </trkpt>
      <trkpt lat="47.20186" lon="5.15376">
        <ele>197.0</ele>
      </trkpt>
      <trkpt lat="47.20229" lon="5.1533">
        <ele>197.7</ele>
      </trkpt>
      <trkpt lat="47.20234" lon="5.15312">
        <ele>197.6</ele>
      </trkpt>
      <trkpt lat="47.20244" lon="5.15293">
        <ele>197.4</ele>
      </trkpt>
      <trkpt lat="47.2027" lon="5.15268">
        <ele>196.7</ele>
      </trkpt>
      <trkpt lat="47.20335" lon="5.15198">
        <ele>196.3</ele>
      </trkpt>
      <trkpt lat="47.204" lon="5.15128">
        <ele>197.1</ele>
      </trkpt>
      <trkpt lat="47.20465" lon="5.15059">
        <ele>197.0</ele>
      </trkpt>
      <trkpt lat="47.2053" lon="5.14989">
        <ele>197.7</ele>
      </trkpt>
      <trkpt lat="47.20595" lon="5.14919">
        <ele>198.9</ele>
      </trkpt>
      <trkpt lat="47.20653" lon="5.14858">
        <ele>199.0</ele>
      </trkpt>
      <trkpt lat="47.20712" lon="5.14797">
        <ele>198.2</ele>
      </trkpt>
      <trkpt lat="47.2077" lon="5.14735">
        <ele>198.6</ele>
      </trkpt>
      <trkpt lat="47.20842" lon="5.1466">
        <ele>198.9</ele>
      </trkpt>
      <trkpt lat="47.20914" lon="5.14584">
        <ele>199.0</ele>
      </trkpt>
      <trkpt lat="47.20984" lon="5.14509">
        <ele>199.3</ele>
      </trkpt>
      <trkpt lat="47.21053" lon="5.14434">
        <ele>200.0</ele>
      </trkpt>
      <trkpt lat="47.21122" lon="5.14359">
        <ele>199.7</ele>
      </trkpt>
      <trkpt lat="47.21176" lon="5.14303">
        <ele>200.5</ele>
      </trkpt>
      <trkpt lat="47.21229" lon="5.14246">
        <ele>201.7</ele>
      </trkpt>
      <trkpt lat="47.21282" lon="5.14189">
        <ele>201.7</ele>
      </trkpt>
      <trkpt lat="47.21325" lon="5.14137">
        <ele>202.5</ele>
      </trkpt>
      <trkpt lat="47.21368" lon="5.14086">
        <ele>201.2</ele>
      </trkpt>
      <trkpt lat="47.21433" lon="5.14004">
        <ele>202.7</ele>
      </trkpt>
      <trkpt lat="47.21476" lon="5.13951">
        <ele>201.8</ele>
      </trkpt>
      <trkpt lat="47.21519" lon="5.13898">
        <ele>201.5</ele>
      </trkpt>
      <trkpt lat="47.2156" lon="5.13849">
        <ele>201.5</ele>
      </trkpt>
      <trkpt lat="47.21598" lon="5.13802">
        <ele>202.5</ele>
      </trkpt>
      <trkpt lat="47.21636" lon="5.13755">
        <ele>203.0</ele>
      </trkpt>
      <trkpt lat="47.21642" lon="5.13746">
        <ele>203.0</ele>
      </trkpt>
      <trkpt lat="47.21645" lon="5.13741">
        <ele>203.0</ele>
      </trkpt>
      <trkpt lat="47.21687" lon="5.13687">
        <ele>202.5</ele>
      </trkpt>
      <trkpt lat="47.2173" lon="5.13633">
        <ele>201.9</ele>
      </trkpt>
      <trkpt lat="47.21792" lon="5.13556">
        <ele>202.2</ele>
      </trkpt>
      <trkpt lat="47.21854" lon="5.13479">
        <ele>203.0</ele>
      </trkpt>
      <trkpt lat="47.21916" lon="5.13402">
        <ele>203.0</ele>
      </trkpt>
      <trkpt lat="47.21978" lon="5.13325">
        <ele>203.1</ele>
      </trkpt>
      <trkpt lat="47.2204" lon="5.13248">
        <ele>203.5</ele>
      </trkpt>
      <trkpt lat="47.22107" lon="5.13164">
        <ele>202.7</ele>
      </trkpt>
      <trkpt lat="47.22174" lon="5.1308">
        <ele>203.8</ele>
      </trkpt>
      <trkpt lat="47.2223" lon="5.13011">
        <ele>203.3</ele>
      </trkpt>
      <trkpt lat="47.22285" lon="5.12942">
        <ele>203.0</ele>
      </trkpt>
      <trkpt lat="47.2234" lon="5.12874">
        <ele>203.5</ele>
      </trkpt>
      <trkpt lat="47.22396" lon="5.12805">
        <ele>204.4</ele>
      </trkpt>
      <trkpt lat="47.22425" lon="5.12775">
        <ele>204.6</ele>
      </trkpt>
      <trkpt lat="47.22437" lon="5.1275">
        <ele>205.0</ele>
      </trkpt>
      <trkpt lat="47.22505" lon="5.12667">
        <ele>205.8</ele>
      </trkpt>
      <trkpt lat="47.22572" lon="5.12585">
        <ele>205.8</ele>
      </trkpt>
      <trkpt lat="47.2264" lon="5.12502">
        <ele>207.0</ele>
      </trkpt>
      <trkpt lat="47.22707" lon="5.12419">
        <ele>205.0</ele>
      </trkpt>
      <trkpt lat="47.22775" lon="5.12336">
        <ele>203.7</ele>
      </trkpt>
      <trkpt lat="47.22843" lon="5.12251">
        <ele>202.9</ele>
      </trkpt>
      <trkpt lat="47.22911" lon="5.12166">
        <ele>205.0</ele>
      </trkpt>
      <trkpt lat="47.22979" lon="5.12081">
        <ele>205.8</ele>
      </trkpt>
      <trkpt lat="47.23047" lon="5.11996">
        <ele>205.4</ele>
      </trkpt>
      <trkpt lat="47.23115" lon="5.11911">
        <ele>207.8</ele>
      </trkpt>
      <trkpt lat="47.23183" lon="5.11826">
        <ele>208.3</ele>
      </trkpt>
      <trkpt lat="47.23251" lon="5.11741">
        <ele>206.9</ele>
      </trkpt>
      <trkpt lat="47.23319" lon="5.11656">
        <ele>205.2</ele>
      </trkpt>
      <trkpt lat="47.23387" lon="5.11571">
        <ele>205.3</ele>
      </trkpt>
      <trkpt lat="47.23455" lon="5.11485">
        <ele>206.4</ele>
      </trkpt>
      <trkpt lat="47.23524" lon="5.114">
        <ele>207.3</ele>
      </trkpt>
      <trkpt lat="47.23592" lon="5.11315">
        <ele>208.0</ele>
      </trkpt>
      <trkpt lat="47.2366" lon="5.1123">
        <ele>207.0</ele>
      </trkpt>
      <trkpt lat="47.23728" lon="5.11145">
        <ele>207.1</ele>
      </trkpt>
      <trkpt lat="47.23796" lon="5.1106">
        <ele>207.2</ele>
      </trkpt>
      <trkpt lat="47.23864" lon="5.10975">
        <ele>206.3</ele>
      </trkpt>
      <trkpt lat="47.23924" lon="5.10901">
        <ele>205.4</ele>
      </trkpt>
      <trkpt lat="47.23985" lon="5.10826">
        <ele>207.1</ele>
      </trkpt>
      <trkpt lat="47.24045" lon="5.10751">
        <ele>208.4</ele>
      </trkpt>
      <trkpt lat="47.24106" lon="5.10677">
        <ele>210.5</ele>
      </trkpt>
      <trkpt lat="47.24166" lon="5.10602">
        <ele>210.8</ele>
      </trkpt>
      <trkpt lat="47.24227" lon="5.10528">
        <ele>209.4</ele>
      </trkpt>
      <trkpt lat="47.24234" lon="5.10523">
        <ele>209.2</ele>
      </trkpt>
      <trkpt lat="47.24239" lon="5.10512">
        <ele>209.2</ele>
      </trkpt>
      <trkpt lat="47.24305" lon="5.1043">
        <ele>209.4</ele>
      </trkpt>
      <trkpt lat="47.2437" lon="5.10348">
        <ele>210.4</ele>
      </trkpt>
      <trkpt lat="47.24436" lon="5.10266">
        <ele>209.2</ele>
      </trkpt>
      <trkpt lat="47.24502" lon="5.10184">
        <ele>209.8</ele>
      </trkpt>
      <trkpt lat="47.24567" lon="5.10102">
        <ele>212.1</ele>
      </trkpt>
      <trkpt lat="47.24633" lon="5.1002">
        <ele>210.5</ele>
      </trkpt>
      <trkpt lat="47.24698" lon="5.09939">
        <ele>210.0</ele>
      </trkpt>
      <trkpt lat="47.24764" lon="5.09857">
        <ele>211.4</ele>
      </trkpt>
      <trkpt lat="47.2483" lon="5.09775">
        <ele>211.3</ele>
      </trkpt>
      <trkpt lat="47.24895" lon="5.09693">
        <ele>210.9</ele>
      </trkpt>
      <trkpt lat="47.24946" lon="5.09628">
        <ele>211.8</ele>
      </trkpt>
      <trkpt lat="47.24997" lon="5.09562">
        <ele>213.0</ele>
      </trkpt>
      <trkpt lat="47.25056" lon="5.09495">
        <ele>211.7</ele>
      </trkpt>
      <trkpt lat="47.25123" lon="5.0941">
        <ele>212.4</ele>
      </trkpt>
      <trkpt lat="47.25191" lon="5.09326">
        <ele>211.9</ele>
      </trkpt>
      <trkpt lat="47.25258" lon="5.09242">
        <ele>212.8</ele>
      </trkpt>
      <trkpt lat="47.25325" lon="5.09157">
        <ele>212.2</ele>
      </trkpt>
      <trkpt lat="47.25392" lon="5.09073">
        <ele>213.3</ele>
      </trkpt>
      <trkpt lat="47.2546" lon="5.08989">
        <ele>214.5</ele>
      </trkpt>
      <trkpt lat="47.25522" lon="5.08911">
        <ele>215.2</ele>
      </trkpt>
      <trkpt lat="47.25584" lon="5.08834">
        <ele>216.9</ele>
      </trkpt>
      <trkpt lat="47.25647" lon="5.08756">
        <ele>217.0</ele>
      </trkpt>
      <trkpt lat="47.25709" lon="5.08678">
        <ele>216.2</ele>
      </trkpt>
      <trkpt lat="47.25772" lon="5.08601">
        <ele>213.2</ele>
      </trkpt>
      <trkpt lat="47.25834" lon="5.08523">
        <ele>213.7</ele>
      </trkpt>
      <trkpt lat="47.25896" lon="5.08446">
        <ele>215.1</ele>
      </trkpt>
      <trkpt lat="47.25959" lon="5.08368">
        <ele>217.4</ele>
      </trkpt>
      <trkpt lat="47.26021" lon="5.08291">
        <ele>216.8</ele>
      </trkpt>
      <trkpt lat="47.26084" lon="5.08213">
        <ele>217.0</ele>
      </trkpt>
      <trkpt lat="47.26142" lon="5.08141">
        <ele>216.1</ele>
      </trkpt>
      <trkpt lat="47.262" lon="5.08068">
        <ele>215.6</ele>
      </trkpt>
      <trkpt lat="47.26259" lon="5.07996">
        <ele>216.2</ele>
      </trkpt>
      <trkpt lat="47.26317" lon="5.07923">
        <ele>218.5</ele>
      </trkpt>
      <trkpt lat="47.26376" lon="5.07851">
        <ele>218.8</ele>
      </trkpt>
      <trkpt lat="47.26434" lon="5.07779">
        <ele>217.7</ele>
      </trkpt>
      <trkpt lat="47.26449" lon="5.07761">
        <ele>217.3</ele>
      </trkpt>
      <trkpt lat="47.26446" lon="5.07756">
        <ele>217.3</ele>
      </trkpt>
      <trkpt lat="47.26432" lon="5.07733">
        <ele>217.5</ele>
      </trkpt>
      <trkpt lat="47.26431" lon="5.0773">
        <ele>217.5</ele>
      </trkpt>
      <trkpt lat="47.26458" lon="5.077">
        <ele>217.0</ele>
      </trkpt>
      <trkpt lat="47.26484" lon="5.07665">
        <ele>217.0</ele>
      </trkpt>
      <trkpt lat="47.26544" lon="5.07592">
        <ele>217.9</ele>
      </trkpt>
      <trkpt lat="47.26603" lon="5.07518">
        <ele>218.0</ele>
      </trkpt>
      <trkpt lat="47.26662" lon="5.07445">
        <ele>215.8</ele>
      </trkpt>
      <trkpt lat="47.26722" lon="5.07371">
        <ele>216.2</ele>
      </trkpt>
      <trkpt lat="47.26789" lon="5.07286">
        <ele>216.3</ele>
      </trkpt>
      <trkpt lat="47.26856" lon="5.07202">
        <ele>216.2</ele>
      </trkpt>
      <trkpt lat="47.26892" lon="5.07159">
        <ele>217.8</ele>
      </trkpt>
      <trkpt lat="47.26938" lon="5.07102">
        <ele>219.2</ele>
      </trkpt>
      <trkpt lat="47.26984" lon="5.07045">
        <ele>219.4</ele>
      </trkpt>
      <trkpt lat="47.27025" lon="5.0699">
        <ele>219.0</ele>
      </trkpt>
      <trkpt lat="47.27081" lon="5.06924">
        <ele>219.0</ele>
      </trkpt>
      <trkpt lat="47.27094" lon="5.06902">
        <ele>218.9</ele>
      </trkpt>
      <trkpt lat="47.27154" lon="5.06829">
        <ele>219.0</ele>
      </trkpt>
      <trkpt lat="47.27214" lon="5.06756">
        <ele>220.0</ele>
      </trkpt>
      <trkpt lat="47.27273" lon="5.06683">
        <ele>220.1</ele>
      </trkpt>
      <trkpt lat="47.27336" lon="5.06605">
        <ele>221.5</ele>
      </trkpt>
      <trkpt lat="47.27398" lon="5.06528">
        <ele>217.4</ele>
      </trkpt>
      <trkpt lat="47.2746" lon="5.0645">
        <ele>218.8</ele>
      </trkpt>
      <trkpt lat="47.27523" lon="5.06373">
        <ele>222.7</ele>
      </trkpt>
      <trkpt lat="47.27585" lon="5.06295">
        <ele>224.0</ele>
      </trkpt>
      <trkpt lat="47.27594" lon="5.06283">
        <ele>223.7</ele>
      </trkpt>
      <trkpt lat="47.276" lon="5.06278">
        <ele>223.6</ele>
      </trkpt>
      <trkpt lat="47.27608" lon="5.06272">
        <ele>223.4</ele>
      </trkpt>
      <trkpt lat="47.27616" lon="5.06265">
        <ele>223.2</ele>
      </trkpt>
      <trkpt lat="47.27634" lon="5.06246">
        <ele>222.8</ele>
      </trkpt>
      <trkpt lat="47.27658" lon="5.06218">
        <ele>222.6</ele>
      </trkpt>
      <trkpt lat="47.27662" lon="5.06201">
        <ele>222.7</ele>
      </trkpt>
      <trkpt lat="47.27675" lon="5.06182">
        <ele>222.9</ele>
      </trkpt>
      <trkpt lat="47.27675" lon="5.06177">
        <ele>223.0</ele>
      </trkpt>
      <trkpt lat="47.27673" lon="5.06174">
        <ele>223.0</ele>
      </trkpt>
      <trkpt lat="47.27669" lon="5.06173">
        <ele>223.0</ele>
      </trkpt>
      <trkpt lat="47.27666" lon="5.06175">
        <ele>222.9</ele>
      </trkpt>
      <trkpt lat="47.27661" lon="5.0618">
        <ele>223.0</ele>
      </trkpt>
      <trkpt lat="47.27656" lon="5.06188">
        <ele>223.0</ele>
      </trkpt>
      <trkpt lat="47.27647" lon="5.06205">
        <ele>223.0</ele>
      </trkpt>
      <trkpt lat="47.27646" lon="5.06211">
        <ele>223.0</ele>
      </trkpt>
      <trkpt lat="47.27647" lon="5.06218">
        <ele>222.9</ele>
      </trkpt>
      <trkpt lat="47.27651" lon="5.06221">
        <ele>222.7</ele>
      </trkpt>
      <trkpt lat="47.27669" lon="5.06225">
        <ele>222.3</ele>
      </trkpt>
      <trkpt lat="47.27675" lon="5.06226">
        <ele>222.4</ele>
      </trkpt>
      <trkpt lat="47.27735" lon="5.06152">
        <ele>224.2</ele>
      </trkpt>
      <trkpt lat="47.27794" lon="5.06077">
        <ele>225.0</ele>
      </trkpt>
      <trkpt lat="47.27854" lon="5.06003">
        <ele>225.0</ele>
      </trkpt>
      <trkpt lat="47.27914" lon="5.05929">
        <ele>225.8</ele>
      </trkpt>
      <trkpt lat="47.27973" lon="5.05854">
        <ele>226.4</ele>
      </trkpt>
      <trkpt lat="47.28033" lon="5.0578">
        <ele>227.8</ele>
      </trkpt>
      <trkpt lat="47.28041" lon="5.05777">
        <ele>228.1</ele>
      </trkpt>
      <trkpt lat="47.28069" lon="5.05773">
        <ele>229.2</ele>
      </trkpt>
      <trkpt lat="47.28075" lon="5.05768">
        <ele>229.3</ele>
      </trkpt>
      <trkpt lat="47.28088" lon="5.05752">
        <ele>228.9</ele>
      </trkpt>
      <trkpt lat="47.28094" lon="5.05741">
        <ele>228.4</ele>
      </trkpt>
      <trkpt lat="47.28095" lon="5.05723">
        <ele>228.0</ele>
      </trkpt>
      <trkpt lat="47.28095" lon="5.05701">
        <ele>227.5</ele>
      </trkpt>
      <trkpt lat="47.28155" lon="5.05627">
        <ele>226.5</ele>
      </trkpt>
      <trkpt lat="47.28204" lon="5.05566">
        <ele>228.7</ele>
      </trkpt>
      <trkpt lat="47.2822" lon="5.05549">
        <ele>229.3</ele>
      </trkpt>
      <trkpt lat="47.28254" lon="5.05507">
        <ele>230.7</ele>
      </trkpt>
      <trkpt lat="47.2826" lon="5.05499">
        <ele>230.8</ele>
      </trkpt>
      <trkpt lat="47.28311" lon="5.05434">
        <ele>228.4</ele>
      </trkpt>
      <trkpt lat="47.28362" lon="5.05369">
        <ele>227.4</ele>
      </trkpt>
      <trkpt lat="47.28413" lon="5.05304">
        <ele>227.4</ele>
      </trkpt>
      <trkpt lat="47.28419" lon="5.05295">
        <ele>227.5</ele>
      </trkpt>
      <trkpt lat="47.28482" lon="5.0522">
        <ele>228.8</ele>
      </trkpt>
      <trkpt lat="47.28549" lon="5.05136">
        <ele>227.9</ele>
      </trkpt>
      <trkpt lat="47.28616" lon="5.05053">
        <ele>227.8</ele>
      </trkpt>
      <trkpt lat="47.28682" lon="5.0497">
        <ele>228.9</ele>
      </trkpt>
      <trkpt lat="47.28749" lon="5.04886">
        <ele>229.0</ele>
      </trkpt>
      <trkpt lat="47.28811" lon="5.0481">
        <ele>228.7</ele>
      </trkpt>
      <trkpt lat="47.28872" lon="5.04733">
        <ele>230.2</ele>
      </trkpt>
      <trkpt lat="47.28933" lon="5.04656">
        <ele>232.3</ele>
      </trkpt>
      <trkpt lat="47.28995" lon="5.0458">
        <ele>231.8</ele>
      </trkpt>
      <trkpt lat="47.29056" lon="5.04503">
        <ele>229.7</ele>
      </trkpt>
      <trkpt lat="47.29118" lon="5.04427">
        <ele>228.6</ele>
      </trkpt>
      <trkpt lat="47.29179" lon="5.0435">
        <ele>228.7</ele>
      </trkpt>
      <trkpt lat="47.2924" lon="5.04273">
        <ele>230.2</ele>
      </trkpt>
      <trkpt lat="47.29307" lon="5.0419">
        <ele>229.1</ele>
      </trkpt>
      <trkpt lat="47.29374" lon="5.04106">
        <ele>228.0</ele>
      </trkpt>
      <trkpt lat="47.29389" lon="5.04085">
        <ele>228.4</ele>
      </trkpt>
      <trkpt lat="47.2942" lon="5.04047">
        <ele>230.5</ele>
      </trkpt>
      <trkpt lat="47.2943" lon="5.04038">
        <ele>230.8</ele>
      </trkpt>
      <trkpt lat="47.29443" lon="5.04023">
        <ele>231.3</ele>
      </trkpt>
      <trkpt lat="47.29475" lon="5.03979">
        <ele>232.7</ele>
      </trkpt>
      <trkpt lat="47.29481" lon="5.03969">
        <ele>233.0</ele>
      </trkpt>
      <trkpt lat="47.29496" lon="5.03953">
        <ele>233.5</ele>
      </trkpt>
      <trkpt lat="47.29551" lon="5.03883">
        <ele>233.4</ele>
      </trkpt>
      <trkpt lat="47.29606" lon="5.03814">
        <ele>233.1</ele>
      </trkpt>
      <trkpt lat="47.29662" lon="5.03745">
        <ele>233.9</ele>
      </trkpt>
      <trkpt lat="47.29717" lon="5.03676">
        <ele>232.7</ele>
      </trkpt>
      <trkpt lat="47.29776" lon="5.03607">
        <ele>232.2</ele>
      </trkpt>
      <trkpt lat="47.29793" lon="5.0359">
        <ele>232.3</ele>
      </trkpt>
      <trkpt lat="47.29813" lon="5.03576">
        <ele>232.5</ele>
      </trkpt>
      <trkpt lat="47.29888" lon="5.03529">
        <ele>232.4</ele>
      </trkpt>
      <trkpt lat="47.29964" lon="5.03484">
        <ele>233.0</ele>
      </trkpt>
      <trkpt lat="47.3004" lon="5.03439">
        <ele>235.0</ele>
      </trkpt>
      <trkpt lat="47.30116" lon="5.03395">
        <ele>236.3</ele>
      </trkpt>
      <trkpt lat="47.30192" lon="5.0335">
        <ele>235.2</ele>
      </trkpt>
      <trkpt lat="47.30268" lon="5.03305">
        <ele>232.8</ele>
      </trkpt>
      <trkpt lat="47.30345" lon="5.03261">
        <ele>232.1</ele>
      </trkpt>
      <trkpt lat="47.30421" lon="5.03216">
        <ele>233.4</ele>
      </trkpt>
      <trkpt lat="47.30497" lon="5.03171">
        <ele>233.9</ele>
      </trkpt>
      <trkpt lat="47.30573" lon="5.03127">
        <ele>235.4</ele>
      </trkpt>
      <trkpt lat="47.30614" lon="5.03097">
        <ele>235.9</ele>
      </trkpt>
      <trkpt lat="47.30665" lon="5.03065">
        <ele>235.8</ele>
      </trkpt>
      <trkpt lat="47.30739" lon="5.03028">
        <ele>233.9</ele>
      </trkpt>
      <trkpt lat="47.30791" lon="5.02999">
        <ele>233.5</ele>
      </trkpt>
      <trkpt lat="47.30844" lon="5.02969">
        <ele>233.5</ele>
      </trkpt>
      <trkpt lat="47.30917" lon="5.02926">
        <ele>235.9</ele>
      </trkpt>
      <trkpt lat="47.30991" lon="5.02883">
        <ele>241.5</ele>
      </trkpt>
      <trkpt lat="47.31065" lon="5.0284">
        <ele>236.9</ele>
      </trkpt>
      <trkpt lat="47.31139" lon="5.02797">
        <ele>235.7</ele>
      </trkpt>
      <trkpt lat="47.31213" lon="5.02754">
        <ele>236.5</ele>
      </trkpt>
      <trkpt lat="47.31216" lon="5.02749">
        <ele>236.6</ele>
      </trkpt>
      <trkpt lat="47.31215" lon="5.02747">
        <ele>236.6</ele>
      </trkpt>
      <trkpt lat="47.31205" lon="5.02742">
        <ele>236.5</ele>
      </trkpt>
      <trkpt lat="47.31203" lon="5.02739">
        <ele>236.5</ele>
      </trkpt>
      <trkpt lat="47.31204" lon="5.02734">
        <ele>236.5</ele>
      </trkpt>
      <trkpt lat="47.31209" lon="5.02722">
        <ele>236.5</ele>
      </trkpt>
      <trkpt lat="47.31213" lon="5.02717">
        <ele>236.5</ele>
      </trkpt>
      <trkpt lat="47.31294" lon="5.02669">
        <ele>236.5</ele>
      </trkpt>
      <trkpt lat="47.313" lon="5.02667">
        <ele>236.6</ele>
      </trkpt>
      <trkpt lat="47.31369" lon="5.02627">
        <ele>238.6</ele>
      </trkpt>
      <trkpt lat="47.31439" lon="5.02586">
        <ele>240.4</ele>
      </trkpt>
      <trkpt lat="47.31508" lon="5.02546">
        <ele>239.2</ele>
      </trkpt>
      <trkpt lat="47.31577" lon="5.02506">
        <ele>238.0</ele>
      </trkpt>
      <trkpt lat="47.3158" lon="5.02498">
        <ele>238.1</ele>
      </trkpt>
      <trkpt lat="47.31587" lon="5.02488">
        <ele>238.0</ele>
      </trkpt>
      <trkpt lat="47.31616" lon="5.02472">
        <ele>237.6</ele>
      </trkpt>
      <trkpt lat="47.31617" lon="5.02474">
        <ele>237.6</ele>
      </trkpt>
      <trkpt lat="47.31635" lon="5.02507">
        <ele>237.4</ele>
      </trkpt>
      <trkpt lat="47.31642" lon="5.0252">
        <ele>237.3</ele>
      </trkpt>
      <trkpt lat="47.31663" lon="5.02552">
        <ele>237.6</ele>
      </trkpt>
      <trkpt lat="47.31668" lon="5.02559">
        <ele>237.7</ele>
      </trkpt>
      <trkpt lat="47.31684" lon="5.02578">
        <ele>237.9</ele>
      </trkpt>
      <trkpt lat="47.31694" lon="5.02588">
        <ele>238.0</ele>
      </trkpt>
      <trkpt lat="47.31706" lon="5.02597">
        <ele>237.9</ele>
      </trkpt>
      <trkpt lat="47.31727" lon="5.02616">
        <ele>237.7</ele>
      </trkpt>
      <trkpt lat="47.31735" lon="5.02628">
        <ele>237.6</ele>
      </trkpt>
      <trkpt lat="47.31793" lon="5.02716">
        <ele>237.6</ele>
      </trkpt>
      <trkpt lat="47.3185" lon="5.02804">
        <ele>237.3</ele>
      </trkpt>
      <trkpt lat="47.31858" lon="5.02817">
        <ele>237.4</ele>
      </trkpt>
      <trkpt lat="47.31863" lon="5.02822">
        <ele>237.5</ele>
      </trkpt>
      <trkpt lat="47.31865" lon="5.02819">
        <ele>237.5</ele>
      </trkpt>
    </trkseg>
  </trk>
</gpx>
